{"type": "Feature","bbox": [31.3394,53.6054,31.9174,53.873],"geometry": {"type": "MultiPolygon","coordinates": [[[[31.6384,53.6057,139.5061],[31.6519,53.6054,142.8262],[31.6611,53.6079,138.8129],[31.6618,53.6161,138.4802],[31.6667,53.6214,139.0379],[31.6757,53.6212,140.1049],[31.6888,53.6155,140.5006],[31.6886,53.6128,142.4551],[31.7395,53.6281,162.4328],[31.7532,53.6306,141.0466],[31.7673,53.6358,141.2529],[31.7771,53.6437,148.8338],[31.7824,53.6518,170.6934],[31.7872,53.6544,158.4304],[31.7919,53.6544,162.0641],[31.7963,53.6516,164.3394],[31.7961,53.649,160.8459],[31.791,53.6436,162.6586],[31.7908,53.6409,167.8543],[31.7952,53.6382,170.2108],[31.7998,53.6381,171.4593],[31.8188,53.6432,157.5714],[31.8333,53.651,168.6411],[31.8521,53.6559,182.4698],[31.8613,53.6556,181.1208],[31.8884,53.6468,193.1495],[31.8928,53.644,197.9052],[31.9021,53.6438,176.2505],[31.9069,53.6463,171.6904],[31.9074,53.6543,173.319],[31.9122,53.6568,170.6888],[31.9174,53.6646,169.343],[31.913,53.6674,177.951],[31.9038,53.6677,191.8905],[31.8947,53.6706,188.3904],[31.8951,53.676,176.2998],[31.9001,53.6811,175.2902],[31.9059,53.6995,184.6782],[31.888,53.7081,176.7158],[31.8838,53.7135,175.9921],[31.8849,53.732,188.2422],[31.8943,53.7369,177.1182],[31.8993,53.7447,185.2211],[31.9089,53.7522,175.9378],[31.9094,53.7627,183.2377],[31.9005,53.7683,163.4932],[31.901,53.7787,151.771],[31.8921,53.7816,148.5361],[31.8421,53.7835,167.948],[31.8199,53.7922,171.5533],[31.8156,53.7976,147.6139],[31.8023,53.8034,145.4226],[31.7933,53.8038,145.577],[31.775,53.7969,144.0787],[31.766,53.7973,144.9081],[31.7662,53.8,145.4582],[31.762,53.8027,144.2729],[31.7667,53.8052,144.3745],[31.7671,53.8104,144.7034],[31.7714,53.8114,144.7178],[31.7717,53.8151,144.371],[31.7548,53.8268,158.9571],[31.7551,53.8294,157.8584],[31.7598,53.8318,145.7354],[31.769,53.831,145.7747],[31.7658,53.8356,146.732],[31.7823,53.838,145.1569],[31.7738,53.8408,148.357],[31.7743,53.846,162.4752],[31.7859,53.8421,146.5003],[31.7932,53.8431,145.3818],[31.7873,53.8495,144.2518],[31.7922,53.857,146.515],[31.7971,53.8591,145.4305],[31.7913,53.8596,146.3428],[31.7838,53.863,155.6868],[31.7754,53.8589,166.0533],[31.7675,53.8651,166.2317],[31.7586,53.866,174.7865],[31.74,53.8646,170.9565],[31.7404,53.8699,165.1183],[31.7361,53.8728,165.4758],[31.7316,53.873,174.0054],[31.7085,53.869,150.9785],[31.6853,53.8622,151.8566],[31.6671,53.8604,152.22],[31.6447,53.8644,154.2061],[31.627,53.8708,170.3059],[31.5998,53.8723,157.6873],[31.5858,53.8677,159.9025],[31.5767,53.8682,159.3639],[31.558,53.8638,159.4504],[31.5401,53.8704,178.667],[31.531,53.8709,163.6873],[31.5168,53.8662,165.0531],[31.5032,53.8698,170.2131],[31.4983,53.8673,167.2514],[31.4979,53.8618,176.6286],[31.4929,53.8566,167.2694],[31.4744,53.8577,173.1103],[31.4694,53.8524,169.4485],[31.4692,53.8497,171.1142],[31.4732,53.8412,181.1492],[31.4588,53.8365,180.2817],[31.4542,53.8367,179.295],[31.454,53.834,184.9896],[31.4582,53.8282,189.7066],[31.4533,53.8257,190.2943],[31.4392,53.8237,177.8159],[31.4251,53.8241,182.1286],[31.3978,53.8385,173.8044],[31.3835,53.8386,182.3671],[31.3737,53.8359,189.4332],[31.3823,53.8247,188.5509],[31.3816,53.8164,188.7801],[31.3716,53.8108,185.4324],[31.357,53.808,199.6648],[31.3474,53.808,178.6043],[31.3466,53.7996,181.0311],[31.3512,53.7969,169.2232],[31.3498,53.7802,197.6729],[31.3397,53.7745,194.5176],[31.3394,53.7718,188.2867],[31.3575,53.7579,181.3744],[31.3618,53.7524,190.2159],[31.3755,53.744,172.7789],[31.3751,53.7385,182.7175],[31.3602,53.7329,175.535],[31.3549,53.7273,177.4125],[31.3547,53.7246,176.4529],[31.3814,53.6995,186.1755],[31.3998,53.6911,172.8627],[31.4508,53.6761,166.1084],[31.4503,53.6706,163.0951],[31.4876,53.6689,160.1504],[31.4973,53.674,164.9776],[31.5255,53.6782,164.3134],[31.5679,53.6903,165.2489],[31.5723,53.6873,165.3427],[31.5721,53.6846,165.0213],[31.5527,53.6715,182.4207],[31.5656,53.66,182.323],[31.5647,53.6489,167.2575],[31.5771,53.632,178.4555],[31.5858,53.6262,156.1864],[31.5947,53.6232,153.7186],[31.608,53.6201,148.721],[31.6127,53.6227,149.6297],[31.6215,53.6198,139.3263],[31.6296,53.6087,139.9738],[31.6384,53.6057,139.5061]]]]}
,"properties": {"GID_2": "BLR.4.17_1","GID_0": "BLR","country": "Belarus","GID_1": "BLR.4_1","province": "Mogilev","NL_NAME_1": "Магілёўская","county": "Krychaw","VARNAME_2": "Krichev","NL_NAME_2": "Крычаўскіраён","TYPE_2": "Raion","ENGTYPE_2": "District","CC_2": "NA","HASC_2": "BY.MA.KR","name": "Krychaw.county","area_km2": 750.3266,"hist_schema_id": "Elevation0-9000","hist_area_km2": {"125": 1.1303,"150": 157.6591,"175": 521.3606,"200": 69.5384,"225": 0.6381}}}