{"type":"Feature","properties":{"GID_2":"BLR.3.17_1","GID_0":"BLR","country":"Belarus","GID_1":"BLR.3_1","province":"Grodno","NL_NAME_1":"Гродзенская","county":"Zel'va","VARNAME_2":"Zelva","NL_NAME_2":"Зэльвенскіраён","TYPE_2":"Raion","ENGTYPE_2":"District","CC_2":"NA","HASC_2":"BY.HR.ZE","name":"Zel'va.county"},
"geometry":{"type": "MultiPolygon","coordinates": [[[[24.9414,52.9669,136.9254],[24.9312,52.98,135.4289],[24.931,52.9827,135.7546],[24.9353,52.9855,138.584],[24.9205,52.9984,139.765],[24.9109,53.0035,136.8234],[24.9105,53.0089,132.8119],[24.923,53.0227,131.6216],[24.9365,53.0258,141.4391],[24.9354,53.0392,133.7463],[24.9301,53.0471,144.6022],[24.9297,53.0524,152.8797],[24.934,53.0552,151.842],[24.952,53.0585,157.9453],[24.9518,53.0611,146.7278],[24.9466,53.069,161.5493],[24.9322,53.0767,181.0353],[24.9224,53.0844,175.3278],[24.9311,53.0901,197.4122],[24.9356,53.0902,204.2406],[24.9358,53.0875,200.1474],[24.9454,53.0824,182.4219],[24.95,53.0826,194.7555],[24.9587,53.0882,171.1156],[24.958,53.0963,187.0526],[24.9486,53.0987,198.8556],[24.9484,53.1013,180.0443],[24.9527,53.1042,208.7901],[24.9662,53.1073,216.4702],[24.9705,53.1101,219.9775],[24.9933,53.1108,202.6221],[24.9977,53.1136,203.202],[24.9975,53.1163,201.7682],[24.9929,53.1161,198.0281],[24.9831,53.1239,204.0675],[24.9874,53.1267,203.5773],[24.992,53.1268,208.872],[25.0016,53.1218,196.3224],[25.0109,53.1193,203.1726],[25.0478,53.115,178.9746],[25.0797,53.116,197.9308],[25.0886,53.118899999999996,195.9273],[25.0977,53.1192,198.0352],[25.1025,53.1166,198.7108],[25.1031,53.1086,212.3725],[25.1125,53.1061,197.8532],[25.1261,53.1065,196.9393],[25.135,53.1094,187.7747],[25.1443,53.107,189.0948],[25.1445,53.1043,185.6011],[25.1493,53.1018,194.6457],[25.1627,53.1048,205.9925],[25.172,53.1024,209.8026],[25.1718,53.1051,206.8786],[25.1762,53.1079,204.5183],[25.1619,53.1156,170.8405],[25.1614,53.1209,162.9903],[25.1658,53.1238,159.7071],[25.1703,53.1239,162.7782],[25.1751,53.1213,194.7614],[25.1796,53.1214,200.1273],[25.1836,53.1296,166.0391],[25.1831,53.135,165.0229],[25.1875,53.1378,163.6532],[25.1873,53.1405,166.1384],[25.1821,53.1484,174.5793],[25.1771,53.1537,177.9625],[25.1678,53.1561,171.4011],[25.1541,53.1557,158.1761],[25.14,53.1607,160.4036],[25.1355,53.1606,158.897],[25.1311,53.1578,161.7397],[25.122,53.1575,160.217],[25.1127,53.1599,161.7479],[25.1077,53.1652,160.4478],[25.0942,53.1621,160.2758],[25.0892,53.1673,159.9814],[25.0888,53.1727,151.6361],[25.084,53.1753,160.9968],[25.0749,53.175,165.5767],[25.0653,53.1801,163.3738],[25.0649,53.1855,160.0119],[25.0547,53.1986,152.9476],[25.0542,53.204,149.5718],[25.0588,53.2041,145.7007],[25.0631,53.207,152.1675],[25.0722,53.2072,150.8919],[25.0809,53.2129,133.2771],[25.1037,53.2135,132.2037],[25.1079,53.219,143.1848],[25.1074,53.2244,141.1553],[25.1024,53.2296,141.2431],[25.102,53.235,127.6199],[25.1148,53.2462,126.3621],[25.1144,53.2515,125.5879],[25.1185,53.257,125.074],[25.1363,53.2629,122.4876],[25.15,53.2633,121.4268],[25.1496,53.2687,124.2321],[25.1211,53.2813,121.6647],[25.0882,53.2911,120.1231],[25.0791,53.2909,120.7345],[25.0747,53.2881,122.4629],[25.0749,53.2854,124.919],[25.0706,53.2825,121.7744],[25.066,53.2824,121.7686],[25.0567,53.2848,121.307],[25.0375,53.295,138.8338],[25.0283,53.2947,127.4916],[25.024,53.2919,121.4333],[25.0148,53.2916,121.5095],[25.0109,53.2834,125.3497],[25.0112,53.2807,125.8285],[25.0157,53.2809,124.1546],[25.007,53.2752,126.7665],[24.9979,53.275,128.3023],[24.9892,53.2693,131.5007],[24.9899,53.2613,134.3476],[24.9855,53.2584,134.9792],[24.9672,53.2579,139.5326],[24.9528,53.2655,136.6242],[24.9393,53.2624,134.1621],[24.9299,53.2648,137.0332],[24.9249,53.27,136.7822],[24.9242,53.278,134.4062],[24.9194,53.2806,133.566],[24.9059,53.2775,139.8836],[24.9064,53.2721,144.2803],[24.8754,53.2576,158.6347],[24.8663,53.2574,172.4657],[24.8523,53.2596,140.49],[24.8472,53.2648,140.156],[24.8514,53.2703,141.3367],[24.8465,53.2729,138.8959],[24.7961,53.2712,117.8232],[24.7913,53.2737,117.9203],[24.7903,53.2844,117.4644],[24.785,53.2923,116.5913],[24.7802,53.2948,116.7019],[24.7664,53.2944,116.963],[24.7621,53.2915,117.0885],[24.7671,53.2863,117.4628],[24.7635,53.2755,118.3691],[24.7591,53.2726,118.725],[24.755,53.2671,119.0555],[24.7458,53.2668,119.9872],[24.7325,53.261,128.2923],[24.7183,53.2659,123.6677],[24.7139,53.263,131.0582],[24.7144,53.2577,129.5308],[24.7055,53.2547,136.7913],[24.696,53.257,144.8437],[24.6779,53.2537,157.8796],[24.6596,53.2531,164.412],[24.6508,53.2474,163.8837],[24.6371,53.2469,169.1748],[24.6322,53.2494,166.3773],[24.6318,53.2548,163.6077],[24.6364,53.2549,167.4792],[24.6361,53.2576,155.58],[24.6313,53.2601,154.2697],[24.6176,53.2596,153.0762],[24.6127,53.2622,159.2738],[24.6038,53.2592,155.4602],[24.5717,53.258,181.0183],[24.5673,53.2551,182.2275],[24.5634,53.2469,196.4164],[24.5639,53.2416,200.7401],[24.5595,53.2387,201.718],[24.5506,53.2357,200.0514],[24.5368,53.2352,217.6403],[24.5278,53.2322,197.1978],[24.5283,53.2268,189.193],[24.5242,53.2213,194.6232],[24.5336,53.2189,189.7498],[24.5657,53.2201,183.4091],[24.5756,53.2124,196.7609],[24.59,53.2049,184.9249],[24.591,53.1942,209.1033],[24.5961,53.189,218.6229],[24.6103,53.1841,208.0498],[24.6113,53.1734,201.7223],[24.6207,53.1711,189.6718],[24.6251,53.1739,180.7624],[24.6297,53.1741,180.4726],[24.6345,53.1716,200.5646],[24.6398,53.1637,217.6969],[24.6267,53.1552,226.2259],[24.6083,53.1545,215.978],[24.604,53.1517,203.8452],[24.6091,53.1465,215.2982],[24.6095,53.1411,215.5204],[24.6052,53.1383,220.4558],[24.596,53.138,233.3416],[24.5916,53.1351,228.8293],[24.6062,53.1276,214.7775],[24.6066,53.1222,208.1134],[24.6166,53.1145,197.1095],[24.618,53.0985,201.021],[24.6282,53.0881,206.2602],[24.6475,53.0781,203.2996],[24.6529,53.0702,206.238],[24.6625,53.0652,228.6256],[24.6763,53.0657,225.6432],[24.6857,53.0633,210.6351],[24.6951,53.061,208.3044],[24.7002,53.0558,196.6661],[24.7009,53.0478,195.7415],[24.7062,53.0399,188.0122],[24.7158,53.0349,193.1588],[24.7209,53.0297,191.7952],[24.7219,53.019,189.6307],[24.732,53.0086,184.3535],[24.7187,53.0028,183.8711],[24.7146,52.9973,177.0217],[24.7375,52.9981,182.7462],[24.7425,52.9929,179.4296],[24.743,52.9875,180.1241],[24.7391,52.9793,173.2581],[24.7396,52.974,172.8778],[24.7355,52.9685,183.9992],[24.736,52.9632,181.8727],[24.7408,52.9606,181.5566],[24.7545,52.9611,166.955],[24.7593,52.9586,177.6691],[24.7639,52.9587,172.7621],[24.7769,52.9672,180.836],[24.7814,52.9673,177.291],[24.8004,52.9599,147.1024],[24.8141,52.9603,146.6005],[24.8237,52.9552,171.3046],[24.8376,52.953,191.492],[24.8467,52.9533,164.166],[24.8736,52.9595,173.3752],[24.8827,52.9597,168.4824],[24.892,52.9573,159.4946],[24.9007,52.963,138.7506],[24.9052,52.9631,137.407],[24.915,52.9553,136.0483],[24.9287,52.9557,137.4216],[24.9376,52.9587,136.4841],[24.9414,52.9669,136.9254]]]]}}