{"type": "Feature","bbox": [29.9367,53.9905,30.8777,54.3907],"geometry": {"type": "MultiPolygon","coordinates": [[[[30.1233,54.0549,189.3864],[30.1374,54.06,189.5915],[30.1376,54.0655,194.7937],[30.147,54.0707,197.1617],[30.1517,54.0707,194.8145],[30.1608,54.0678,199.4963],[30.1698,54.0621,208.399],[30.1837,54.0619,205.4007],[30.1882,54.0591,206.1739],[30.1829,54.0428,181.4682],[30.1874,54.04,195.4971],[30.1967,54.0426,201.7702],[30.2063,54.0505,200.3295],[30.2066,54.0587,201.1644],[30.2117,54.0695,200.3523],[30.2164,54.0721,201.4026],[30.2257,54.0719,196.7957],[30.2297,54.0583,202.0767],[30.2341,54.0527,209.0045],[30.2568,54.0441,201.8974],[30.3577,54.0311,188.7507],[30.3807,54.0306,148.0936],[30.3992,54.0329,172.5796],[30.4082,54.0273,195.6674],[30.4078,54.0191,200.5806],[30.403,54.0138,182.8937],[30.4028,54.011,176.011],[30.4304,54.0104,198.7495],[30.4489,54.0128,193.4269],[30.458,54.0098,204.0411],[30.4571,53.9908,198.9432],[30.4663,53.9905,199.9074],[30.4665,53.996,197.134],[30.4949,54.0117,194.0373],[30.5793,54.04,205.2909],[30.5885,54.0398,213.7304],[30.593,54.037,197.2599],[30.5882,54.0344,201.4146],[30.588,54.0316,200.4258],[30.5971,54.0287,193.1352],[30.6206,54.0364,192.1953],[30.6252,54.0363,192.5577],[30.625,54.0336,190.5801],[30.6012,54.0204,193.0664],[30.6055,54.0148,199.167],[30.6195,54.0173,200.7402],[30.6336,54.0225,208.1609],[30.6433,54.0305,197.0824],[30.6575,54.0357,185.9353],[30.6621,54.0356,176.6771],[30.6711,54.0326,175.9844],[30.6934,54.0185,178.0467],[30.7026,54.0183,171.3046],[30.7121,54.0235,178.573],[30.7171,54.0289,187.1498],[30.7311,54.0314,190.7442],[30.7574,54.0089,202.4508],[30.7711,54.0059,181.913],[30.7852,54.0111,195.1458],[30.7949,54.0191,176.541],[30.7866,54.033,184.8804],[30.8062,54.0518,181.0067],[30.7978,54.0656,204.4659],[30.7981,54.0711,196.3376],[30.8176,54.0872,201.4122],[30.8512,54.1057,188.8236],[30.8561,54.1111,209.191],[30.8477,54.1249,187.6429],[30.8441,54.1414,205.5296],[30.863,54.1465,213.8228],[30.8726,54.1518,214.5042],[30.8777,54.1599,209.9019],[30.8743,54.1791,193.7031],[30.87,54.1847,202.1579],[30.8656,54.1875,207.4111],[30.8467,54.1824,196.3049],[30.8234,54.1801,209.9279],[30.8052,54.186,192.5884],[30.7921,54.1999,191.809],[30.7832,54.2056,182.8875],[30.7643,54.2005,180.3008],[30.7451,54.1899,174.6805],[30.7266,54.1903,203.0072],[30.7175,54.1933,189.7606],[30.714,54.2125,190.9546],[30.7188,54.2151,192.1472],[30.7148,54.2262,193.2067],[30.7197,54.2315,194.0921],[30.7152,54.2344,195.4137],[30.6967,54.2348,194.4189],[30.6826,54.2323,191.7423],[30.6689,54.2354,194.8412],[30.6692,54.2408,190.7591],[30.6649,54.2464,189.1777],[30.651,54.2467,185.0027],[30.6418,54.2496,183.4311],[30.6423,54.2578,178.1271],[30.6378,54.2607,175.7794],[30.6055,54.2641,193.6684],[30.6007,54.2615,189.959],[30.5961,54.2616,192.0083],[30.5955,54.2506,190.5835],[30.5861,54.2481,196.8433],[30.5259,54.2493,196.5055],[30.5214,54.2521,199.272],[30.5217,54.2576,208.7026],[30.5314,54.2656,194.9104],[30.5223,54.2686,209.803],[30.5179,54.2741,213.0255],[30.5229,54.2795,198.6048],[30.5136,54.2797,193.6519],[30.4946,54.2718,205.0423],[30.49,54.2719,206.699],[30.481,54.2776,231.1389],[30.4816,54.2885,216.193],[30.4865,54.2939,210.7366],[30.4868,54.2994,218.7985],[30.4685,54.3052,213.2928],[30.4465,54.3303,212.6516],[30.4374,54.3332,228.2466],[30.4284,54.3388,211.4854],[30.4189,54.3363,210.1733],[30.414,54.3309,206.7785],[30.4135,54.3199,201.9265],[30.4087,54.3173,224.1313],[30.3947,54.3176,204.1105],[30.3856,54.3205,201.4233],[30.3716,54.3207,201.9701],[30.3669,54.3181,196.0234],[30.3617,54.3072,194.6115],[30.3517,54.2937,190.0589],[30.3469,54.291,189.5423],[30.3145,54.2943,180.8995],[30.2958,54.2919,177.0231],[30.2728,54.2978,164.929],[30.2637,54.3007,154.8205],[30.2639,54.3061,162.3459],[30.2783,54.3141,153.1606],[30.2835,54.325,148.4556],[30.2979,54.3357,152.8649],[30.2937,54.344,163.1873],[30.2801,54.3524,172.6224],[30.2849,54.3551,185.9703],[30.2803,54.3552,174.7811],[30.2757,54.358,165.6173],[30.271,54.3553,170.6603],[30.2477,54.3557,210.5385],[30.2297,54.3697,184.4885],[30.2156,54.3672,215.3797],[30.2059,54.3591,212.8001],[30.2195,54.3507,200.6805],[30.2191,54.3425,193.1827],[30.2,54.3318,185.486],[30.186,54.3321,210.0952],[30.1815,54.3349,204.0578],[30.1866,54.3457,212.9006],[30.187,54.354,201.3391],[30.1689,54.3652,217.5887],[30.1549,54.3654,206.7913],[30.1359,54.3575,207.2261],[30.1266,54.3577,205.7095],[30.1221,54.3605,207.2692],[30.1223,54.3659,228.7731],[30.132,54.374,227.6137],[30.1415,54.3766,230.242],[30.1464,54.382,215.8646],[30.1419,54.3848,236.3889],[30.1324,54.3822,217.5412],[30.1188,54.3907,212.2532],[30.1044,54.3827,221.0953],[30.1039,54.3717,210.2003],[30.1257,54.3385,196.7932],[30.1208,54.3331,194.5913],[30.1161,54.3305,197.9193],[30.1022,54.3334,200.6718],[30.0885,54.3391,210.2406],[30.0841,54.3447,220.6161],[30.075,54.3503,226.7827],[30.0563,54.3478,214.6484],[30.0514,54.3424,204.1252],[30.0512,54.337,199.0544],[30.0556,54.3314,191.6322],[30.0694,54.3285,202.9207],[30.074,54.3257,209.1288],[30.0733,54.3093,204.858],[30.0685,54.3066,206.8917],[30.0592,54.3068,202.8521],[30.0362,54.3126,231.712],[30.0269,54.3128,207.4895],[30.022,54.3074,203.0193],[30.0219,54.3047,208.1717],[30.0399,54.2907,212.9618],[30.0395,54.2798,221.423],[30.0252,54.2719,236.1884],[30.0476,54.2496,214.0363],[30.0517,54.2359,215.7021],[30.0514,54.2305,215.5863],[30.0324,54.2199,202.5207],[30.0136,54.212,191.0416],[30.0043,54.2122,188.9387],[29.9669,54.2074,206.2139],[29.9622,54.2047,225.2391],[29.9621,54.202,208.9385],[29.9664,54.1938,192.8939],[29.9753,54.1827,182.7927],[29.9705,54.1773,181.0294],[29.975,54.1745,181.9571],[29.9749,54.1718,180.1935],[29.9792,54.1636,178.207],[29.9745,54.1609,177.0701],[29.9374,54.1616,176.5733],[29.9418,54.156,177.4043],[29.9416,54.1506,178.5273],[29.9367,54.1425,173.8042],[29.941,54.1343,179.6632],[29.9408,54.1261,172.9374],[29.9499,54.1232,175.735],[29.9638,54.123,177.5383],[29.9729,54.1174,175.0213],[29.9773,54.1119,179.8195],[30.0001,54.1006,198.7081],[30.0047,54.1005,196.3071],[30.0045,54.0951,204.5751],[29.9998,54.0925,197.2475],[29.9813,54.0928,179.7162],[29.9765,54.0901,178.2614],[29.981,54.0846,183.6373],[29.995,54.0871,194.404],[29.9949,54.0844,198.5045],[29.9854,54.0791,193.6059],[29.9808,54.0792,183.7592],[29.976,54.0766,192.4892],[29.9759,54.0738,186.5931],[29.985,54.0682,178.3676],[29.9896,54.0682,177.1976],[29.9944,54.0708,178.7706],[30.0036,54.0706,179.6022],[30.0171,54.0595,192.2656],[30.0214,54.0513,199.4043],[30.0304,54.043,199.4714],[30.0396,54.0428,201.0847],[30.0488,54.0399,198.1705],[30.0719,54.0395,194.1868],[30.1,54.0499,187.9376],[30.1002,54.0553,191.9585],[30.1097,54.0606,200.4252],[30.1143,54.0605,196.1907],[30.1233,54.0549,189.3864]]]]}
,"properties": {"GID_2": "BLR.4.20_1","GID_0": "BLR","country": "Belarus","GID_1": "BLR.4_1","province": "Mogilev","NL_NAME_1": "Магілёўская","county": "Shklow","VARNAME_2": "Shklov","NL_NAME_2": "Шклоўскіраён","TYPE_2": "Raion","ENGTYPE_2": "District","CC_2": "NA","HASC_2": "BY.MA.SH","name": "Shklow.county","area_km2": 1549.494,"hist_schema_id": "Elevation0-9000","hist_area_km2": {"150": 59.335,"175": 371.094,"200": 968.526,"225": 149.586,"250": 0.953}}}