{"type": "Feature","id": "2341","bbox": [26.17032,54.22506,31.17902,56.15681],"geometry": {"type": "Polygon","coordinates": [[[28.14891,56.14241,148.0943],[28.11098,56.15681,141.0283],[28.06824,56.14758,141.983],[28.0511,56.14067,145.4011],[28.0238,56.12965,146.2507],[27.98101,56.11802,183.3524],[27.93967,56.11306,156.3269],[27.92706,56.10937,165.4986],[27.91145,56.10025,165.4179],[27.90153,56.08934,158.9685],[27.89275,56.0771,152.6718],[27.88065,56.06387,152.6338],[27.81254,56.03451,160.9407],[27.78123,56.01638,145.1596],[27.77699,55.9924,151.1095],[27.76006,55.97542,160.9662],[27.74444,55.95974,154.317],[27.64501,55.92284,165.3028],[27.61716,55.87855,191.1284],[27.61013,55.83096,140.068],[27.6015,55.80962,117.8314],[27.59271,55.79424,125.1593],[27.5646,55.79223,136.5863],[27.43882,55.79874,119.9562],[27.40585,55.80435,126.5056],[27.37459,55.81484,107.7822],[27.34963,55.83122,102.2736],[27.32916,55.81758,139.8618],[27.28245,55.79187,163.1809],[27.26302,55.78722,158.192],[27.23553,55.79585,163.5531],[27.1732,55.82574,146.2714],[27.15145,55.83246,151.4302],[27.11078,55.83628,133.3043],[26.98107,55.82688,153.6905],[26.97943,55.82629,154.5946],[26.95782,55.81858,179.9333],[26.90015,55.77872,166.1414],[26.84278,55.71934,164.7808],[26.82284,55.70611,171.888],[26.74305,55.68286,152.3152],[26.72011,55.68187,145.0],[26.66688,55.69397,164.9494],[26.64011,55.69557,181.9238],[26.61562,55.68797,170.7399],[26.59453,55.66699,149.406],[26.60383,55.64327,140.0],[26.60766,55.61645,140.0],[26.60518,55.5901,145.4762],[26.59556,55.56803,148.5827],[26.57613,55.55056,152.0259],[26.55164,55.53449,155.7143],[26.53211,55.51625,141.5],[26.52766,55.49217,142.5],[26.54647,55.47124,142.5],[26.54327,55.45961,148.3719],[26.50782,55.43915,156.9201],[26.49924,55.42809,151.7223],[26.48601,55.39083,151.6532],[26.47909,55.38138,151.6344],[26.45521,55.35611,160.0199],[26.4455,55.3375,158.3862],[26.45004,55.32706,171.2341],[26.46575,55.32086,169.6147],[26.52539,55.3081,132.9965],[26.54234,55.30758,138.6263],[26.6027,55.31688,138.8678],[26.76863,55.30024,126.0],[26.79157,55.29017,127.1547],[26.80072,55.27332,128.9674],[26.78966,55.2572,148.2006],[26.76558,55.24671,158.1926],[26.7399,55.24278,150.8693],[26.70109,55.23684,148.7845],[26.68569,55.23162,144.2511],[26.65696,55.21534,132.6161],[26.64114,55.20283,135.9784],[26.63391,55.19219,135.2525],[26.6275,55.16444,141.8559],[26.61634,55.1354,160.5811],[26.60094,55.12082,178.1102],[26.57893,55.11855,185.5007],[26.4734,55.14568,185.5635],[26.45914,55.14475,186.7143],[26.45066,55.13984,184.6131],[26.44477,55.13395,180.5839],[26.43857,55.13002,181.8026],[26.42875,55.12821,184.9222],[26.42028,55.12811,186.417],[26.30948,55.14465,221.0309],[26.26442,55.1401,223.6196],[26.233,55.11162,232.4137],[26.23032,55.10026,244.7413],[26.23125,55.07545,226.1762],[26.22939,55.06341,225.2582],[26.22463,55.05488,213.7193],[26.18784,55.00874,179.377],[26.17032,54.99326,177.1311],[26.17327,54.99091,180.9275],[26.23409,54.97726,170.106],[26.23998,54.97478,175.5934],[26.24789,54.96982,179.6061],[26.24851,54.96419,181.1647],[26.25362,54.94605,167.3587],[26.2623,54.93458,158.0451],[26.26964,54.93047,161.5228],[26.2777,54.929,150.9773],[26.28484,54.93032,149.106],[26.29135,54.93272,149.4515],[26.31305,54.94572,178.4488],[26.32235,54.94817,177.2512],[26.33295,54.94946,185.4342],[26.34814,54.94331,166.1345],[26.35837,54.94789,172.6679],[26.36209,54.95003,174.1977],[26.36535,54.95287,197.0923],[26.36597,54.95551,182.9728],[26.36488,54.95845,180.2042],[26.36271,54.9622,189.103],[26.36163,54.96657,199.4806],[26.3624,54.97132,202.0629],[26.36535,54.97608,179.935],[26.37015,54.9798,202.8747],[26.3762,54.98186,192.1158],[26.38323,54.98254,208.1963],[26.3933,54.98083,204.325],[26.43098,54.9691,184.9727],[26.4518,54.96468,206.6985],[26.48048,54.96218,195.6513],[26.53495,54.96398,200.6008],[26.54441,54.9622,200.5258],[26.55376,54.95727,195.3335],[26.56182,54.95422,186.7087],[26.57143,54.95225,175.0],[26.58585,54.95272,175.0],[26.59624,54.95507,175.0],[26.60523,54.95895,190.5538],[26.61055,54.96305,192.0826],[26.61505,54.96814,185.8943],[26.61737,54.96923,201.8889],[26.62652,54.97055,194.3803],[26.649,54.97163,193.263],[26.67959,54.97034,199.5474],[26.68812,54.96863,212.5555],[26.69664,54.96561,217.5589],[26.70812,54.95887,205.933],[26.71344,54.95429,194.9011],[26.71912,54.94711,195.6371],[26.72352,54.94492,196.5757],[26.73003,54.94388,192.9897],[26.74088,54.94507,200.479],[26.75375,54.94853,206.4747],[26.78434,54.9629,209.5122],[26.79519,54.96553,203.0724],[26.89699,54.9754,176.6608],[26.90459,54.97416,169.0279],[26.9125,54.97174,172.9566],[26.92536,54.9614,185.5152],[26.93172,54.95499,176.8614],[26.93684,54.95251,174.7975],[26.94402,54.95044,171.9932],[26.98355,54.94833,184.5984],[27.05946,54.95086,190.2415],[27.07094,54.95303,188.6093],[27.07559,54.95463,184.2947],[27.07838,54.95742,180.3575],[27.07931,54.96093,178.8877],[27.07884,54.96471,187.1393],[27.07791,54.96832,185.6373],[27.07295,54.9785,184.4361],[27.07187,54.98186,197.8292],[27.07202,54.98509,200.7469],[27.07435,54.98791,194.1082],[27.10618,55.00207,195.836],[27.11548,55.00176,193.0051],[27.18747,54.98982,180.1269],[27.24209,54.99757,162.2369],[27.24969,54.9968,167.0094],[27.25868,54.99406,167.9582],[27.27217,54.98664,179.5836],[27.27826,54.98186,168.6852],[27.28121,54.97747,166.9563],[27.28023,54.97401,167.1275],[27.27795,54.97075,170.9122],[27.2517,54.94833,192.2975],[27.24969,54.94543,195.2262],[27.25,54.94259,199.7548],[27.25356,54.9397,216.7488],[27.27961,54.92755,211.0921],[27.28756,54.92218,203.378],[27.30586,54.90533,180.6825],[27.31082,54.89944,180.4819],[27.31268,54.89618,180.4565],[27.31423,54.89267,180.7095],[27.315,54.88892,181.1151],[27.31563,54.88104,180.5857],[27.3164,54.87722,180.8929],[27.31935,54.87396,183.1504],[27.32493,54.87166,181.0938],[27.34513,54.87089,181.8177],[27.39913,54.87414,174.6622],[27.40673,54.87329,175.3065],[27.41448,54.87135,174.2746],[27.42378,54.8659,188.2774],[27.43293,54.85862,184.3279],[27.43898,54.8519,177.5061],[27.44177,54.84978,176.4731],[27.51954,54.81185,196.381],[27.52311,54.8089,202.2699],[27.52466,54.8056,196.1792],[27.52481,54.80187,192.1223],[27.52357,54.79803,193.8639],[27.51846,54.78611,194.6051],[27.51737,54.78193,203.1997],[27.51985,54.778,191.604],[27.52698,54.77518,198.0705],[27.62382,54.76599,182.3906],[27.6755,54.74656,181.6095],[27.68635,54.74059,180.3829],[27.69193,54.73557,178.1836],[27.69162,54.73162,178.3691],[27.69038,54.72756,177.7895],[27.68697,54.71961,179.4064],[27.68232,54.71253,181.8913],[27.67705,54.70612,183.7046],[27.6786,54.70157,198.3844],[27.68372,54.69581,186.9106],[27.6986,54.68638,175.9916],[27.70247,54.68072,175.0325],[27.7034,54.6763,178.6713],[27.70697,54.6709,194.7004],[27.71534,54.66547,190.5874],[27.73989,54.65349,196.4664],[27.74671,54.64741,199.4553],[27.74966,54.64271,192.7593],[27.75632,54.63873,188.5391],[27.81311,54.62886,210.1386],[27.83063,54.62827,211.4749],[27.84216,54.62928,220.322],[27.84603,54.6317,219.9661],[27.86355,54.64488,204.3337],[27.8682,54.64643,202.7575],[27.87409,54.64666,203.8084],[27.88029,54.64589,201.1825],[27.8929,54.64312,205.1899],[27.89802,54.64059,216.5273],[27.90112,54.63599,210.9334],[27.90189,54.63158,208.053],[27.90205,54.62302,222.3214],[27.90267,54.61912,217.1534],[27.90484,54.61589,224.173],[27.90872,54.61362,227.3858],[27.92453,54.6147,221.1176],[28.03377,54.63377,235.8953],[28.04013,54.63344,243.2368],[28.08622,54.62618,234.1096],[28.09522,54.627,233.6461],[28.10204,54.62866,222.8682],[28.10591,54.63108,230.2397],[28.12844,54.64057,212.1618],[28.15015,54.64545,177.3647],[28.1995,54.65085,174.3999],[28.22725,54.64961,161.2798],[28.23428,54.64775,160.9045],[28.24125,54.64447,158.119],[28.25505,54.63568,157.1967],[28.26063,54.63021,156.8852],[28.26466,54.62548,157.15],[28.26652,54.62225,156.9633],[28.27396,54.61341,156.7619],[28.28048,54.60819,157.1357],[28.28792,54.60344,160.6856],[28.32223,54.59173,156.1487],[28.33386,54.58439,156.6008],[28.3399,54.57951,156.8675],[28.34228,54.57538,157.1424],[28.34362,54.57194,158.7904],[28.34786,54.56574,156.5148],[28.35515,54.56179,156.1938],[28.3936,54.55,156.6318],[28.41179,54.54941,156.2934],[28.42109,54.55109,157.2243],[28.42496,54.55465,158.2553],[28.45618,54.6054,162.0492],[28.45783,54.60938,164.7714],[28.46238,54.61661,182.1591],[28.46501,54.61992,178.8293],[28.47524,54.63871,174.0309],[28.47788,54.64209,179.2839],[28.48129,54.64483,182.7007],[28.4861,54.64654,179.8267],[28.56552,54.6609,179.623],[28.57116,54.66098,173.4884],[28.57658,54.66002,177.029],[28.58139,54.65517,174.1756],[28.58418,54.65124,178.8489],[28.58619,54.64731,181.3086],[28.58883,54.64026,171.859],[28.591,54.63723,182.5763],[28.59472,54.63532,178.9749],[28.6017,54.63594,185.603],[28.60681,54.63762,184.1896],[28.61146,54.64008,182.2274],[28.63244,54.65604,185.2273],[28.63663,54.65796,183.1175],[28.64237,54.65728,182.7311],[28.65027,54.65333,206.3707],[28.66236,54.64173,210.8007],[28.66485,54.63563,205.1354],[28.66453,54.63067,213.7483],[28.65012,54.61491,205.8258],[28.6481,54.6114,206.7691],[28.64717,54.60731,210.4791],[28.64733,54.60354,219.495],[28.6481,54.59977,217.1295],[28.65291,54.58969,210.7806],[28.65756,54.58613,231.9777],[28.66469,54.58246,216.8249],[28.72443,54.56977,204.4848],[28.73032,54.56954,183.4434],[28.73595,54.57031,183.5023],[28.74076,54.57194,185.6745],[28.74494,54.57403,184.3545],[28.75611,54.58142,199.0984],[28.76138,54.58277,199.4166],[28.76789,54.58313,209.4337],[28.8115,54.57977,226.8634],[28.81848,54.57863,225.2594],[28.82422,54.57651,221.3236],[28.82654,54.57163,223.0209],[28.82778,54.56732,219.7899],[28.82763,54.56277,210.5245],[28.82856,54.55894,198.6558],[28.83181,54.55595,192.4018],[28.84111,54.55507,195.5574],[28.85527,54.55615,198.6814],[28.86659,54.55817,207.9177],[28.87109,54.56011,207.6366],[28.8745,54.56277,204.9196],[28.88318,54.57222,203.0585],[28.88519,54.57543,203.5489],[28.88612,54.57868,201.1954],[28.88411,54.58142,204.3974],[28.86721,54.59419,183.185],[28.86504,54.59698,176.9513],[28.86442,54.60023,171.9483],[28.86783,54.60726,167.8718],[28.87202,54.61853,168.8964],[28.87465,54.62142,192.3115],[28.87899,54.62323,206.9092],[28.88457,54.62375,191.4493],[29.01418,54.60979,187.3054],[29.04162,54.60992,185.3731],[29.05991,54.61269,183.4881],[29.06425,54.61408,173.901],[29.06864,54.61605,173.2508],[29.07237,54.61858,169.8521],[29.08694,54.63434,163.5],[29.09035,54.63687,163.5],[29.09438,54.6392,163.5],[29.11407,54.6455,173.4738],[29.13598,54.6502,184.7924],[29.14094,54.65031,181.9756],[29.1442,54.64961,176.1101],[29.14187,54.6469,179.4128],[29.13381,54.6424,184.2764],[29.13066,54.63961,180.7914],[29.12993,54.63651,180.7818],[29.13133,54.63313,186.3627],[29.13706,54.63057,191.3318],[29.14358,54.62964,183.4459],[29.15009,54.62974,179.1933],[29.17303,54.63375,178.4508],[29.19339,54.63946,175.9917],[29.19913,54.64039,182.9057],[29.20548,54.64085,176.106],[29.21246,54.63765,190.7557],[29.21897,54.63129,174.8058],[29.22486,54.61455,175.6691],[29.22626,54.60571,198.6697],[29.22657,54.59871,207.8569],[29.22548,54.59016,186.4804],[29.22579,54.58638,187.1549],[29.22734,54.58331,180.0061],[29.23246,54.5823,185.0032],[29.266,54.58194,179.0581],[29.27747,54.58044,187.0892],[29.2984,54.57414,194.1505],[29.30403,54.57362,194.3213],[29.30884,54.57476,192.4539],[29.33473,54.58688,196.0302],[29.34434,54.59026,179.0031],[29.35504,54.59279,179.6554],[29.36144,54.59313,186.1346],[29.37493,54.59173,195.2524],[29.39912,54.58607,198.3385],[29.42692,54.58266,204.7701],[29.43312,54.58313,207.2874],[29.43854,54.58439,215.1861],[29.44289,54.58638,215.5914],[29.4463,54.58905,211.2791],[29.44893,54.59233,213.9868],[29.45033,54.59631,213.3354],[29.45095,54.60039,210.0],[29.45033,54.61207,204.731],[29.4511,54.61532,204.9413],[29.45436,54.61739,201.2754],[29.46009,54.6176,201.3516],[29.47301,54.61568,198.9812],[29.47921,54.61181,198.2269],[29.48526,54.60597,200.3675],[29.49193,54.5847,204.4595],[29.49177,54.57915,200.2653],[29.48774,54.57527,206.1287],[29.45405,54.55719,190.5051],[29.43916,54.54724,186.9466],[29.43699,54.54424,202.193],[29.43684,54.54096,198.9188],[29.44025,54.53703,205.3207],[29.45451,54.52618,197.7764],[29.45637,54.52267,213.3981],[29.45606,54.51817,214.5769],[29.45172,54.51189,227.5723],[29.44785,54.50786,219.1989],[29.44397,54.50468,229.4803],[29.43653,54.49977,230.9191],[29.43265,54.49662,228.6414],[29.42723,54.49052,214.7984],[29.4249,54.48698,222.5728],[29.41167,54.40327,194.0625],[29.40506,54.38495,203.3599],[29.3985,54.37461,211.9173],[29.39291,54.37363,211.9098],[29.38826,54.37115,211.3147],[29.38501,54.36712,204.6973],[29.38191,54.35989,210.3576],[29.37865,54.35549,197.3571],[29.37478,54.35208,213.5584],[29.36764,54.34836,201.8121],[29.36671,54.34697,205.8485],[29.36671,54.34459,211.6556],[29.37633,54.33906,198.6131],[29.38129,54.33702,195.6855],[29.38795,54.33317,199.1995],[29.40826,54.3142,183.7121],[29.40971,54.31072,185.1408],[29.4095,54.306399999999996,190.0707],[29.40537,54.30015,188.3452],[29.40144,54.29622,192.5515],[29.39695,54.29328,198.0078],[29.36718,54.27865,188.7377],[29.36392,54.27599,189.7481],[29.36098,54.27291,189.134],[29.35896,54.2694,199.9002],[29.35803,54.26553,200.6546],[29.35535,54.24426,212.4606],[29.35617,54.23979,192.8185],[29.35881,54.23553,201.7685],[29.3647,54.23026,214.2152],[29.36935,54.227,194.9011],[29.3771,54.22542,195.2509],[29.38315,54.22506,194.6146],[29.41452,54.23126,196.5228],[29.45405,54.24785,207.4819],[29.46676,54.25607,215.0115],[29.4696,54.25935,198.0287],[29.47952,54.27534,200.1511],[29.48402,54.27834,200.0769],[29.48945,54.2802,197.0104],[29.50758,54.28175,193.8417],[29.53523,54.28658,208.5455],[29.53957,54.29015,200.1559],[29.54624,54.30154,201.7003],[29.55507,54.31136,208.745],[29.56221,54.31529,205.8014],[29.56934,54.3173,227.8869],[29.58303,54.31741,228.2061],[29.59683,54.31568,217.0849],[29.65517,54.30072,205.649],[29.66928,54.29963,213.5822],[29.69848,54.30338,208.112],[29.7132,54.30247,189.1135],[29.80245,54.31079,209.8778],[29.82601,54.31524,190.2364],[29.83036,54.3173,192.4935],[29.83346,54.31963,193.9086],[29.83454,54.32206,195.0786],[29.83175,54.32413,191.3512],[29.8178,54.33002,205.0636],[29.81501,54.33276,219.6259],[29.81594,54.33663,227.8182],[29.82152,54.34123,200.7162],[29.82772,54.34291,217.7133],[29.83423,54.34307,214.2724],[29.87257,54.33581,202.8174],[29.87785,54.33405,203.1012],[29.88095,54.33141,206.1115],[29.88219,54.32826,206.6827],[29.88033,54.32123,198.6574],[29.88079,54.31816,198.1786],[29.88343,54.3155,197.9462],[29.89645,54.30919,199.0381],[29.89971,54.30666,197.1738],[29.90064,54.30377,200.5066],[29.898,54.29767,194.7776],[29.89862,54.29452,197.5562],[29.90575,54.2924,202.1474],[29.91759,54.2909,201.3073],[29.9565,54.28984,207.4824],[29.9644,54.2879,203.99],[29.96595,54.2848,211.9383],[29.9643,54.27757,227.1868],[29.96988,54.27416,230.2938],[29.98197,54.27198,205.5764],[30.01112,54.27103,217.1626],[30.02476,54.27193,236.1884],[30.03381,54.27395,241.4187],[30.03691,54.27684,241.9019],[30.03923,54.28025,221.423],[30.04078,54.28403,231.401],[30.04063,54.2878,235.9791],[30.0397,54.29131,212.9618],[30.03784,54.29449,205.6329],[30.03551,54.29751,210.0882],[30.03288,54.30036,199.6916],[30.02884,54.30661,203.9957],[30.02745,54.31002,204.2292],[30.02414,54.32459,212.7407],[30.0259,54.32847,211.2919],[30.03055,54.33239,208.2182],[30.06435,54.34462,232.3932],[30.07179,54.34958,234.0859],[30.07737,54.35586,207.3965],[30.07923,54.35921,208.9915],[30.08037,54.36211,211.5113],[30.08202,54.36542,206.5008],[30.08548,54.36937,219.5091],[30.09215,54.37441,213.4132],[30.09866,54.37616,214.5461],[30.10595,54.37635,213.7264],[30.11168,54.37487,214.3993],[30.11571,54.37293,197.8667],[30.1168,54.37022,230.2745],[30.11463,54.36774,235.9709],[30.10688,54.36392,210.6572],[30.10564,54.36123,205.2319],[30.10781,54.3588,200.3401],[30.14398,54.34617,199.8066],[30.15654,54.33834,204.3732],[30.16475,54.33612,200.3629],[30.17095,54.33632,201.2204],[30.17623,54.33767,202.6529],[30.17964,54.34035,211.4328],[30.1815,54.34413,201.3055],[30.18367,54.35317,201.1321],[30.1863,54.35813,204.3725],[30.19085,54.35924,206.2333],[30.21472,54.35614,189.6929],[30.23348,54.3557,197.3296],[30.24356,54.35658,207.2802],[30.25136,54.35792,208.3757],[30.29958,54.37774,187.0087],[30.30661,54.37849,179.2941],[30.30986,54.37689,166.2302],[30.30847,54.37384,170.2774],[30.29803,54.36051,178.1959],[30.2957,54.35691,182.287],[30.29043,54.35004,179.9546],[30.28438,54.344,171.1328],[30.25911,54.32588,184.331],[30.25601,54.3232,185.3366],[30.25446,54.3202,181.4508],[30.2557,54.3172,175.5673],[30.25803,54.31444,170.074],[30.2616,54.31234,180.529],[30.26578,54.31103,162.8424],[30.32273,54.30338,185.8707],[30.33994,54.30397,200.8426],[30.36045,54.30948,193.7237],[30.38789,54.32048,202.2508],[30.39177,54.32289,201.0635],[30.39487,54.32562,203.6992],[30.39704,54.32873,205.7891],[30.39797,54.33617,220.2561],[30.39921,54.34004,218.3672],[30.40464,54.34433,205.2404],[30.41068,54.34547,206.2893],[30.41657,54.34477,208.9243],[30.42112,54.34276,209.6133],[30.425,54.34043,211.9312],[30.43027,54.33477,213.1183],[30.44639,54.31451,209.5268],[30.4481,54.31291,213.0256],[30.46174,54.30408,209.2108],[30.479,54.29534,211.3853],[30.49373,54.29085,206.5272],[30.50876,54.28868,197.3245],[30.51776,54.28862,215.0144],[30.52489,54.28945,192.596],[30.55563,54.29826,219.5853],[30.56028,54.30012,217.157],[30.56866,54.30444,217.0896],[30.57625,54.3093,198.1762],[30.57935,54.31234,196.3304],[30.58183,54.31581,191.2982],[30.58762,54.3278,189.3616],[30.58995,54.33136,190.7616],[30.59289,54.33446,192.6553],[30.59646,54.3371,190.2565],[30.60979,54.34309,193.1361],[30.61305,54.3457,198.1176],[30.61522,54.34865,197.3717],[30.61475,54.3518,194.9504],[30.61227,54.35459,195.0599],[30.59165,54.36609,198.9655],[30.58824,54.36867,200.3007],[30.58648,54.37177,200.4315],[30.587,54.37544,203.5103],[30.58917,54.37883,203.6307],[30.59537,54.382,205.6152],[30.60514,54.38477,197.6244],[30.64891,54.39306,197.1946],[30.65387,54.39552,199.3215],[30.65713,54.39862,199.6465],[30.65914,54.40606,200.3684],[30.66302,54.41017,196.5753],[30.66984,54.41337,197.5024],[30.68782,54.41916,202.7122],[30.69852,54.42117,201.2495],[30.70803,54.4219,207.8708],[30.71438,54.42086,208.0357],[30.7533,54.40924,227.5083],[30.80358,54.40373,209.991],[30.87081,54.40273,209.5144],[30.89174,54.40428,213.1008],[30.89701,54.40559,217.7698],[30.90119,54.40753,218.4969],[30.90367,54.41014,218.0509],[30.90429,54.41316,212.6795],[30.90321,54.41632,217.1953],[30.90166,54.41957,218.5581],[30.90197,54.42345,215.4672],[30.90507,54.42748,214.0084],[30.91577,54.4327,215.5475],[30.92636,54.43477,216.5705],[30.93504,54.43502,221.0696],[30.94093,54.43376,215.8087],[30.96713,54.42422,221.5868],[31.00207,54.41776,222.3332],[31.02207,54.41084,237.9328],[31.03173,54.40629,243.9846],[31.03809,54.40443,231.968],[31.04785,54.40311,220.9355],[31.05281,54.40459,219.8699],[31.05591,54.40735,227.9746],[31.05576,54.41076,223.421],[31.05514,54.4142,227.0475],[31.05359,54.41751,222.6891],[31.04971,54.42386,222.5347],[31.04863,54.42691,221.1881],[31.04956,54.43001,220.5134],[31.05483,54.43275,223.4964],[31.0632,54.43508,222.677],[31.08878,54.43957,216.8342],[31.09596,54.44143,197.392],[31.11813,54.45239,221.5594],[31.12604,54.45404,236.7496],[31.13519,54.45425,220.7243],[31.15725,54.45166,210.6408],[31.17306,54.45208,222.7991],[31.17902,54.45335,221.2304],[31.1679,54.46706,221.031],[31.09358,54.47941,183.8104],[31.06465,54.49228,215.8916],[31.08955,54.5359,184.1934],[31.13947,54.58287,185.7428],[31.16795,54.62158,184.691],[31.12862,54.64039,188.2275],[31.10516,54.66829,159.8203],[31.02093,54.67367,161.4296],[30.99902,54.67134,167.3589],[30.9955,54.68984,180.2647],[30.98062,54.70565,184.261],[30.8273,54.77102,193.9207],[30.78606,54.77934,199.7476],[30.77061,54.78601,202.2149],[30.76265,54.80198,199.6944],[30.76813,54.82994,219.2206],[30.78787,54.84771,218.8612],[30.81071,54.86151,211.3061],[30.82611,54.87748,213.9243],[30.82745,54.90254,228.5364],[30.81743,54.91763,228.8843],[30.81484,54.92802,229.3056],[30.83861,54.93918,209.8188],[30.89949,54.94636,202.5551],[30.91737,54.95396,210.4351],[30.93608,54.97323,199.1154],[30.93142,54.98517,197.8834],[30.91695,54.99602,200.5812],[30.90662,55.01256,186.3851],[30.91323,55.0246,197.0753],[30.93349,55.02563,183.9758],[30.98062,55.01866,196.881],[31.00563,55.023,199.342],[31.00641,55.04243,201.5358],[30.99421,55.06703,196.4911],[30.98062,55.0863,208.7707],[30.97308,55.09395,226.0325],[30.97028,55.10144,210.9525],[30.97266,55.10858,208.9527],[30.98062,55.11534,219.4845],[30.98548,55.12584,219.4733],[30.98403,55.1309,234.2522],[30.97948,55.13426,233.0958],[30.97504,55.13953,218.9492],[30.97246,55.14087,221.9306],[30.96222,55.14289,236.4289],[30.95881,55.14444,246.1323],[30.95685,55.1495,246.336],[30.96119,55.15855,231.0289],[30.95979,55.16258,221.8709],[30.94724,55.17136,224.7973],[30.90073,55.19214,246.1083],[30.88652,55.20454,266.1942],[30.86983,55.24154,190.5955],[30.8568,55.25348,169.261],[30.82135,55.26438,168.7459],[30.80409,55.27296,169.6645],[30.79427,55.28552,167.8808],[30.79717,55.30427,174.4911],[30.81122,55.32308,163.2147],[30.84564,55.35114,163.1339],[30.90595,55.376,164.3561],[30.9183,55.38778,172.5256],[30.91861,55.40763,173.7971],[30.90528,55.42086,180.7952],[30.8891,55.43341,167.3393],[30.8813,55.45145,165.7725],[30.88719,55.46809,160.7185],[30.91323,55.47972,156.8227],[30.91944,55.49232,160.0329],[30.91437,55.49331,159.6723],[30.89938,55.49915,169.622],[30.91975,55.53449,176.6296],[30.91282,55.5716,175.8973],[30.90712,55.57777,169.8517],[30.88616,55.60048,172.3556],[30.84766,55.61103,175.1685],[30.80409,55.60234,155.2325],[30.77071,55.59154,172.6677],[30.74219,55.59439,180.401],[30.71304,55.62668,165.2043],[30.70332,55.64234,163.8677],[30.69371,55.65216,150.5542],[30.67997,55.65635,170.9232],[30.63914,55.65449,158.9643],[30.61661,55.65743,165.1144],[30.59635,55.66529,157.6802],[30.58375,55.67913,159.9913],[30.58375,55.68854,164.3989],[30.5884,55.6966,170.3872],[30.5916,55.7057,169.4909],[30.58747,55.71831,152.5423],[30.58013,55.72477,153.4945],[30.56959,55.72952,161.1245],[30.4807,55.75396,173.8139],[30.46928,55.76264,176.5012],[30.47181,55.77096,188.2291],[30.47781,55.77913,190.8727],[30.4774,55.78773,198.9186],[30.46882,55.79352,192.6484],[30.27079,55.83065,184.1497],[30.25152,55.83763,177.6684],[30.21777,55.85514,185.4643],[30.20025,55.85799,183.2227],[30.17726,55.85137,179.875],[30.13235,55.82688,179.602],[30.10625,55.82192,169.5415],[29.98823,55.8468,168.0313],[29.94771,55.84819,175.8232],[29.90782,55.84321,179.0519],[29.86947,55.83055,164.0],[29.84477,55.81256,159.5],[29.8057,55.77145,165.7538],[29.77987,55.76381,173.1551],[29.71083,55.77375,165.7972],[29.68416,55.7706,165.13],[29.58536,55.73802,170.347],[29.5081,55.68549,163.4822],[29.48087,55.6811,160.2249],[29.46102,55.6873,170.9891],[29.41307,55.72776,161.9972],[29.36341,55.75148,163.2049],[29.35075,55.76605,153.9996],[29.34361,55.78698,152.0],[29.34816,55.80285,171.2958],[29.37193,55.83639,153.5183],[29.37565,55.8468,169.5532],[29.38072,55.87124,166.1365],[29.38413,55.87995,150.3007],[29.39198,55.88837,169.5223],[29.39963,55.89189,149.9215],[29.4078,55.89388,171.3158],[29.41741,55.89801,166.6507],[29.42557,55.9,165.241],[29.43374,55.89953,175.5395],[29.44056,55.90054,186.7873],[29.44443,55.90692,165.7739],[29.44108,55.91493,160.3596],[29.43157,55.92418,153.9949],[29.41307,55.93798,147.2529],[29.3956,55.94772,167.6597],[29.37741,55.95403,169.9022],[29.22403,55.97819,184.5948],[29.19293,55.99214,173.9805],[29.14544,56.01203,193.7754],[29.08864,56.02322,178.8903],[29.03077,56.02418,171.5683],[28.98085,56.01353,181.2072],[28.92245,55.99224,183.7721],[28.9223,55.99219,183.7721],[28.92224,55.99219,183.7721],[28.92214,55.99214,183.7721],[28.85972,55.97646,163.7723],[28.83305,55.96098,163.3976],[28.83088,55.93767,154.1947],[28.80897,55.93457,151.9548],[28.73192,55.94679,152.9968],[28.70639,55.95984,158.1488],[28.69549,55.98015,160.9173],[28.69001,56.0039,159.5696],[28.68061,56.02738,158.342],[28.67192,56.03756,155.9904],[28.63709,56.06573,146.8508],[28.62071,56.08299,148.2669],[28.61146,56.08846,166.4904],[28.59472,56.09239,159.5454],[28.53782,56.09771,139.9229],[28.38977,56.08857,133.2863],[28.36652,56.07911,137.0869],[28.33344,56.05025,124.5],[28.31091,56.04268,151.8572],[28.28983,56.04661,149.2015],[28.26936,56.05821,137.4131],[28.23846,56.08262,140.3171],[28.16911,56.12526,163.4787],[28.14891,56.14241,148.0943]]]}
,"properties": {"ISO3166-1-Alpha-3": "BLR","country": "Belarus","fill": "#F00","name": "Vitebsk","area_km2": 39729.53,"hist_schema_id": "Elevation0-9000","hist_area_km2": {"100": 129.09,"125": 5165.34,"150": 14098.22,"175": 10371.32,"200": 6628.47,"225": 2766.01,"250": 507.02,"275": 60.07,"300": 3.99}}}