{"type": "Feature","id": 105234.0,"bbox": [29.038096550396233,55.861395574994077,29.094981316021233,55.952887274212827],"geometry": {"type": "Polygon","coordinates": [[[29.082530144146233,55.888739324994077,156.5277],[29.082530144146233,55.888739324994077,156.5277],[29.086436394146233,55.910040594525327,146.0],[29.094981316021233,55.925543524212827,146.2233],[29.083750847271233,55.950751043744077,156.3844],[29.065806511333733,55.952887274212827,167.2288],[29.063731316021233,55.933722235150327,146.0],[29.062754753521233,55.922491766400327,158.1427],[29.054453972271233,55.911261297650327,150.3421],[29.054209831646233,55.893927313275327,146.0],[29.050303581646233,55.887518621869077,154.606],[29.038096550396233,55.881720282025327,151.0603],[29.040537956646233,55.869879461712827,146.0],[29.058116081646233,55.861395574994077,146.0],[29.077403191021233,55.863531805462827,146.0],[29.082530144146233,55.888739324994077,156.5277]]]}
,"properties": {"name": null,"lge_id": null,"pfafstette": 4653.0,"lke_type": "N","altitude": 143,"objectid": 58190,"scalerank": 12,"featurecla": "Lake","note": "_untitled_58190","funkyname": 0,"min_zoom": 7.0,"min_label": 8.0,"area_km2": 19.10024,"hist_schema_id": "Elevation0-9000","hist_area_km2": {"150": 18.57738,"175": 0.52287}}}