{"type":"Feature","properties":{"id":107365.0,"name":null,"lge_id":null,"pfafstette":3745.0,"lke_type":"N","altitude":137,"objectid":59743,"scalerank":12,"featurecla":"Lake","note":"_untitled_59743","funkyname":0,"min_zoom":7.0,"min_label":8.0},
"geometry":{"type": "Polygon","coordinates": [[[27.395518425396233,55.628302313275327,138.2908],[27.395518425396233,55.628302313275327,138.2908],[27.378184441021233,55.636786199994077,145.561],[27.356455925396233,55.631903387494077,151.5573],[27.354869011333733,55.617926336712827,137.0],[27.342051628521233,55.609747625775327,162.1099],[27.316905144146233,55.603033758587827,155.5511],[27.300791862896233,55.596930242962827,151.7911],[27.281993034771233,55.594855047650327,153.5216],[27.277110222271233,55.585699774212827,143.5161],[27.297373894146233,55.580267645306577,137.0],[27.322642448833733,55.585089422650327,137.0],[27.341197136333733,55.586004949994077,137.0],[27.352549675396233,55.588995672650327,137.0],[27.363047722271233,55.594488836712827,137.0],[27.388682487896233,55.588995672650327,137.5914],[27.414805534771233,55.593878485150327,137.0],[27.420909050396233,55.606085516400327,160.961],[27.406260612896233,55.606695867962827,159.9734],[27.398326042583733,55.612799383587827,141.852],[27.395518425396233,55.628302313275327,138.2908]]]}}