{"type": "Feature","id": 107518.0,"bbox": [26.963633659771233,55.591192938275327,27.111704948833733,55.645575262494077],"geometry": {"type": "Polygon","coordinates": [[[27.073496941021233,55.617926336712827,148.0423],[27.073496941021233,55.617926336712827,148.0423],[27.065806511333733,55.624945379681577,131.6948],[27.036387566021233,55.643439032025327,146.5455],[26.993785026958733,55.645575262494077,146.4095],[26.968028191021233,55.635504461712827,144.7656],[26.963633659771233,55.624029852337827,130.0791],[26.978282097271233,55.619452215619077,129.5],[26.999034050396233,55.612189032025327,129.5],[27.019541862896233,55.603644110150327,129.5],[27.032725456646233,55.596319891400327,129.5],[27.046031120708733,55.592657782025327,129.5],[27.076426628521233,55.591192938275327,129.5],[27.094004753521233,55.592413641400327,129.9655],[27.100840691021233,55.596625067181577,129.8972],[27.111704948833733,55.602728582806577,131.084],[27.095225456646233,55.617010809369077,155.5324],[27.073496941021233,55.617926336712827,148.0423]]]}
,"properties": {"name": null,"lge_id": null,"pfafstette": 363.0,"lke_type": "N","altitude": 127,"objectid": 61538,"scalerank": 11,"featurecla": "Lake","note": "_untitled_61538","funkyname": 0,"min_zoom": 6.7,"min_label": 7.7,"area_km2": 31.20183,"hist_schema_id": "Elevation0-9000","hist_area_km2": {"125": 27.19209,"150": 3.60284,"175": 0.4069}}}