{"type": "Feature","id": 107009.0,"bbox": [26.998301628521233,55.675665594525327,27.099253776958733,55.783880926556577],"geometry": {"type": "Polygon","coordinates": [[[27.077647331646233,55.715460516400327,128.4113],[27.077647331646233,55.715460516400327,128.4113],[27.085948112896233,55.718817449994077,157.3715],[27.095957878521233,55.732184149212827,128.0],[27.099253776958733,55.756842352337827,136.0749],[27.096446159771233,55.772955633587827,145.3544],[27.062754753521233,55.783880926556577,138.6196],[27.027842644146233,55.782660223431577,140.9136],[27.020884636333733,55.764715887494077,131.7848],[27.030284050396233,55.750738836712827,128.0],[27.039683464458733,55.742193914837827,128.0],[27.052012566021233,55.732977606244077,128.0],[27.034800651958733,55.723089910931577,139.7433],[27.001963737896233,55.712408758587827,157.8251],[26.998301628521233,55.693304754681577,128.0],[27.009532097271233,55.683600164837827,128.0],[27.022349480083733,55.688727117962827,128.0],[27.029063347271233,55.688727117962827,128.0],[27.037608269146233,55.683233953900327,128.0],[27.052989128521233,55.675665594525327,129.4657],[27.065440300396233,55.676275946087827,130.8298],[27.062144401958733,55.685370184369077,131.9436],[27.058848503521233,55.696661688275327,130.2924],[27.071055534771233,55.709723211712827,132.8005],[27.077647331646233,55.715460516400327,128.4113]]]}
,"properties": {"name": null,"lge_id": null,"pfafstette": 36211.0,"lke_type": "N","altitude": 131,"objectid": 59717,"scalerank": 11,"featurecla": "Lake","note": "_untitled_59717","funkyname": 0,"min_zoom": 6.7,"min_label": 7.7,"area_km2": 43.44142,"hist_schema_id": "Elevation0-9000","hist_area_km2": {"125": 36.89854,"150": 6.02938,"175": 0.5135}}}