{"type":"Feature","properties":{"featurecla":"River","scalerank":5,"rivernum":182,"dissolve":"182River","name":"Daugava2","name_alt":"Zapadnaya Dvina","note":null,"min_zoom":4.7,"strokeweig":0.25,"name_en":"Zapadnaya Dvina","min_label":5.7},
"geometry":{"type": "LineString","coordinates": [[31.055761718750006,55.50934479374412,168.8409],[30.99853515625,55.48004791874412,155.5338],[30.977294921875,55.475848699994117,154.1589],[30.891992187500023,55.475848699994117,139.1799],[30.825878906250011,55.465204168744116,164.0147],[30.816162109375,55.458758856244117,152.0931],[30.8046875,55.447626043744116,161.8779],[30.734375,55.43488190311912,147.9466],[30.7265625,55.42951080936912,153.6401],[30.70263671875,55.41693756718162,160.6182],[30.677734375,55.40888092655662,149.1342],[30.666015625,55.417499090619117,153.804],[30.656982421875,55.42951080936912,159.9679],[30.635644531250023,55.435174871869116,144.2379],[30.610449218750006,55.43634674686912,147.7295],[30.59033203125,55.43488190311912,135.6561],[30.544824218750023,55.42548248905662,150.494],[30.505615234375,55.41168854374412,165.9937],[30.3759765625,55.342303778119117,149.284],[30.364355468750006,55.342059637494117,164.8676],[30.360253906250023,55.340594793744117,164.3786],[30.342871093750006,55.322137762494116,135.733],[30.340429687500006,55.31757233280662,165.0049],[30.33056640625,55.31598541874412,140.6902],[30.192773437500023,55.25446198124412,162.2552],[30.136962890625,55.25385162968162,150.1148],[30.117285156250006,55.242450262494117,160.9427],[30.193115234375,55.19806549686912,144.1988],[30.18603515625,55.18134186405662,143.8011],[30.168554687500006,55.17279694218162,142.8857],[29.952880859375,55.16791412968162,133.7648],[29.906005859375,55.17475006718162,141.3357],[29.885644531250023,55.18353912968162,139.9124],[29.866943359375,55.217303778119117,142.2914],[29.844140625000023,55.21417877811912,151.1179],[29.809472656250023,55.19464752811912,134.7201],[29.73876953125,55.18451569218162,143.325],[29.727636718750006,55.17755768436912,146.0196],[29.733789062500023,55.14069244999412,121.4025],[29.732421875,55.12384674686912,138.6594],[29.72021484375,55.11273834843162,119.0],[29.703125,55.11225006718162,128.3092],[29.65185546875,55.133172918744116,149.8357],[29.633056640625,55.134051824994117,148.1528],[29.586669921875,55.125751043744117,151.0539],[29.574121093750023,55.11945221561912,145.3374],[29.546875,55.091669012494116,132.4757],[29.531494140625,55.08539459843162,123.0303],[29.511621093750023,55.081805731244117,127.5169],[29.49365234375,55.072870184369116,128.8719],[29.45947265625,55.050653387494116,126.8772],[29.435546875,55.06220123905662,126.6305],[29.430761718750006,55.07526276249412,115.5],[29.43896484375,55.11615631718162,143.0572],[29.43115234375,55.131854559369117,138.6147],[29.412353515625,55.130975653119116,149.1782],[29.389746093750006,55.123553778119117,136.0131],[29.370019531250023,55.119501043744116,125.5616],[29.348876953125,55.12396881718162,124.9755],[29.329345703125,55.13312409061912,125.6757],[29.312109375,55.14484284061912,125.0429],[29.286376953125,55.169305731244116,123.0357],[29.272851562500023,55.18683502811912,130.7299],[29.26611328125,55.20575592655662,119.1006],[29.274511718750006,55.221942449994117,145.4316],[29.266503906250023,55.22394440311912,145.3665],[29.248144531250006,55.22601959843162,123.4781],[29.240332031250006,55.229364324994116,118.2743],[29.223535156250023,55.256122137494117,121.2993],[29.206738281250011,55.26666901249412,122.3443],[29.20068359375,55.268182684369116,132.9716],[29.195214843750023,55.26666901249412,135.1483],[29.189550781250006,55.26422760624412,132.6589],[29.169677734375,55.26093170780662,136.0477],[29.160839843750011,55.25690338749412,130.2283],[29.151953125,55.254266668744116,127.4604],[29.137939453125,55.256122137494117,133.2957],[29.119726562500006,55.266229559369116,122.2705],[29.107666015625,55.27985260624412,123.8635],[29.09423828125,55.29193756718162,132.3315],[29.072509765625,55.29706452030662,130.8477],[29.0634765625,55.302508856244117,110.5],[29.054443359375,55.32636139530662,128.0582],[29.014404296875,55.352313543744117,140.5236],[28.99365234375,55.35980866093162,110.0],[28.984619140625,55.36493561405662,131.5706],[28.980224609375,55.372821356244117,146.0637],[28.982519531250006,55.38275787968162,152.4652],[28.990332031250006,55.38910553593162,136.1315],[29.000878906250023,55.392352606244117,133.0813],[29.010986328125,55.39325592655662,120.036],[29.028564453125,55.39789459843162,119.1972],[29.02890625,55.40863678593162,120.766],[29.016210937500006,55.42011139530662,121.1268],[28.993896484375,55.42743561405662,128.2005],[28.957421875000023,55.43183014530662,124.4215],[28.946191406250023,55.43488190311912,109.8598],[28.918066406250006,55.452508856244116,134.8852],[28.908203125,55.455340887494117,134.3392],[28.887792968750006,55.45892975468162,121.0197],[28.843847656250006,55.476190496869116,124.0581],[28.754003906250006,55.494501043744116,136.0017],[28.729882812500023,55.49567291874412,119.4866],[28.713769531250023,55.502313543744116,114.1741],[28.671777343750023,55.54413483280662,140.4281],[28.6259765625,55.55817291874412,153.5903],[28.579199218750006,55.564569403119116,110.8335],[28.561132812500006,55.55975983280662,136.5305],[28.53076171875,55.537225653119116,112.5161],[28.51416015625,55.53046295780662,125.3941],[28.490234375,55.53131744999412,126.0713],[28.454492187500023,55.54645416874412,113.7851],[28.435302734375,55.550311590619117,113.5975],[28.349023437500023,55.54413483280662,106.5],[28.30517578125,55.54718659061912,113.5833],[28.137792968750006,55.58966705936912,104.75],[28.118359375000011,55.600848699994117,111.7827],[28.109960937500006,55.616083074994116,112.2281],[28.10498046875,55.635272528119117,108.3876],[28.091796875,55.65021393436912,111.5769],[28.07421875,55.66095612186912,109.0184],[28.055419921875,55.667596746869116,109.5771],[28.011962890625,55.67792389530662,113.2815],[27.994042968750023,55.685321356244117,114.9115],[27.976318359375,55.69806549686912,117.5231],[27.96640625,55.702997137494116,128.224],[27.943457031250006,55.70734284061912,116.7127],[27.93505859375,55.71198151249412,113.6676],[27.92578125,55.723260809369116,112.0122],[27.924414062500006,55.728631903119116,102.5],[27.926025390625,55.735126043744117,105.9285],[27.925195312500023,55.749530340619117,102.0],[27.92333984375,55.74970123905662,109.9784],[27.913671875,55.75592682499412,128.0213],[27.911376953125,55.75641510624412,134.4334],[27.9125,55.76166412968162,128.7291],[27.917578125,55.776874090619117,134.5798],[27.917578125,55.81476471561912,101.0],[27.907324218750006,55.82379791874412,109.7207],[27.883544921875,55.82721588749412,105.3752],[27.835693359375,55.82526276249412,112.5485],[27.773681640625,55.807391668744117,116.8246],[27.5640625,55.792499090619117,137.2145],[27.438378906250023,55.79901764530662,126.4098],[27.4052734375,55.80463287968162,126.5056],[27.374121093750006,55.81513092655662,107.7822],[27.349023437500023,55.83148834843162,102.2736]]}}