{"type":"Feature","properties":{"featurecla":"River","scalerank":9,"rivernum":987,"dissolve":"987River","name":"null172","name_alt":null,"note":null,"min_zoom":7.1,"strokeweig":0.15,"name_en":null,"min_label":8.1},
"geometry":{"type": "LineString","coordinates": [[30.29443359375,55.849969793744116,174.0372],[30.249121093750006,55.815692449994117,182.6405],[30.302441406250011,55.749139715619116,178.7576],[30.366601562500023,55.69684479374412,161.7057],[30.441650390625,55.68060944218162,145.5],[30.499609375,55.727655340619116,157.4877],[30.555566406250023,55.77777741093162,148.5077],[30.5810546875,55.79291412968162,150.7403],[30.591796875,55.816766668744116,151.4916],[30.57177734375,55.82941315311912,154.1883],[30.548242187500023,55.832294012494117,158.3827],[30.534423828125,55.88947174686912,141.1946],[30.530517578125,55.90412018436912,143.0269]]}}