{"type": "Feature","bbox": [26.2223,54.2264,31.2192,56.1684],"geometry": {"type": "MultiPolygon","coordinates": [[[[29.3621,54.2294,214.2152],[29.3714,54.2265,195.1773],[29.3807,54.2264,194.9146],[29.3949,54.2345,194.1175],[29.4043,54.2344,196.6766],[29.4091,54.2398,195.8443],[29.4326,54.2449,195.1925],[29.4373,54.2449,195.7543],[29.451,54.2365,199.8051],[29.4605,54.2419,198.7416],[29.4608,54.2501,194.0812],[29.4793,54.2471,197.4906],[29.4796,54.2553,194.4467],[29.4843,54.2552,194.7012],[29.4934,54.2497,206.1016],[29.4981,54.2496,215.3882],[29.5077,54.2577,193.5066],[29.5123,54.2576,200.9982],[29.5171,54.2603,197.0521],[29.5173,54.2685,190.3063],[29.5082,54.274,194.6104],[29.5177,54.2794,197.6506],[29.5271,54.282,215.8672],[29.532,54.2901,197.5496],[29.5322,54.2955,196.911],[29.5369,54.2982,200.8429],[29.551,54.3007,203.7648],[29.5603,54.2979,203.181],[29.5743,54.2977,206.2056],[29.5838,54.303,220.9906],[29.5838,54.3057,219.2793],[29.5793,54.3113,233.579],[29.5748,54.314,233.4199],[29.5752,54.3277,211.2363],[29.5799,54.3303,216.4173],[29.6128,54.3353,222.2061],[29.6268,54.3351,221.5535],[29.6314,54.3324,219.0173],[29.6313,54.3296,217.6012],[29.6359,54.3268,218.4553],[29.6499,54.3267,213.8887],[29.6591,54.3238,212.6292],[29.6728,54.3154,217.0688],[29.6912,54.307,229.0288],[29.6959,54.3069,232.759],[29.7146,54.3094,206.6881],[29.7288,54.3146,192.9567],[29.7381,54.3145,191.0504],[29.752,54.3116,181.0032],[29.7661,54.3141,195.1156],[29.785,54.322,195.9059],[29.799,54.3218,215.6892],[29.8035,54.319,199.2653],[29.8174,54.3161,190.9598],[29.8267,54.3159,190.656],[29.8362,54.3212,195.0786],[29.8363,54.324,194.8403],[29.8458,54.3265,193.2711],[29.8504,54.3265,193.8397],[29.8641,54.3181,199.7396],[29.8734,54.3179,197.9103],[29.8877,54.3259,207.8252],[29.8925,54.3313,221.6083],[29.8928,54.3367,208.8969],[29.8975,54.3394,212.4178],[29.9022,54.3393,212.8115],[29.9112,54.331,207.8575],[29.9111,54.3283,207.3347],[29.9016,54.323,207.365],[29.9014,54.3202,209.0039],[29.9149,54.306399999999996,237.4364],[29.9194,54.3036,231.8509],[29.9193,54.3008,222.7758],[29.9145,54.2955,215.041],[29.919,54.2927,213.6851],[29.9374,54.2869,225.6232],[29.9559,54.2839,210.5173],[29.9653,54.2865,206.9009],[29.9654,54.2892,202.1117],[29.9841,54.2916,228.5544],[29.9937,54.2969,235.0151],[30.003,54.2968,237.1353],[30.0071,54.2831,238.8036],[29.9977,54.2805,226.7216],[29.9881,54.2752,208.1811],[29.988,54.2725,207.9418],[29.9926,54.2697,208.3712],[30.0066,54.2722,224.4248],[30.0252,54.2719,236.1884],[30.0395,54.2798,221.423],[30.0399,54.2907,212.9618],[30.0219,54.3047,208.1717],[30.022,54.3074,203.0193],[30.0269,54.3128,207.4895],[30.0362,54.3126,231.712],[30.0592,54.3068,202.8521],[30.0685,54.3066,206.8917],[30.0733,54.3093,204.858],[30.074,54.3257,209.1288],[30.0694,54.3285,202.9207],[30.0556,54.3314,191.6322],[30.0512,54.337,199.0544],[30.0514,54.3424,204.1252],[30.0563,54.3478,214.6484],[30.075,54.3503,226.7827],[30.0841,54.3447,220.6161],[30.0885,54.3391,210.2406],[30.1114,54.3305,187.0555],[30.1161,54.3305,197.9193],[30.1208,54.3331,194.5913],[30.1257,54.3385,196.7932],[30.1039,54.3717,210.2003],[30.1044,54.3827,221.0953],[30.1188,54.3907,212.2532],[30.1324,54.3822,217.5412],[30.1419,54.3848,236.3889],[30.1464,54.382,215.8646],[30.1415,54.3766,230.242],[30.132,54.374,227.6137],[30.1223,54.3659,228.7731],[30.1221,54.3605,207.2692],[30.1266,54.3577,205.7095],[30.1359,54.3575,207.2261],[30.1549,54.3654,206.7913],[30.1689,54.3652,217.5887],[30.187,54.354,201.3391],[30.1866,54.3457,212.9006],[30.1815,54.3349,204.0578],[30.186,54.3321,210.0952],[30.2,54.3318,185.486],[30.2191,54.3425,193.1827],[30.2195,54.3507,200.6805],[30.2059,54.3591,212.8001],[30.2156,54.3672,215.3797],[30.2297,54.3697,184.4885],[30.2477,54.3557,210.5385],[30.271,54.3553,170.6603],[30.2757,54.358,165.6173],[30.2803,54.3552,174.7811],[30.2849,54.3551,185.9703],[30.2801,54.3524,172.6224],[30.2937,54.344,163.1873],[30.2979,54.3357,152.8649],[30.2835,54.325,148.4556],[30.2783,54.3141,153.1606],[30.2639,54.3061,162.3459],[30.2637,54.3007,154.8205],[30.2728,54.2978,164.929],[30.2958,54.2919,177.0231],[30.3145,54.2943,180.8995],[30.3469,54.291,189.5423],[30.3517,54.2937,190.0589],[30.3617,54.3072,194.6115],[30.3669,54.3181,196.0234],[30.3716,54.3207,201.9701],[30.3856,54.3205,201.4233],[30.3947,54.3176,204.1105],[30.4087,54.3173,224.1313],[30.4135,54.3199,201.9265],[30.414,54.3309,206.7785],[30.4189,54.3363,210.1733],[30.4284,54.3388,211.4854],[30.4374,54.3332,228.2466],[30.4465,54.3303,212.6516],[30.4685,54.3052,213.2928],[30.4868,54.2994,218.7985],[30.4865,54.2939,210.7366],[30.4816,54.2885,216.193],[30.481,54.2776,231.1389],[30.49,54.2719,206.699],[30.4946,54.2718,205.0423],[30.5136,54.2797,193.6519],[30.5229,54.2795,198.6048],[30.5179,54.2741,213.0255],[30.5223,54.2686,209.803],[30.5314,54.2656,194.9104],[30.541,54.2709,197.3745],[30.5417,54.2846,195.1667],[30.5653,54.2923,197.9163],[30.5748,54.2976,196.5022],[30.5757,54.314,196.437],[30.5714,54.3196,217.2237],[30.5718,54.3278,194.8336],[30.5766,54.3304,191.7319],[30.5955,54.3355,191.7935],[30.6001,54.3354,189.4453],[30.6239,54.3458,197.6485],[30.6242,54.3513,196.6337],[30.5926,54.3684,199.3984],[30.5743,54.3742,207.7779],[30.5698,54.3771,211.4459],[30.5794,54.3823,204.5459],[30.5888,54.3849,204.2189],[30.5981,54.3847,207.6048],[30.6119,54.3816,194.1219],[30.6776,54.3883,196.03],[30.6921,54.3962,196.0736],[30.6922,54.3989,196.3314],[30.6837,54.4128,195.8683],[30.684,54.4182,198.6204],[30.689,54.4236,205.783],[30.6986,54.4288,209.0876],[30.7173,54.4284,211.2053],[30.7585,54.4138,227.9652],[30.7772,54.4133,227.433],[30.7765,54.4024,222.985],[30.781,54.3996,218.1151],[30.7857,54.3995,202.6453],[30.8095,54.4072,209.6639],[30.8235,54.4068,214.0733],[30.851,54.398,212.3077],[30.8603,54.3978,201.2741],[30.8839,54.4028,216.4299],[30.8984,54.4106,217.2405],[30.9039,54.4241,214.1392],[30.9003,54.4405,232.717],[30.9098,54.443,237.018],[30.9191,54.4428,216.9217],[30.9371,54.4342,221.065],[30.9507,54.4312,215.0153],[30.9646,54.4309,218.7668],[30.9782,54.4253,222.308],[30.9923,54.4251,223.3986],[31.0067,54.4278,221.817],[31.0205,54.4225,245.6895],[31.0286,54.4034,240.5155],[31.0331,54.4008,243.0591],[31.0379,54.4009,233.8944],[31.048,54.4065,223.3718],[31.0642,54.4285,226.9174],[31.0796,54.4395,219.9289],[31.124,54.4533,219.1227],[31.1435,54.4565,229.1806],[31.1485,54.4593,214.5591],[31.149,54.4673,217.678],[31.1541,54.4726,211.7179],[31.1683,54.4725,213.0446],[31.191,54.464,221.5969],[31.2049,54.4658,218.8909],[31.2144,54.4704,220.0331],[31.2192,54.4752,219.9278],[31.2104,54.4832,226.8442],[31.2012,54.4837,230.5103],[31.187,54.4768,217.2632],[31.1685,54.4776,209.6635],[31.1316,54.4909,187.284],[31.1226,54.4987,193.9963],[31.0989,54.5034,183.3197],[31.0851,54.5112,191.68],[31.0856,54.5167,192.1604],[31.0959,54.5225,181.3494],[31.0973,54.5364,186.4638],[31.1026,54.5418,189.7108],[31.1316,54.5512,185.9025],[31.1333,54.5697,186.8257],[31.1386,54.5773,183.8265],[31.1388,54.58,186.9352],[31.168,54.5918,178.5905],[31.1782,54.602,171.3615],[31.1787,54.6072,187.2872],[31.1938,54.6197,171.9691],[31.1995,54.6301,172.8544],[31.2007,54.6433,166.2073],[31.214,54.6504,170.3327],[31.2096,54.656,188.3915],[31.1877,54.671,164.8133],[31.1637,54.672,168.8609],[31.149,54.6672,160.708],[31.1061,54.6691,160.956],[31.0917,54.667,164.5579],[31.0869,54.6672,163.1293],[31.0684,54.676,169.2673],[31.0636,54.6762,166.5313],[31.0635,54.6735,164.9655],[31.0679,54.668,163.778],[31.0584,54.6683,162.4865],[31.0351,54.6746,165.1135],[30.9973,54.6759,183.6624],[30.9927,54.6788,180.877],[30.9929,54.681399999999996,180.9257],[30.9976,54.6813,178.7479],[30.9977,54.684,186.4573],[31.0122,54.6888,175.6189],[31.0134,54.7105,174.0792],[31.0043,54.7162,177.7451],[30.9996,54.7163,177.7236],[30.9898,54.7112,189.0891],[30.9757,54.7116,169.5142],[30.9665,54.7173,208.9179],[30.967,54.7254,208.3804],[30.9486,54.7341,211.3417],[30.9397,54.7425,195.0516],[30.9215,54.7539,207.5574],[30.9123,54.7568,212.6133],[30.8748,54.7604,207.4152],[30.8656,54.7633,206.8935],[30.8611,54.7661,214.0132],[30.8568,54.7744,210.3801],[30.8523,54.7772,202.3979],[30.8526,54.7827,193.3398],[30.8436,54.7884,204.6058],[30.8296,54.7914,209.4998],[30.7876,54.7948,203.1484],[30.76,54.8033,196.0198],[30.7606,54.8118,203.2619],[30.7998,54.8725,203.6908],[30.8036,54.8735,215.3593],[30.8037,54.8749,215.4101],[30.8087,54.8777,214.8475],[30.825,54.8786,216.0478],[30.8297,54.8873,221.6588],[30.8285,54.889,223.4021],[30.8292,54.8977,226.4333],[30.8379,54.9026,224.4766],[30.8408,54.908,217.6046],[30.8394,54.9222,223.5616],[30.8324,54.9353,221.4038],[30.8332,54.944,218.9068],[30.8381,54.9468,216.5587],[30.8384,54.9497,206.5546],[30.8481,54.9523,210.4556],[30.8616,54.9532,210.5978],[30.8984,54.9526,207.519],[30.9438,54.9596,194.9227],[30.9505,54.9647,208.7955],[30.9462,54.9799,207.3403],[30.9564,54.9874,198.0795],[30.9603,54.9936,197.5099],[30.9608,54.9993,192.7464],[30.9593,55.0026,191.5204],[30.9555,55.0051,192.2299],[30.9378,55.012,187.3422],[30.9296,55.017,184.0935],[30.9307,55.0284,184.1623],[30.937,55.03,184.6143],[30.9407,55.034,184.2039],[30.9551,55.0365,185.1813],[30.9879,55.0361,200.1391],[30.9968,55.0332,197.5674],[31.006,55.0332,205.4934],[31.0211,55.0373,195.1997],[31.0254,55.0493,200.975],[31.0223,55.0517,198.5038],[31.0175,55.0524,205.2252],[31.01,55.0659,198.6898],[30.9977,55.08,203.9404],[30.9938,55.0883,205.9541],[30.9974,55.1219,219.7019],[31.0062,55.1298,226.2012],[31.0231,55.1333,219.402],[31.0035,55.1369,230.2245],[30.9894,55.1443,225.7836],[30.9897,55.1482,225.6625],[30.9863,55.1493,230.8442],[30.9849,55.1591,246.219],[30.9915,55.1713,210.3365],[30.987,55.1746,208.0988],[30.9876,55.1825,219.0235],[30.9844,55.1869,220.9539],[30.9321,55.2064,241.7618],[30.928,55.2161,227.5199],[30.9162,55.2293,201.4075],[30.9125,55.245,179.1413],[30.9021,55.2549,167.6198],[30.9027,55.2641,169.0813],[30.8771,55.2751,164.8338],[30.8825,55.2756,163.9893],[30.8658,55.2785,170.5963],[30.8426,55.2864,174.6997],[30.8336,55.293,171.5295],[30.8295,55.302,172.7828],[30.8323,55.3306,178.9396],[30.8279,55.3335,165.0107],[30.8329,55.339,163.431],[30.8331,55.3418,164.8097],[30.8754,55.3616,174.6336],[30.8942,55.3656,167.9494],[30.9232,55.3802,180.441],[30.9281,55.3855,174.2807],[30.9386,55.4048,165.7542],[30.939,55.4134,180.7153],[30.9347,55.4196,180.6357],[30.9306,55.4316,173.4655],[30.9176,55.4473,167.0262],[30.9138,55.4592,163.0011],[30.9057,55.4715,159.5673],[30.9065,55.483,158.7281],[30.9113,55.4883,158.4611],[30.9159,55.4908,169.219],[30.9537,55.4961,172.5581],[30.9589,55.5016,171.7916],[30.9592,55.5075,162.0746],[30.9498,55.5139,161.2149],[30.9449,55.5143,165.3402],[30.9358,55.5209,159.0239],[30.9408,55.5263,169.2317],[30.9317,55.5299,172.4524],[30.923,55.5307,178.2769],[30.9147,55.5371,180.7658],[30.9197,55.5453,184.5027],[30.9242,55.5479,186.2314],[30.933,55.5501,185.3012],[30.9328,55.5472,182.9915],[30.9374,55.5468,182.8623],[30.9572,55.5574,174.2554],[30.9577,55.5663,166.9846],[30.9536,55.575,168.8484],[30.954,55.581,169.0544],[30.9463,55.6115,175.7678],[30.9467,55.6198,178.7937],[30.9424,55.6227,178.2862],[30.9427,55.6255,177.7828],[30.9338,55.6341,174.172],[30.9249,55.6341,166.2831],[30.9203,55.6287,167.983],[30.9249,55.6286,164.5257],[30.9201,55.626,168.2583],[30.9064,55.6261,164.5892],[30.8824,55.6395,164.2305],[30.8687,55.6396,164.1218],[30.8646,55.6369,162.7996],[30.8654,55.6263,163.8722],[30.8608,55.6264,174.2851],[30.8364,55.6067,166.362],[30.8076,55.5978,163.4363],[30.7798,55.6028,161.9882],[30.7662,55.611,151.8356],[30.7607,55.6077,163.4003],[30.7592,55.6326,160.618],[30.7551,55.6381,156.4933],[30.7529,55.6387,154.7173],[30.7528,55.6413,155.2039],[30.7455,55.6511,153.365],[30.7358,55.659,155.2923],[30.7267,55.6601,163.2043],[30.7158,55.6575,163.5452],[30.71,55.6492,157.2772],[30.7102,55.6463,160.0284],[30.7009,55.6462,157.9167],[30.6978,55.6479,152.2164],[30.6814,55.6468,157.9901],[30.6754,55.6523,168.6118],[30.6738,55.6613,162.0422],[30.6556,55.6642,159.7797],[30.6456,55.6699,165.9607],[30.6402,55.6798,156.4215],[30.6452,55.6902,159.5779],[30.6441,55.6912,158.9326],[30.6456,55.6912,158.7239],[30.6488,55.6953,159.9792],[30.6482,55.7092,161.8605],[30.6381,55.7171,167.0573],[30.6301,55.7303,166.3398],[30.6153,55.7399,166.2784],[30.5905,55.743,175.69],[30.5573,55.7435,176.8856],[30.5316,55.7504,172.0032],[30.5167,55.7599,161.4471],[30.5081,55.7895,160.609],[30.5038,55.7986,167.7709],[30.4889,55.8074,186.126],[30.4691,55.8088,184.1793],[30.433,55.8071,160.5035],[30.4065,55.8081,159.11],[30.412,55.8212,153.3101],[30.4005,55.8293,152.0],[30.3965,55.8267,152.0],[30.3873,55.8269,152.0],[30.3831,55.8213,152.0],[30.3549,55.8214,153.2222],[30.3503,55.8272,157.8017],[30.3488,55.8352,170.2481],[30.3385,55.8405,173.3953],[30.3123,55.8387,172.4484],[30.2982,55.8416,183.4319],[30.2867,55.8492,173.8288],[30.2838,55.8594,186.5291],[30.2729,55.8673,180.656],[30.2677,55.87,180.5613],[30.2533,55.8727,180.8095],[30.2168,55.8733,181.9455],[30.1979,55.8763,194.8133],[30.1708,55.8768,196.0371],[30.1664,55.8741,193.6201],[30.1668,55.8714,193.6745],[30.1771,55.8661,186.2861],[30.1775,55.8634,182.8444],[30.1587,55.8526,180.0414],[30.1495,55.8497,173.7631],[30.1519,55.841,172.0344],[30.1439,55.8351,179.2535],[30.1351,55.8321,173.7219],[30.1196,55.8317,175.9388],[30.0807,55.8548,181.3641],[30.0712,55.8516,173.8169],[30.0611,55.8544,177.3194],[30.0559,55.8604,177.4359],[30.0416,55.8685,191.3056],[30.0175,55.8738,196.109],[30.0082,55.8791,210.6901],[29.9696,55.8897,166.5601],[29.9545,55.8844,161.0274],[29.9536,55.8764,162.3429],[29.9583,55.8737,170.9119],[29.9533,55.8737,165.5944],[29.9479,55.868,175.1677],[29.9383,55.8708,167.0244],[29.9284,55.8707,167.376],[29.9045,55.879,169.9046],[29.8795,55.8761,162.5],[29.8689,55.8696,162.5],[29.8586,55.8662,164.8299],[29.8523,55.8563,162.5],[29.8534,55.8306,178.4159],[29.8389,55.8129,162.6629],[29.8151,55.7949,177.2518],[29.8099,55.781,166.1282],[29.7965,55.7739,180.1372],[29.7671,55.7752,173.9593],[29.7571,55.7785,168.7333],[29.7565,55.7939,174.9971],[29.7518,55.7972,186.189],[29.7341,55.7974,175.7469],[29.7063,55.7867,174.437],[29.6746,55.7826,168.7867],[29.659,55.7834,163.6899],[29.6378,55.7789,171.6659],[29.627,55.7739,153.3173],[29.6218,55.7742,159.013],[29.6007,55.7697,164.8993],[29.5848,55.765,166.8729],[29.5688,55.7576,168.3002],[29.5683,55.7361,158.5733],[29.5578,55.7312,164.6105],[29.5314,55.7243,165.4901],[29.5208,55.7167,161.4247],[29.4887,55.7045,167.8781],[29.4803,55.7045,161.3592],[29.4684,55.7099,153.3236],[29.4572,55.7178,157.6653],[29.442,55.7338,175.5868],[29.4345,55.7364,163.5157],[29.4306,55.7417,160.5776],[29.4193,55.7443,166.962],[29.4192,55.747,168.2513],[29.4079,55.7522,163.2558],[29.3929,55.7546,160.9213],[29.3813,55.7545,163.6102],[29.3744,55.7597,161.1591],[29.371,55.7652,160.6516],[29.3839,55.7796,160.1901],[29.3794,55.7853,154.7303],[29.379,55.7939,159.9284],[29.3967,55.8169,171.4901],[29.4103,55.8284,157.151],[29.4101,55.837,166.6098],[29.4146,55.8427,168.0085],[29.4046,55.8571,170.9746],[29.4043,55.8628,170.9915],[29.4183,55.8743,144.5],[29.4229,55.88,144.5],[29.4228,55.8828,171.4611],[29.4175,55.8915,172.5702],[29.4025,55.8973,162.6117],[29.4021,55.903,151.6548],[29.4163,55.9116,168.5506],[29.426,55.9144,154.3937],[29.4456,55.9143,159.7106],[29.4602,55.9171,166.3219],[29.4748,55.9227,170.4422],[29.4798,55.9227,170.9898],[29.4743,55.929,171.736],[29.4433,55.9458,164.7543],[29.4141,55.9459,164.11],[29.4141,55.9485,158.3429],[29.4199,55.9562,155.8844],[29.4352,55.9613,156.192],[29.4358,55.9664,163.7291],[29.4262,55.9717,160.7713],[29.4166,55.9717,156.1709],[29.3969,55.977,154.0975],[29.3778,55.977,157.8357],[29.3627,55.9745,167.3836],[29.3529,55.9745,166.0582],[29.3337,55.9797,163.64],[29.3092,55.9929,160.5956],[29.3044,55.9929,164.0244],[29.2993,55.9956,161.2356],[29.2516,55.9955,175.8673],[29.2265,55.9905,181.8858],[29.2069,55.9906,170.1239],[29.2071,55.9932,176.8004],[29.2022,55.9932,175.1203],[29.1977,55.9983,190.7897],[29.1977,56.0088,173.3941],[29.1866,56.0195,180.0582],[29.166,56.0302,183.9659],[29.1423,56.0302,188.9413],[29.1242,56.0247,163.5799],[29.11,56.0247,178.3877],[29.0993,56.0327,173.2591],[29.0799,56.0354,170.4721],[29.0657,56.0353,185.3543],[29.0329,56.0325,179.6714],[29.0236,56.0299,187.9028],[29.0067,56.0216,169.7005],[28.9631,56.0164,160.7349],[28.938,56.0088,184.8102],[28.9331,56.0038,178.9731],[28.9282,56.0014,177.1061],[28.9283,55.9989,176.9474],[28.9033,55.9992,165.9221],[28.8933,55.9944,159.5709],[28.8577,55.9849,176.4435],[28.8577,55.9824,175.7322],[28.8525,55.9775,179.7715],[28.8523,55.9673,175.6478],[28.8471,55.9649,173.5966],[28.8318,55.9652,145.8382],[28.8165,55.9705,166.7034],[28.8012,55.9734,163.0057],[28.7496,55.9668,138.3461],[28.7292,55.9669,138.4258],[28.7241,55.9698,137.5],[28.719,55.9774,137.5],[28.7192,55.9823,143.9446],[28.7142,55.9873,137.5],[28.7092,55.9898,137.9328],[28.7093,55.9948,139.9686],[28.7046,56.0071,151.7569],[28.7048,56.0121,153.1362],[28.7103,56.0218,164.008],[28.7052,56.0244,162.1711],[28.7054,56.0293,158.9917],[28.6902,56.0369,156.8042],[28.6696,56.0396,159.6263],[28.6647,56.0446,152.3233],[28.6596,56.0472,154.8584],[28.6649,56.052,159.4426],[28.6508,56.0698,161.8124],[28.657,56.0775,161.3739],[28.6626,56.08,160.4185],[28.6787,56.0826,153.3596],[28.6835,56.0854,161.9061],[28.6831,56.0881,162.2783],[28.6781,56.0907,146.1401],[28.6733,56.0907,145.4293],[28.6684,56.0933,165.1653],[28.6541,56.0932,152.0025],[28.6306,56.0903,151.2447],[28.6209,56.0929,159.3393],[28.606,56.1007,157.6938],[28.5871,56.1005,158.1872],[28.5821,56.1031,154.1339],[28.5536,56.1002,154.7494],[28.529,56.1003,155.1694],[28.4591,56.091,140.8379],[28.4494,56.091,146.5045],[28.4449,56.0934,138.8393],[28.4452,56.0958,161.8068],[28.436,56.1006,145.3167],[28.4167,56.1008,139.2932],[28.4066,56.0961,123.5074],[28.4063,56.0938,122.6461],[28.3967,56.0938,143.5606],[28.3964,56.0914,127.5669],[28.3904,56.0843,130.199],[28.3896,56.0794,128.5932],[28.3983,56.0745,122.5],[28.3979,56.0722,122.5],[28.4019,56.0672,123.1431],[28.4016,56.0647,122.5],[28.3915,56.0596,128.7807],[28.3821,56.0594,143.4001],[28.373,56.0618,126.0055],[28.3736,56.0669,140.5524],[28.3645,56.0693,141.8615],[28.3504,56.0691,132.0187],[28.3404,56.0638,147.9518],[28.3308,56.0611,125.7953],[28.3123,56.0634,145.7494],[28.3079,56.0658,145.0544],[28.309,56.076,149.6939],[28.3052,56.0836,145.7402],[28.3008,56.086,152.0265],[28.2914,56.0859,147.3746],[28.2908,56.0808,144.3868],[28.2858,56.0782,143.2504],[28.2673,56.0804,138.9177],[28.2629,56.0829,131.7353],[28.2634,56.088,132.8101],[28.2828,56.1035,127.0],[28.2828,56.106,127.0],[28.2735,56.111,150.0735],[28.2547,56.1107,151.2018],[28.25,56.1132,146.1642],[28.2453,56.1232,152.0981],[28.2171,56.1355,167.895],[28.1937,56.1377,158.3843],[28.1936,56.1428,150.1719],[28.1841,56.1477,165.9941],[28.1842,56.1502,165.9634],[28.1701,56.1475,156.3283],[28.1654,56.15,162.1619],[28.1606,56.155,140.0451],[28.1843,56.1628,151.9619],[28.1842,56.1684,148.0535],[28.1795,56.1683,158.8885],[28.1795,56.1655,151.3447],[28.1747,56.1683,147.2512],[28.1748,56.1655,142.1278],[28.1655,56.16,150.396],[28.1512,56.1599,127.5704],[28.1512,56.1625,146.5645],[28.1465,56.1625,144.9375],[28.1465,56.1599,151.9983],[28.1418,56.1597,133.8764],[28.1419,56.1573,132.8454],[28.1372,56.157,136.9986],[28.1373,56.1547,134.5411],[28.1325,56.157,134.8634],[28.1232,56.1515,135.2614],[28.1234,56.1494,135.2426],[28.1186,56.1489,145.2673],[28.1187,56.1468,144.0127],[28.1141,56.1442,146.7606],[28.1141,56.1416,143.1086],[28.1047,56.1414,141.9733],[28.1049,56.1288,137.7944],[28.0955,56.1287,138.4862],[28.0955,56.1312,133.9243],[28.0814,56.1309,139.6157],[28.0815,56.1286,142.9356],[28.0767,56.1284,137.3554],[28.0579,56.1204,142.2541],[28.0579,56.1104,137.8034],[28.0391,56.1102,137.7014],[28.0389,56.1145,139.1712],[28.0245,56.1132,143.4477],[28.0245,56.1159,147.2643],[28.0056,56.1158,169.3169],[28.0056,56.1131,149.0052],[28.0008,56.1104,151.3421],[27.9867,56.1104,170.842],[27.9864,56.0995,162.3601],[27.9817,56.0995,163.8007],[27.9816,56.0968,160.6796],[27.9768,56.094,161.0755],[27.9673,56.094,184.5195],[27.9671,56.0889,169.9429],[27.9526,56.0814,181.2424],[27.9516,56.0661,162.0084],[27.9366,56.0583,170.8332],[27.9363,56.0557,166.9898],[27.9316,56.0557,167.8608],[27.9314,56.0531,167.6108],[27.9219,56.0531,155.8661],[27.9214,56.0479,166.2683],[27.9164,56.0453,167.4897],[27.9117,56.0453,138.5035],[27.9073,56.0479,142.1503],[27.8882,56.0468,139.2699],[27.888,56.0446,137.7282],[27.8834,56.0463,144.1449],[27.8832,56.0442,144.0969],[27.8784,56.0438,146.5578],[27.8831,56.0421,147.3538],[27.8783,56.0417,156.2733],[27.8781,56.0395,148.4133],[27.8685,56.0387,154.3932],[27.8537,56.0333,156.0734],[27.8392,56.0317,153.9463],[27.8245,56.0281,152.3755],[27.8292,56.0247,149.6373],[27.834,56.0252,152.2081],[27.848,56.0218,152.5954],[27.8478,56.0192,150.7153],[27.8428,56.0166,154.1287],[27.8425,56.0141,159.9992],[27.8378,56.014,152.3686],[27.8375,56.0115,161.9158],[27.8328,56.0114,174.9981],[27.8278,56.0088,165.4798],[27.8275,56.0063,158.5191],[27.8181,56.0062,153.0402],[27.8226,56.0037,157.4877],[27.822,55.9985,144.7956],[27.8264,55.9959,139.7406],[27.8217,55.9959,138.4593],[27.8209,55.9882,144.3306],[27.8115,55.9881,144.271],[27.8159,55.9856,157.8308],[27.8112,55.9855,152.1015],[27.8109,55.983,171.2342],[27.8153,55.9804,165.4281],[27.8059,55.9804,155.0659],[27.801,55.9778,150.4515],[27.8007,55.9752,145.7483],[27.7819,55.9751,142.9733],[27.7772,55.9751,144.2043],[27.7774,55.9777,142.4303],[27.7821,55.9777,144.7503],[27.773,55.9802,142.233],[27.7727,55.9776,138.1149],[27.768,55.9776,139.8162],[27.7683,55.9802,140.0794],[27.7633,55.9776,156.3664],[27.763,55.975,170.002],[27.7583,55.975,145.6819],[27.7581,55.9724,158.3022],[27.7531,55.9698,166.9567],[27.6891,55.9438,168.7356],[27.6642,55.9308,161.7133],[27.6625,55.9152,161.4196],[27.6322,55.897,162.4507],[27.6304,55.8912,161.5],[27.6307,55.8479,156.099],[27.6289,55.8421,154.2681],[27.5968,55.7938,128.7851],[27.5972,55.7913,117.6696],[27.5926,55.7888,126.799],[27.592,55.7818,121.0205],[27.5272,55.7838,106.9964],[27.4945,55.7881,100.1975],[27.457,55.7904,117.5156],[27.4579,55.7949,113.3613],[27.4182,55.7974,101.6271],[27.4178,55.8001,100.7941],[27.4119,55.8023,112.9304],[27.403199999999998,55.8028,96.5],[27.4036,55.8053,109.6419],[27.4013,55.8062,108.8368],[27.3923,55.806399999999996,109.7134],[27.3731,55.8138,107.7822],[27.3723,55.8093,98.9108],[27.3643,55.8098,114.7305],[27.3634,55.8053,127.6321],[27.3555,55.8058,151.6784],[27.3546,55.8014,164.7421],[27.3467,55.8018,144.4514],[27.3458,55.7974,158.731],[27.33,55.7984,138.1284],[27.3291,55.7939,154.9106],[27.3132,55.7949,151.0797],[27.3124,55.7904,163.3019],[27.2887,55.7919,160.7632],[27.2839,55.791,162.757],[27.2618,55.7936,132.3152],[27.2524,55.7922,148.8466],[27.2529,55.7941,155.8333],[27.2487,55.7954,155.8561],[27.2492,55.7973,140.1039],[27.2455,55.8004,154.3494],[27.2374,55.8038,166.0646],[27.2164,55.8179,162.3309],[27.2169,55.8234,177.4852],[27.2122,55.8234,166.4865],[27.2125,55.8261,171.1275],[27.203,55.826,169.3929],[27.1986,55.8287,162.5434],[27.1891,55.8287,157.0938],[27.1894,55.8314,151.7627],[27.1844,55.8287,155.4344],[27.1849,55.8341,153.4844],[27.176,55.8395,144.0593],[27.1763,55.8423,149.0636],[27.1715,55.8422,150.0287],[27.1671,55.845,139.6915],[27.1621,55.8422,137.5774],[27.1526,55.8422,135.2403],[27.1481,55.8447,135.4835],[27.1431,55.842,145.8872],[27.1336,55.8418,138.8841],[27.1188,55.8363,148.109],[27.1181,55.8284,138.3919],[27.1078,55.8203,135.9104],[27.0981,55.8175,143.2474],[27.0843,55.8224,139.12],[27.0558,55.8218,135.0718],[27.0555,55.8192,133.5],[27.0508,55.8191,134.9287],[27.0505,55.8164,138.16],[27.0455,55.8137,146.709],[27.0458,55.8163,140.9478],[27.041,55.8162,147.3607],[27.0413,55.8189,144.7082],[27.0365,55.8188,150.5953],[27.032,55.8213,147.0388],[27.027,55.8186,159.9908],[27.0268,55.816,159.3566],[27.022,55.8159,160.3289],[27.012,55.8104,157.054],[27.0025,55.8102,166.5301],[26.9972,55.8048,163.0333],[26.9877,55.8047,168.7597],[26.9827,55.8019,175.8152],[26.9822,55.7966,163.6984],[26.9672,55.7884,182.297],[26.9669,55.7858,183.4376],[26.9619,55.7831,176.8076],[26.9617,55.7804,174.5529],[26.9522,55.7802,168.5054],[26.9477,55.7828,162.2355],[26.9382,55.7826,160.1611],[26.9379,55.7799,155.9956],[26.9331,55.7799,161.2792],[26.9221,55.7638,176.777],[26.9066,55.7504,157.5952],[26.9111,55.7478,165.6697],[26.9063,55.7477,171.7573],[26.9058,55.745,168.4702],[26.9104,55.745,169.9997],[26.8834,55.7278,178.4341],[26.8818,55.7194,181.5522],[26.8711,55.7059,160.4149],[26.8524,55.7004,169.0729],[26.8336,55.6975,161.1295],[26.8245,55.6922,167.5085],[26.8056,55.6919,163.9498],[26.8057,55.6893,174.2112],[26.792,55.6789,162.6009],[26.7876,55.6713,163.6523],[26.778,55.6736,167.6826],[26.7495,55.6757,155.6207],[26.7253,55.696,145.0],[26.6924,55.6957,147.3801],[26.6644,55.6982,157.6524],[26.655,55.6953,168.4336],[26.6595,55.6955,168.2947],[26.6595,55.6929,167.0739],[26.65,55.6873,153.3521],[26.6447,55.6796,160.5135],[26.6437,55.675,153.3536],[26.6398,55.6743,153.8636],[26.6384,55.6623,151.5847],[26.6331,55.6547,142.958],[26.6441,55.6492,144.0278],[26.6345,55.6061,140.0],[26.64,55.5961,140.0],[26.6305,55.5739,140.0],[26.6253,55.5714,140.0],[26.6255,55.5661,145.8339],[26.6202,55.5663,151.7142],[26.6201,55.5689,143.7459],[26.6147,55.569,149.8635],[26.6148,55.5665,142.301],[26.6094,55.5665,146.2691],[26.6095,55.5641,143.7414],[26.6042,55.559,143.916],[26.5985,55.5592,152.0455],[26.5987,55.5566,149.8729],[26.5876,55.5519,145.9013],[26.5819,55.552,152.5345],[26.5877,55.5492,145.1274],[26.588,55.5443,146.1411],[26.5823,55.5442,148.1471],[26.5767,55.5418,148.7606],[26.5655,55.5424,150.7887],[26.5656,55.5397,152.7505],[26.5599,55.5399,149.9061],[26.56,55.5374,150.2182],[26.5542,55.5399,148.0715],[26.5544,55.5375,148.1639],[26.5488,55.5351,156.4015],[26.5431,55.5351,153.4034],[26.5433,55.5327,150.2669],[26.5374,55.5351,147.4049],[26.5262,55.5303,141.5],[26.5173,55.5175,141.5],[26.5238,55.5117,141.5],[26.5299,55.5032,146.5768],[26.5313,55.4918,142.5],[26.5427,55.486,143.7013],[26.5554,55.4688,142.5],[26.5446,55.469,142.5],[26.54,55.4634,152.0887],[26.5406,55.4578,156.1955],[26.5461,55.4549,151.8595],[26.5578,55.4436,153.8546],[26.5467,55.4493,150.251],[26.5366,55.4493,153.9052],[26.5432,55.4352,158.9486],[26.5602,55.4184,157.0498],[26.5457,55.4126,152.3891],[26.5577,55.3931,140.8717],[26.5388,55.3923,151.907],[26.5214,55.3856,140.1163],[26.5172,55.3825,145.2209],[26.5127,55.3822,148.4433],[26.5093,55.3734,149.5059],[26.5002,55.3729,147.1285],[26.4953,55.3755,147.7567],[26.4912,55.3723,153.0692],[26.4821,55.3718,148.0765],[26.4794,55.3573,164.3791],[26.4665,55.3508,162.7727],[26.4565,55.3508,163.6275],[26.4573,55.3478,158.7282],[26.4514,55.3482,155.6433],[26.4522,55.3451,145.6852],[26.4581,55.3447,138.7587],[26.4584,55.3419,140.1626],[26.463,55.3421,139.8389],[26.4633,55.3393,137.8009],[26.4678,55.3396,139.5521],[26.4676,55.3423,142.1649],[26.4724,55.3398,141.3626],[26.486,55.3406,144.9425],[26.4909,55.338,137.3546],[26.4906,55.3408,147.6593],[26.4954,55.3383,143.9207],[26.5,55.3385,142.0541],[26.5003,55.3357,140.6484],[26.5094,55.3362,136.8089],[26.5142,55.3337,133.7346],[26.5233,55.3342,139.9759],[26.5236,55.3314,132.6117],[26.528199999999998,55.3316,134.1178],[26.5324,55.3347,135.0793],[26.5467,55.3298,138.3619],[26.5508,55.3329,131.2948],[26.5554,55.3332,131.9734],[26.5557,55.3304,139.676],[26.5606,55.3278,131.7486],[26.561,55.3249,143.3725],[26.57,55.3255,131.9484],[26.5704,55.3226,129.5573],[26.5746,55.3257,129.9233],[26.5792,55.326,129.9217],[26.5789,55.3288,133.9873],[26.5884,55.3291,143.2021],[26.5887,55.3263,130.312],[26.5936,55.3264,135.8667],[26.589,55.3235,131.7868],[26.5987,55.3237,128.5397],[26.5985,55.3265,144.2557],[26.6034,55.3266,154.0878],[26.6037,55.3238,155.3048],[26.6137,55.3239,129.2394],[26.6135,55.3266,134.0983],[26.6186,55.3266,131.1098],[26.6183,55.3322,128.3674],[26.6235,55.3321,130.851],[26.6233,55.3349,132.5342],[26.6285,55.3349,131.7494],[26.6334,55.3376,133.4235],[26.6385,55.3375,141.5101],[26.6387,55.3348,133.2054],[26.6336,55.3348,133.4921],[26.634,55.3266,134.7775],[26.6442,55.3265,133.5701],[26.6441,55.3293,133.7731],[26.6491,55.3292,127.6709],[26.6487,55.3374,127.1326],[26.6688,55.3372,126.9756],[26.6736,55.3399,127.0109],[26.6735,55.3427,127.4732],[26.6785,55.3426,127.545],[26.6938,55.3343,126.8554],[26.7037,55.3342,126.881],[26.7087,55.3314,126.9649],[26.7186,55.3313,126.9236],[26.7287,55.3258,126.7638],[26.7336,55.3257,126.8046],[26.7337,55.323,126.9209],[26.7435,55.3229,126.8385],[26.7434,55.3256,127.0757],[26.7775,55.3254,127.0518],[26.7825,55.3226,127.1548],[26.7874,55.3226,128.1291],[26.7875,55.3198,140.7539],[26.7972,55.3198,127.8039],[26.7971,55.3225,129.1275],[26.8068,55.3225,127.2561],[26.8069,55.3197,127.4957],[26.8119,55.3169,128.8801],[26.8117,55.3197,130.1847],[26.8166,55.3197,132.3489],[26.8167,55.3169,130.5774],[26.8264,55.3169,133.2297],[26.8269,55.3086,127.3513],[26.8365,55.3085,132.5918],[26.8463,55.3057,131.3201],[26.8417,55.303,131.1932],[26.8469,55.2974,126.4084],[26.8472,55.2865,134.2319],[26.8425,55.2783,128.4766],[26.8139,55.2731,126.3347],[26.8093,55.2677,135.5411],[26.7996,55.2678,130.5108],[26.7997,55.2651,145.4292],[26.7948,55.2651,146.1173],[26.795,55.2597,149.0181],[26.7756,55.2599,142.4957],[26.7661,55.2545,152.7278],[26.7613,55.2545,146.1518],[26.7563,55.2573,133.2054],[26.7565,55.2519,136.8513],[26.7517,55.2519,144.4299],[26.7518,55.2492,150.1584],[26.7469,55.2492,146.4068],[26.7422,55.2466,140.8666],[26.7375,55.2411,154.7693],[26.7434,55.2165,153.8938],[26.7289,55.2139,149.3719],[26.7195,55.2086,155.3304],[26.7196,55.2058,156.0259],[26.7148,55.2031,154.055],[26.7049,55.2087,159.784],[26.6954,55.2034,135.5313],[26.6858,55.2007,133.2533],[26.6908,55.1979,133.3963],[26.6912,55.1896,134.8162],[26.6963,55.1841,135.464],[26.711,55.1784,137.4221],[26.7109,55.1812,147.2216],[26.715699999999998,55.1784,148.1156],[26.7207,55.1728,156.6828],[26.7017,55.1702,135.9481],[26.692,55.173,134.856],[26.6923,55.1647,137.0443],[26.683,55.1593,136.1684],[26.6782,55.1593,135.0558],[26.6684,55.1648,135.7913],[26.659,55.162,136.5854],[26.6358,55.1506,146.4716],[26.6264,55.1504,150.784],[26.6075,55.1553,150.5865],[26.6028,55.1552,147.9209],[26.5887,55.1522,152.4218],[26.5793,55.152,151.1714],[26.5794,55.1493,150.9969],[26.5747,55.1491,148.1009],[26.5701,55.1463,155.6114],[26.556,55.146,153.1985],[26.5319,55.1616,159.5412],[26.5134,55.153,171.656],[26.5087,55.1529,177.3281],[26.5039,55.1554,176.756],[26.4947,55.1498,181.2389],[26.4951,55.1391,185.416],[26.4765,55.1305,184.4988],[26.4764,55.1332,188.3324],[26.4732,55.1367,189.7836],[26.467,55.133,183.093],[26.4623,55.1355,182.0255],[26.4576,55.1354,184.5081],[26.448,55.1405,189.3556],[26.4386,55.1402,179.2666],[26.4387,55.1376,179.8563],[26.434,55.1374,181.8878],[26.4339,55.1401,185.6666],[26.4292,55.14,184.8609],[26.4153,55.1342,182.0443],[26.4106,55.1341,187.3682],[26.4104,55.1421,202.0581],[26.4057,55.142,190.4921],[26.3865,55.1495,181.0813],[26.3723,55.1491,194.9487],[26.3632,55.1435,186.1983],[26.3585,55.1433,186.1693],[26.3584,55.1461,189.4208],[26.3491,55.1431,190.7232],[26.3489,55.1458,200.3757],[26.3444,55.143,194.656],[26.3447,55.1376,199.0638],[26.3496,55.135,214.5816],[26.3213,55.1342,216.6112],[26.3215,55.1315,212.6795],[26.3311,55.1291,228.5743],[26.3219,55.1234,220.1285],[26.2797,55.1196,229.2724],[26.2705,55.1139,228.5308],[26.2652,55.1137,231.0998],[26.2506,55.1052,231.9918],[26.2518,55.0998,244.5045],[26.2569,55.0973,243.5497],[26.2616,55.0975,224.668],[26.2615,55.0949,226.2922],[26.2662,55.095,221.7976],[26.2661,55.0924,226.7897],[26.28,55.0849,223.0096],[26.2893,55.0773,217.1712],[26.2798,55.0716,228.8486],[26.2845,55.0691,226.1193],[26.2797,55.0663,228.3201],[26.2654,55.0686,219.3509],[26.251,55.0601,214.8861],[26.2558,55.0576,224.5298],[26.2605,55.0578,204.7998],[26.2605,55.0498,203.0798],[26.2557,55.0497,201.7807],[26.2557,55.039,197.5791],[26.2509,55.0336,190.7891],[26.2461,55.0308,203.0236],[26.2462,55.0281,197.1969],[26.2414,55.0253,194.5263],[26.2414,55.0226,187.095],[26.2318,55.017,188.033],[26.2319,55.0144,187.7056],[26.2271,55.0116,181.8658],[26.2223,55.0114,174.9545],[26.2225,54.9981,175.0098],[26.2466,54.9934,178.9102],[26.2611,54.9883,168.4966],[26.266,54.9831,175.4594],[26.2663,54.9723,180.7262],[26.2713,54.9644,182.48],[26.2765,54.9484,152.9473],[26.2862,54.9405,149.785],[26.3287,54.9656,184.2634],[26.3334,54.9657,195.9456],[26.3431,54.9605,187.0824],[26.3574,54.9608,192.0889],[26.3668,54.9664,188.3604],[26.3668,54.9691,220.4054],[26.3475,54.9768,202.9431],[26.3474,54.9822,211.2943],[26.3615,54.9906,207.4662],[26.371,54.9935,195.7895],[26.3757,54.9936,194.3493],[26.3902,54.9858,190.8356],[26.4189,54.9782,192.7473],[26.4382,54.9651,191.7446],[26.4619,54.9628,199.9686],[26.495,54.9526,188.1018],[26.5043,54.9527,200.144],[26.5229,54.9612,198.6747],[26.5323,54.9586,191.8138],[26.5417,54.9532,192.3303],[26.5511,54.9533,200.0227],[26.5559,54.9506,202.0438],[26.5605,54.9506,203.9091],[26.5747,54.9452,202.285],[26.5794,54.9398,200.6369],[26.5934,54.948,199.582],[26.6121,54.9508,190.6849],[26.6168,54.9536,197.4436],[26.6214,54.9591,202.616],[26.6213,54.9645,203.4375],[26.6117,54.9727,185.9914],[26.6117,54.9754,183.8488],[26.6163,54.9782,185.9049],[26.6538,54.9838,195.8803],[26.6728,54.9783,201.7245],[26.6869,54.9784,208.8069],[26.687,54.9757,204.3888],[26.7011,54.973,207.8083],[26.7059,54.9703,212.7052],[26.7108,54.9648,208.0704],[26.7203,54.9594,209.9521],[26.7393,54.954,207.229],[26.7487,54.954,193.0],[26.7531,54.9677,222.5918],[26.7578,54.9704,224.5094],[26.7577,54.9731,212.1271],[26.7671,54.9732,209.0961],[26.7813,54.9705,204.4045],[26.8002,54.9705,186.9122],[26.8047,54.9787,209.2226],[26.8142,54.9788,197.6532],[26.819,54.976,197.2953],[26.8144,54.9678,209.2928],[26.824,54.9624,165.7068],[26.8286,54.9651,169.5634],[26.8281,54.987,193.3073],[26.814,54.9869,203.9683],[26.8092,54.9897,202.542],[26.8087,55.0143,176.5624],[26.837,55.0143,158.5592],[26.8417,55.0116,166.6295],[26.8372,55.0061,160.8819],[26.842,55.0007,162.5071],[26.8468,54.998,161.5769],[26.8515,54.998,162.2356],[26.8796,55.009,156.8791],[26.8889,55.0172,169.5402],[26.903,55.0172,168.9285],[26.9174,55.0091,165.2224],[26.9412,55.0009,160.6578],[26.9461,54.9955,165.6089],[26.9653,54.9846,174.8627],[26.9512,54.9791,184.767],[26.9513,54.9764,169.7262],[26.965699999999998,54.9682,183.7771],[26.9751,54.9682,180.0678],[26.9893,54.971,192.403],[27.0082,54.971,184.0354],[27.0223,54.9765,196.3011],[27.0365,54.9793,196.6708],[27.0554,54.9793,190.1461],[27.065,54.9766,180.0604],[27.0792,54.9766,177.131],[27.0886,54.9821,183.855],[27.0694,54.9903,186.5849],[27.0646,54.9957,175.8408],[27.0787,55.0012,179.9204],[27.0882,55.0012,196.9711],[27.093,54.9985,197.6092],[27.1073,54.9958,191.7919],[27.1358,54.9958,177.9533],[27.15,54.9986,190.8953],[27.1548,54.9959,186.6831],[27.155,54.9877,188.6815],[27.1598,54.9849,175.8762],[27.1693,54.9877,178.076],[27.169,55.0013,169.3099],[27.1785,55.0014,168.2868],[27.1834,54.9959,173.6861],[27.2119,54.9987,195.7618],[27.2167,54.9932,189.4935],[27.2264,54.9878,196.8896],[27.2359,54.9878,162.7438],[27.2739,54.9933,171.4467],[27.2837,54.9796,167.2567],[27.2837,54.9769,167.038],[27.2695,54.9714,177.1645],[27.2696,54.9687,199.1918],[27.2793,54.9551,180.8439],[27.2842,54.9523,187.2596],[27.2889,54.9551,179.8593],[27.2937,54.9523,181.2148],[27.2938,54.9469,191.6305],[27.2986,54.9414,205.0198],[27.3129,54.9387,220.3495],[27.3273,54.9332,205.9659],[27.3274,54.925,202.4759],[27.3228,54.9169,188.1152],[27.3231,54.9005,181.1014],[27.3279,54.8977,180.3803],[27.3422,54.895,180.1795],[27.3566,54.8868,178.4109],[27.3711,54.8705,187.5001],[27.3711,54.8677,184.3593],[27.3807,54.8623,177.7315],[27.3902,54.8623,177.4148],[27.4045,54.8541,178.2355],[27.4521,54.8568,181.0241],[27.4664,54.8486,179.4337],[27.5046,54.8322,179.0991],[27.5096,54.8131,192.7755],[27.5049,54.8077,193.8368],[27.5049,54.8022,191.5366],[27.5144,54.8022,190.426],[27.5286,54.8077,191.8747],[27.5429,54.8104,198.843],[27.5619,54.8076,205.2984],[27.5667,54.8049,196.9332],[27.5668,54.794,200.2279],[27.5621,54.7803,177.7691],[27.5623,54.7667,184.9479],[27.567,54.764,180.4487],[27.6002,54.7667,185.9673],[27.624,54.7639,182.8196],[27.6335,54.7612,189.58],[27.662,54.7612,180.8685],[27.6716,54.7502,180.2649],[27.7001,54.7447,175.5994],[27.7144,54.7311,193.2055],[27.7145,54.7147,200.5775],[27.7098,54.712,180.4699],[27.7098,54.7038,177.0707],[27.7146,54.6983,177.3955],[27.7099,54.6874,176.0742],[27.7147,54.6711,189.5689],[27.7195,54.6656,187.7787],[27.7243,54.6656,190.7219],[27.729,54.6629,188.9118],[27.7338,54.6574,183.4439],[27.7433,54.6519,203.1455],[27.7528,54.6519,189.7916],[27.7575,54.6492,206.0563],[27.7528,54.6437,197.5352],[27.7528,54.6383,191.0665],[27.7671,54.6328,217.0927],[27.7671,54.6301,207.1914],[27.7623,54.6246,196.7738],[27.7766,54.611,193.0921],[27.7861,54.6082,191.5736],[27.8098,54.6082,196.9427],[27.8334,54.6163,195.6809],[27.8429,54.6136,215.3623],[27.8524,54.6136,206.8275],[27.8571,54.6163,206.4455],[27.8808,54.638,214.5553],[27.8855,54.638,204.7744],[27.895,54.6353,206.4744],[27.9045,54.6271,212.7204],[27.9045,54.6243,221.8749],[27.8997,54.618899999999996,220.5639],[27.8997,54.6134,222.2825],[27.9187,54.6052,219.4121],[27.9471,54.6051,239.8223],[27.9566,54.6106,232.8761],[27.9992,54.6104,258.1221],[28.0086,54.6077,266.1613],[28.0039,54.605,245.88],[27.9944,54.5941,262.5779],[27.9991,54.5886,259.136],[28.0133,54.5913,250.9973],[28.0181,54.5886,253.1156],[28.0133,54.5831,255.7738],[28.0181,54.5804,264.0039],[28.0228,54.5804,281.2166],[28.037,54.5885,250.5901],[28.037,54.5994,248.0315],[28.0512,54.613,262.5748],[28.0702,54.6184,247.0234],[28.0749,54.6211,238.9634],[28.0938,54.6211,240.3906],[28.1033,54.6237,232.3082],[28.1033,54.6265,225.6688],[28.1081,54.6292,227.3618],[28.1412,54.6291,216.213],[28.1413,54.6427,195.3235],[28.146,54.6482,172.2847],[28.1555,54.6536,174.0725],[28.1697,54.6535,172.7142],[28.1839,54.6589,171.0354],[28.2076,54.6643,164.1183],[28.2171,54.6642,158.3849],[28.2407,54.6478,157.9649],[28.2643,54.6422,160.3413],[28.2738,54.6422,158.7355],[28.2785,54.6394,161.2798],[28.2784,54.6285,159.0984],[28.2737,54.6258,157.3259],[28.2784,54.6203,158.4788],[28.2878,54.6148,159.4517],[28.2877,54.6039,157.9831],[28.2971,54.6011,158.4545],[28.2972,54.6038,157.2189],[28.3066,54.6093,157.7887],[28.3208,54.6092,164.9455],[28.3302,54.6037,160.1506],[28.3255,54.601,159.8305],[28.3255,54.5982,158.8534],[28.3302,54.5928,156.4307],[28.3443,54.5927,162.5166],[28.349,54.5899,160.2621],[28.3585,54.5899,157.9223],[28.3584,54.5844,160.6368],[28.3537,54.5817,160.2023],[28.3631,54.5762,158.7967],[28.3629,54.5544,159.0067],[28.3676,54.5516,158.5099],[28.377,54.5516,158.9652],[28.4053,54.546,155.61],[28.4148,54.5514,156.8801],[28.4243,54.5541,158.3533],[28.4339,54.5704,163.0636],[28.453,54.5921,162.9585],[28.4578,54.603,162.4815],[28.4628,54.6221,173.0833],[28.4629,54.633,182.6034],[28.4677,54.6466,181.613],[28.4725,54.6521,172.6918],[28.4773,54.6548,172.6874],[28.5671,54.6542,172.0011],[28.6098,54.6622,174.1255],[28.6192,54.6594,176.9787],[28.6287,54.6621,184.5126],[28.6381,54.662,200.7216],[28.6522,54.6564,215.3136],[28.6568,54.6427,198.5782],[28.6614,54.6372,211.8602],[28.6708,54.6317,191.4226],[28.694,54.6042,184.7109],[28.6939,54.5988,195.9974],[28.6796,54.5907,196.2784],[28.6795,54.5852,215.9541],[28.6935,54.5742,228.3608],[28.6935,54.5715,214.0317],[28.7028,54.5659,198.3735],[28.7217,54.5658,213.5369],[28.7406,54.5711,185.6745],[28.7642,54.5709,190.7986],[28.769,54.5736,197.1637],[28.7691,54.5791,208.215],[28.7738,54.5818,217.4659],[28.7785,54.5817,216.7155],[28.7879,54.5762,214.194],[28.8067,54.576,226.6251],[28.8159,54.5623,207.9734],[28.8253,54.5595,203.1045],[28.8536,54.5593,196.819],[28.8678,54.5619,209.7667],[28.8725,54.5646,200.7378],[28.8867,54.5645,201.8006],[28.9009,54.5698,204.0865],[28.9058,54.5779,202.2871],[28.8966,54.589,199.0214],[28.8872,54.5918,203.6418],[28.878,54.6028,192.0963],[28.8922,54.6054,194.588],[28.9157,54.6052,170.7397],[28.9485,54.594,172.9854],[28.9579,54.5939,170.1818],[28.9907,54.5854,168.4711],[29.0,54.5771,168.1026],[29.0141,54.5742,169.6845],[29.0235,54.5741,189.022],[29.0283,54.5795,195.7931],[29.0284,54.585,185.4841],[29.0333,54.5932,175.8552],[29.0478,54.6094,184.7122],[29.062,54.612,184.301],[29.0761,54.6119,181.7779],[29.0952,54.6199,168.9812],[29.1143,54.6306,169.2094],[29.1189,54.6279,170.1375],[29.1377,54.6222,186.6919],[29.1611,54.6165,169.6103],[29.1659,54.6192,167.1622],[29.1848,54.6217,178.4155],[29.1944,54.6298,187.002],[29.2086,54.6297,175.9576],[29.2085,54.6269,183.4803],[29.213,54.6214,174.9551],[29.2177,54.6186,168.3907],[29.2365,54.6184,173.3295],[29.2458,54.6129,173.6766],[29.2457,54.6101,179.9513],[29.2315,54.6048,205.4758],[29.2309,54.5857,186.4444],[29.2261,54.5803,184.8171],[29.2213,54.5776,188.9707],[29.2118,54.5749,196.0508],[29.2117,54.5695,191.4764],[29.2446,54.5691,193.8851],[29.2726,54.5579,186.7064],[29.2773,54.5606,182.1734],[29.2822,54.566,176.5],[29.2914,54.5604,191.338],[29.2867,54.5577,195.926],[29.2818,54.5523,182.9979],[29.2817,54.5496,185.1821],[29.2864,54.5468,197.2656],[29.2958,54.5467,199.0497],[29.3006,54.5521,195.8513],[29.3008,54.5576,190.7263],[29.3057,54.5657,202.3318],[29.32,54.5737,191.8889],[29.3483,54.5762,192.5438],[29.3529,54.5706,185.5131],[29.3577,54.5733,182.1765],[29.3624,54.5733,183.4307],[29.3673,54.5814,200.0775],[29.3674,54.5841,203.0934],[29.3817,54.5895,193.2952],[29.3818,54.5922,189.0992],[29.3916,54.6058,187.7344],[29.401,54.6056,192.5701],[29.4008,54.6002,189.8157],[29.3814,54.5812,206.1776],[29.3813,54.5758,194.4257],[29.4143,54.5781,200.0142],[29.4237,54.5808,203.3776],[29.4287,54.5889,201.3954],[29.4384,54.597,210.0505],[29.4388,54.6107,197.213],[29.4436,54.6134,196.1739],[29.4671,54.6131,202.6308],[29.4811,54.6102,204.6599],[29.4857,54.6074,200.4723],[29.4857,54.6047,200.5378],[29.481,54.6047,198.3296],[29.4807,54.5965,199.9492],[29.4947,54.5936,214.7263],[29.4993,54.5908,216.2284],[29.5038,54.5853,204.9199],[29.5037,54.5825,203.626],[29.4989,54.5771,204.1294],[29.4753,54.5747,204.4489],[29.465699999999998,54.5693,199.6448],[29.4654,54.5611,199.0492],[29.479,54.5445,197.0987],[29.4788,54.5391,204.332],[29.474,54.5364,205.4917],[29.4599,54.5338,194.6327],[29.455,54.5284,197.3987],[29.4548,54.523,213.3981],[29.4451,54.5121,233.4771],[29.445,54.5094,226.9593],[29.4588,54.4983,215.0544],[29.4585,54.4901,206.2967],[29.4489,54.4821,204.749],[29.4488,54.4793,204.7123],[29.4345,54.4713,199.3559],[29.4344,54.4686,192.0782],[29.4296,54.4632,181.8228],[29.4153,54.4552,220.6166],[29.4152,54.4524,211.7203],[29.4198,54.4496,214.8207],[29.4385,54.4494,196.6363],[29.4385,54.4467,214.3061],[29.4242,54.4414,211.6534],[29.4288,54.4386,214.3293],[29.4428,54.4357,204.8843],[29.452,54.4301,191.1469],[29.4519,54.4274,193.4231],[29.4472,54.4247,203.3382],[29.433,54.4222,212.3895],[29.4327,54.4113,196.8781],[29.428,54.4086,191.3534],[29.4372,54.403,190.5404],[29.4371,54.4003,201.8839],[29.4323,54.3976,198.8148],[29.4369,54.3921,202.4524],[29.4462,54.392,216.1588],[29.4555,54.3892,203.613],[29.4552,54.381,205.6151],[29.4365,54.3785,213.2059],[29.4319,54.3813,210.1347],[29.4225,54.3814,212.4872],[29.4177,54.3787,214.1006],[29.4079,54.3625,220.0977],[29.3984,54.3572,208.2332],[29.3703,54.3575,199.2267],[29.3469,54.355,201.8113],[29.3514,54.3495,212.1883],[29.3795,54.3492,217.1176],[29.3841,54.3464,205.0172],[29.3832,54.3164,193.218],[29.3878,54.3137,192.4489],[29.3925,54.3136,197.181],[29.3973,54.3163,189.7505],[29.416,54.3161,183.5869],[29.4206,54.3133,182.9051],[29.4205,54.3105,183.3643],[29.4063,54.3053,189.1481],[29.4013,54.2944,193.3968],[29.3917,54.2836,194.2263],[29.3915,54.2782,205.0355],[29.3959,54.2699,206.6966],[29.3912,54.2673,203.5615],[29.3819,54.2674,190.0558],[29.3679,54.2702,191.4071],[29.3584,54.2649,196.8823],[29.3675,54.2539,213.4918],[29.3533,54.2486,198.174],[29.3485,54.2432,199.411],[29.3483,54.2377,192.4551],[29.3621,54.2294,214.2152]]]]}
,"properties": {"GID_1": "BLR.6_1","GID_0": "BLR","country": "Belarus","province": "Vitebsk","VARNAME_1": "Витебск|Vitsyebsk|Vicebsk|Vitebs","NL_NAME_1": "Вiцебская","TYPE_1": "Oblast","ENGTYPE_1": "Region","CC_1": "NA","HASC_1": "BY.VI","ISO_1": "NA","name": "Vitebsk.province","area_km2": 39965.6,"hist_schema_id": "Elevation0-9000","hist_area_km2": {"100": 122.94,"125": 5086.17,"150": 14101.73,"175": 10623.8,"200": 6681.33,"225": 2750.63,"250": 529.81,"275": 65.18,"300": 4.0}}}