{"type":"Feature","properties":{"GID_2":"BLR.2.8_1","GID_0":"BLR","country":"Belarus","GID_1":"BLR.2_1","province":"Gomel","NL_NAME_1":"Гомельская","county":"Karma","VARNAME_2":"Korma","NL_NAME_2":"Кармянскіраён","TYPE_2":"Raion","ENGTYPE_2":"District","CC_2":"NA","HASC_2":"BY.HO.KO","name":"Karma.county"},
"geometry":{"type": "MultiPolygon","coordinates": [[[[31.1381,53.1354,176.3442],[31.1254,53.1466,160.4407],[31.1217,53.1575,170.4289],[31.1358,53.1729,160.5925],[31.1361,53.1782,159.2347],[31.1276,53.1839,174.3399],[31.1059,53.1902,156.7962],[31.1062,53.1956,168.0112],[31.1109,53.2007,161.7263],[31.1066,53.2036,171.1564],[31.0889,53.2017,158.2779],[31.0847,53.2072,168.752],[31.0897,53.2177,179.6157],[31.0859,53.2286,174.6744],[31.0593,53.227,172.2818],[31.0419,53.233,162.2194],[31.0422,53.2384,160.668],[31.0471,53.2463,162.389],[31.0473,53.249,158.7549],[31.0432,53.2545,174.4873],[31.0389,53.2574,173.8507],[31.0255,53.2552,143.9244],[31.0166,53.2555,145.208],[31.0079,53.2584,149.7772],[31.0082,53.2638,147.6001],[31.022,53.2715,153.088],[31.0362,53.2897,156.498],[31.0327,53.3059,135.4408],[31.0242,53.3117,128.644],[30.9881,53.2996,158.5811],[30.9435,53.301,168.4735],[30.9299,53.2987,160.9836],[30.9256,53.3015,164.3431],[30.9214,53.3071,163.0712],[30.9169,53.3072,161.5957],[30.8895,53.2997,156.9858],[30.876,53.3,157.2777],[30.8713,53.2974,155.5304],[30.8704,53.2838,159.2993],[30.8567,53.2814,159.1623],[30.8116,53.2824,148.6054],[30.7978,53.2772,150.1917],[30.7795,53.2749,150.5049],[30.748,53.2756,158.9571],[30.7429,53.2675,158.4376],[30.7422,53.2565,155.8557],[30.7242,53.2569,157.6073],[30.7013,53.252,153.2323],[30.7011,53.2492,152.8533],[30.7228,53.2351,158.46],[30.7224,53.2296,157.9176],[30.7082,53.2189,153.9633],[30.6931,53.1946,159.6104],[30.6882,53.1892,161.7134],[30.6837,53.1893,160.8124],[30.6794,53.1922,152.2356],[30.6655,53.187,155.8287],[30.6652,53.1815,156.7253],[30.678,53.1703,158.9379],[30.6821,53.1647,159.9086],[30.6818,53.1593,164.5086],[30.6771,53.1566,163.1913],[30.6636,53.1569,163.5899],[30.6503,53.1599,158.0347],[30.6283,53.1686,158.2031],[30.6148,53.1689,158.6234],[30.6054,53.1636,159.7897],[30.5593,53.1455,160.6021],[30.5499,53.1402,158.4745],[30.5448,53.1293,157.5987],[30.5481,53.1101,148.2363],[30.5885,53.1092,173.5122],[30.5974,53.1063,165.2977],[30.5972,53.1035,160.5907],[30.5877,53.0955,154.325],[30.5868,53.0818,162.6293],[30.5768,53.0656,155.4569],[30.5765,53.0602,157.1836],[30.5896,53.0544,159.1781],[30.5932,53.0406,151.7208],[30.5975,53.0378,151.0399],[30.6054,53.0212,151.533],[30.6179,53.0072,150.106],[30.6219,52.9989,148.388],[30.6305,52.9932,147.9436],[30.6439,52.9929,152.0951],[30.6446,53.0039,155.3017],[30.6539,53.0091,159.0617],[30.672,53.0115,163.988],[30.6852,53.0085,155.6004],[30.6988,53.0109,157.5806],[30.7029,53.0053,157.5003],[30.7025,52.9999,162.5474],[30.7111,52.9942,154.1215],[30.72,52.994,145.9979],[30.7286,52.9883,149.0547],[30.7191,52.9803,148.003],[30.7185,52.9721,150.5082],[30.7226,52.9665,151.2072],[30.7356,52.9608,149.6984],[30.7441,52.9551,172.5237],[30.7749,52.949,145.6918],[30.7921,52.9404,143.5248],[30.801,52.9402,151.9732],[30.8056,52.9428,151.4581],[30.806,52.9483,151.6849],[30.7978,52.9567,145.6104],[30.7892,52.9624,153.1854],[30.7894,52.9651,152.6445],[30.7941,52.9678,146.4882],[30.8117,52.9646,146.7271],[30.8695,52.9634,136.5525],[30.8791,52.9715,143.8118],[30.8846,52.9851,150.8977],[30.8893,52.9877,132.2126],[30.9028,52.9902,132.2834],[30.899,52.9985,159.3413],[30.9041,53.0066,160.1277],[30.9139,53.0174,124.3537],[30.9629,53.0164,156.5444],[30.9722,53.0217,140.6549],[30.9771,53.0271,144.3035],[30.9733,53.0354,152.4465],[30.9646,53.0383,151.4931],[30.9381,53.0416,142.4724],[30.9339,53.0444,140.8528],[30.9298,53.05,139.4552],[30.9345,53.0526,140.1697],[30.9347,53.0553,138.438],[30.9305,53.0582,149.2537],[30.9126,53.0585,146.6553],[30.9084,53.0613,147.0264],[30.9039,53.0614,125.8673],[30.9041,53.0642,134.4075],[30.9133,53.0667,147.0011],[30.9182,53.0721,146.2781],[30.9275,53.0774,140.4351],[30.9454,53.077,147.1385],[30.9545,53.0796,160.4726],[30.9679,53.0793,164.0576],[30.9815,53.0818,148.5994],[31.0352,53.0807,160.1314],[31.0489,53.0832,159.6351],[31.0675,53.091,161.9299],[31.0728,53.1018,173.0977],[31.0703,53.1264,164.9947],[31.0841,53.1315,164.8947],[31.1065,53.131,169.9433],[31.1381,53.1354,176.3442]]]]}}