{"type":"Feature","properties":{"featurecla":"River","scalerank":4,"rivernum":116,"dissolve":"116River","name":"Dnipro6","name_alt":"Dnieper","note":null,"min_zoom":4.0,"strokeweig":0.3,"name_en":"Dnieper","min_label":5.0},
"geometry":{"type": "LineString","coordinates": [[30.371191406250006,53.29657623905662,149.0035],[30.373046875,53.27826569218162,144.4942],[30.374902343750023,53.270135809369116,150.0713],[30.378662109375,53.26178619999412,133.733],[30.3603515625,53.26129791874412,133.0109],[30.309179687500006,53.248163153119116,132.7574],[30.271875,53.247674871869116,132.57],[30.256591796875,53.24457428593162,132.8096],[30.248242187500011,53.23517487186912,131.0],[30.238867187500006,53.203876043744117,148.904],[30.264892578125,53.151874090619117,139.5244],[30.261328125,53.12531159061912,147.6637],[30.271484375,53.12567780155662,149.3296],[30.27978515625,53.124530340619117,130.7452],[30.296142578125,53.11847565311912,130.7029],[30.2880859375,53.11762116093162,130.0863],[30.268798828125,53.11102936405662,130.5175],[30.275,53.10480377811912,130.4974],[30.240820312500006,53.08466217655662,130.5037],[30.199316406250006,53.08722565311912,130.6522],[30.156152343750023,53.10370514530662,140.6544],[30.117285156250006,53.12531159061912,129.1025],[30.108300781250023,53.11383698124412,128.0391],[30.076416015625,53.10858795780662,128.772],[30.063232421875,53.08148834843162,128.3557],[30.01806640625,53.04645416874412,141.4357],[30.010986328125,53.02655670780662,155.8102],[30.022558593750006,53.014520574994116,135.313],[30.03955078125,53.007098699994117,126.8482],[30.049072265625,53.00116608280662,127.1659],[30.045800781250023,52.99945709843162,126.9733],[30.038671875,52.993768621869116,126.4116],[30.03173828125,52.98602936405662,125.7913],[30.028564453125,52.978143621869116,128.2797],[30.032324218750006,52.97174713749412,127.9695],[30.041015625,52.96625397343162,141.4689],[30.055908203125,52.96015045780662,125.8117],[30.055908203125,52.953973699994116,126.3792],[30.052148437500023,52.95038483280662,124.9055],[30.047558593750011,52.94440338749412,137.7107],[30.043847656250023,52.93732330936912,126.4528],[30.042236328125,52.930047918744116,126.8261],[30.04541015625,52.92133209843162,125.8414],[30.0595703125,52.91144440311912,127.1705],[30.062744140625,52.902460028119116,124.564],[30.064160156250011,52.87384674686912,125.7999],[30.068261718750023,52.86176178593162,125.9894],[30.076416015625,52.85089752811912,124.8799],[30.055908203125,52.85089752811912,124.3248],[30.055908203125,52.844110418744116,124.3087],[30.077539062500023,52.834002996869117,124.4241],[30.088623046875,52.818377996869117,127.4036],[30.097070312500023,52.80194733280662,123.5619],[30.110595703125,52.78949616093162,125.1476],[30.108642578125,52.785663153119117,123.1788],[30.108496093750006,52.78485748905662,139.1897],[30.107666015625,52.78461334843162,140.4694],[30.104394531250023,52.78266022343162,136.2006],[30.120849609375,52.768426824994116,123.5249],[30.127832031250023,52.759149481244116,124.604],[30.130957031250006,52.74848053593162,124.7847],[30.128662109375,52.73700592655662,124.2001],[30.122314453125,52.73578522343162,125.1965],[30.115136718750023,52.740985418744117,123.4347],[30.110595703125,52.74848053593162,123.7379],[30.104394531250023,52.74848053593162,135.1732],[30.104101562500006,52.73627350468162,123.1701],[30.109082031250011,52.72760651249412,129.021],[30.124755859375,52.713739324994116,125.4808],[30.130957031250006,52.72125885624412,122.9733],[30.131591796875,52.71637604374412,123.0993],[30.1328125,52.71332428593162,123.1728],[30.134863281250006,52.71063873905662,123.2731],[30.138427734375,52.706903387494116,122.7399],[30.16015625,52.716669012494116,122.689],[30.178808593750006,52.69830963749412,121.5185],[30.1953125,52.67230866093162,123.1587],[30.210205078125,52.65912506718162,120.7608],[30.222558593750023,52.655389715619116,122.0686],[30.254150390625,52.637811590619116,124.8805],[30.261328125,52.631854559369117,120.5727],[30.260644531250023,52.62665436405662,122.6751],[30.256103515625,52.62164948124412,121.4812],[30.252685546875,52.61469147343162,122.0947],[30.254492187500006,52.603876043744116,121.7305],[30.258691406250023,52.603631903119116,121.4361],[30.282470703125,52.59772369999412,127.5177],[30.273193359375,52.585321356244116,121.5464],[30.2685546875,52.58112213749412,127.6956],[30.261328125,52.57721588749412,119.2365],[30.273193359375,52.56378815311912,119.3933],[30.282470703125,52.54926178593162,120.0303],[30.247460937500023,52.55524323124412,120.484],[30.2412109375,52.54926178593162,121.5665],[30.248242187500011,52.529413153119116,118.4759],[30.255273437500023,52.521502996869117,137.6286],[30.261962890625,52.51825592655662,137.8487],[30.266845703125,52.51276276249412,119.3546],[30.268798828125,52.49811432499412,131.8783],[30.302978515625,52.48786041874412,119.334],[30.302001953125,52.47955963749412,118.9386],[30.306640625,52.473016668744116,123.1494],[30.3154296875,52.46881744999412,117.5],[30.326904296875,52.46735260624412,120.0812],[30.338134765625,52.46417877811912,121.351],[30.344628906250023,52.45709869999412,117.8366],[30.34912109375,52.45001862186912,117.0],[30.3544921875,52.44684479374412,117.0],[30.37265625,52.440057684369116,119.5694],[30.367578125000023,52.42475006718162,119.2376],[30.343847656250006,52.399042059369116,122.51],[30.40478515625,52.37799713749412,117.3854],[30.412207031250006,52.37702057499412,117.677],[30.43603515625,52.37799713749412,117.156],[30.440185546875,52.374383856244116,117.8173],[30.438085937500006,52.356952215619117,130.1353],[30.439453125,52.35065338749412,126.4255],[30.462158203125,52.33722565311912,115.5],[30.492089843750023,52.328631903119117,116.9659],[30.55615234375,52.32269928593162,116.1167],[30.55615234375,52.31647369999412,116.9649],[30.537011718750023,52.30170319218162,117.7684],[30.533593750000023,52.265399481244117,115.873],[30.5146484375,52.26129791874412,115.4317],[30.5146484375,52.25507233280662,116.1073],[30.5244140625,52.24884674686912,115.9527],[30.543212890625,52.23236725468162,114.0],[30.55615234375,52.22711823124412,115.5317],[30.56787109375,52.24237702030662,116.1833],[30.57666015625,52.233270574994116,114.8205],[30.581152343750006,52.21600983280662,113.0],[30.580078125,52.206659246869116,115.5077],[30.5953125,52.201044012494116,115.3112],[30.606347656250023,52.18768952030662,113.0],[30.62451171875,52.15888092655662,113.264],[30.633886718750006,52.153094793744117,135.9173],[30.665283203125,52.14069244999412,113.1494],[30.676025390625,52.13837311405662,113.5247],[30.698974609375,52.137079168744116,113.7338],[30.70166015625,52.132586981244117,115.4001],[30.696191406250023,52.12433502811912,112.0],[30.693359375,52.111688543744116,115.9787],[30.702246093750006,52.10175202030662,113.6075],[30.718017578125,52.08930084843162,111.9299],[30.729248046875,52.07489655155662,111.25],[30.72412109375,52.059588934369117,111.9487],[30.725830078125,52.05377838749412,113.2641],[30.740234375,52.038446356244116,111.3808],[30.73779296875,52.03534577030662,113.3394],[30.732177734375,52.03339264530662,123.6055],[30.7373046875,52.02899811405662,111.4813],[30.746972656250023,52.024432684369117,112.5082],[30.7548828125,52.02167389530662,112.727],[30.763671875,52.02277252811912,112.8278],[30.7822265625,52.030047918744117,112.1964],[30.78955078125,52.02850983280662,112.3733],[30.79150390625,52.021356512494116,111.9669],[30.777099609375,52.00763580936912,110.0],[30.779052734375,51.99811432499412,111.4879],[30.786035156250023,51.986932684369116,110.0],[30.793847656250023,51.966083074994117,111.295],[30.802636718750023,51.95343659061912,112.939],[30.801513671875,51.943866278119117,131.2885],[30.802001953125,51.93585846561912,118.5249],[30.8046875,51.92963287968162,112.3598],[30.81005859375,51.92548248905662,113.365],[30.81005859375,51.91864655155662,112.0359],[30.796630859375,51.907001043744117,112.1334],[30.787695312500006,51.900897528119117,110.0345],[30.779052734375,51.89813873905662,112.4124],[30.749267578125,51.89984772343162,112.4471],[30.7412109375,51.89813873905662,125.8559],[30.7373046875,51.891864324994117,108.5],[30.73681640625,51.88251373905662,109.3644],[30.733984375,51.87396881718162,112.7322],[30.713476562500006,51.86725494999412,112.5406],[30.70703125,51.860614324994117,112.9285],[30.702246093750006,51.85407135624412,108.0],[30.69677734375,51.85101959843162,108.0],[30.693945312500006,51.84747955936912,113.0566],[30.672265625000023,51.82990143436912,108.5837],[30.665917968750023,51.82269928593162,118.2175],[30.661523437500023,51.81964752811912,107.5],[30.661865234375,51.81586334843162,109.1001],[30.669189453125,51.806268621869116,107.5],[30.670019531250006,51.790790106244117,107.5],[30.652246093750023,51.77936432499412,110.7981],[30.629980468750006,51.770282293744117,110.9814],[30.61767578125,51.761590887494116,109.3008],[30.637597656250023,51.755389715619117,112.2143],[30.645605468750006,51.754754949994116,110.7207],[30.645605468750006,51.747333074994117,106.5],[30.634521484375,51.73993561405662,106.5],[30.631445312500006,51.728290106244117,110.119],[30.630078125000011,51.71588776249412,108.7786],[30.62451171875,51.70636627811912,108.7329],[30.61328125,51.703143621869117,108.9326],[30.582275390625,51.70258209843162,109.3438],[30.56982421875,51.70014069218162,109.9446],[30.575439453125,51.686639715619116,106.6121],[30.563867187500023,51.66559479374412,108.7159],[30.56982421875,51.651727606244116,109.5886],[30.56298828125,51.64752838749412,108.7526],[30.5546875,51.64008209843162,109.428],[30.54931640625,51.637469793744117,107.7435],[30.55224609375,51.63361237186912,105.5],[30.55615234375,51.62384674686912,107.4571],[30.543212890625,51.620379949994117,108.9209],[30.5146484375,51.60394928593162,105.0],[30.5146484375,51.59650299686912,108.0849],[30.533935546875,51.58612702030662,105.7183],[30.542578125,51.58283112186912,105.273],[30.542578125,51.576678778119117,106.5698],[30.53466796875,51.575311590619116,104.5],[30.530517578125,51.573602606244116,105.3307],[30.527246093750023,51.571551824994117,106.5509],[30.522070312500006,51.569208074994116,107.9588],[30.522070312500006,51.563006903119117,107.6284],[30.53369140625,51.55353424686912,107.018],[30.56689453125,51.54755280155662,108.4198],[30.58349609375,51.54254791874412,111.6093],[30.575878906250011,51.531366278119116,105.1129],[30.570898437500006,51.52667877811912,104.0],[30.562402343750023,51.52204010624412,105.4665],[30.574462890625,51.51630280155662,113.2589],[30.584863281250023,51.509637762494116,108.1369],[30.589111328125,51.50226471561912,107.1367],[30.58349609375,51.49408600468162,107.8265],[30.58837890625,51.482049871869116,103.5],[30.596777343750006,51.47455475468162,103.5],[30.60703125,51.47016022343162,103.5],[30.61767578125,51.467401434369116,105.4677],[30.61767578125,51.459979559369117,107.7538],[30.604248046875,51.46149323124412,105.3728],[30.593017578125,51.45917389530662,105.9994],[30.585546875,51.45209381718162,105.145],[30.58349609375,51.43952057499412,105.7724],[30.587304687500023,51.427606512494116,103.5],[30.595117187500023,51.42523834843162,107.4603],[30.60546875,51.424823309369117,104.0775],[30.61767578125,51.41901276249412,106.23],[30.6220703125,51.41242096561912,104.5871],[30.631933593750006,51.38422272343162,105.528],[30.636962890625,51.37885162968162,105.5399],[30.64404296875,51.37299225468162,106.7279],[30.64501953125,51.36774323124412,120.4742],[30.631933593750006,51.364374090619116,105.8708],[30.6376953125,51.33612702030662,107.9465],[30.609960937500006,51.31781647343162,110.1319],[30.579345703125,51.303973699994117,106.5463],[30.57666015625,51.28925202030662,108.8586],[30.558837890625,51.26959869999412,108.9534],[30.55615234375,51.267596746869117,104.1305],[30.5546875,51.24371979374412,104.5482],[30.550048828125,51.237079168744117,103.4711],[30.535546875000023,51.23493073124412,102.0],[30.522705078125,51.23554108280662,102.0],[30.517578125,51.233905340619117,102.0],[30.512451171875,51.22882721561912,106.152],[30.509960937500011,51.22394440311912,102.6609],[30.507519531250011,51.217303778119117,102.8879]]}}