{"type":"Feature","properties":{"featurecla":"River","scalerank":7,"rivernum":429,"dissolve":"429River","name":"Pripyat4","name_alt":null,"note":null,"min_zoom":6.0,"strokeweig":0.3,"name_en":"Pripyat","min_label":7.0},
"geometry":{"type": "LineString","coordinates": [[29.870996093750023,51.535028387494116,109.5593],[29.882910156250006,51.536737371869116,110.4437],[29.910546875000023,51.544061590619116,109.1529],[29.918701171875,51.54254791874412,109.5871],[29.920507812500006,51.53534577030662,109.8457],[29.912207031250006,51.52118561405662,105.3707],[29.911230468750006,51.51459381718162,112.5458],[29.911376953125,51.513788153119116,112.5458],[29.912353515625,51.51093170780662,110.3263],[29.914648437500006,51.50653717655662,108.3593],[29.918701171875,51.50092194218162,105.8808],[29.929296875,51.496942449994116,111.1194],[29.942138671875,51.495965887494116,109.8771],[29.948486328125,51.490594793744116,109.1877],[29.939355468750023,51.473651434369117,113.0586],[29.952050781250023,51.46820709843162,110.9061],[29.9609375,51.47003815311912,106.0981],[29.969482421875,51.473651434369117,103.0],[29.980224609375,51.473651434369117,107.3399],[29.9892578125,51.46796295780662,107.0597],[30.00341796875,51.448846746869116,106.0941],[30.014892578125,51.43952057499412,106.3964],[30.035253906250006,51.433368231244117,105.1706],[30.06005859375,51.43317291874412,106.0689],[30.084570312500006,51.437616278119116,108.2454],[30.104394531250023,51.445672918744116,104.9521],[30.110595703125,51.43952057499412,111.4183],[30.090917968750006,51.42743561405662,104.0],[30.083251953125,51.42523834843162,110.9843],[30.10107421875,51.41535065311912,107.9902],[30.1240234375,51.406268621869117,110.415],[30.143652343750006,51.395526434369117,111.2697],[30.152099609375,51.380877996869117,110.0],[30.150146484375,51.36908600468162,110.0],[30.154541015625,51.365594793744116,110.0],[30.1689453125,51.364374090619116,110.0],[30.173828125,51.35944244999412,110.0],[30.170800781250023,51.34833405155662,110.0],[30.164306640625,51.336542059369116,110.0],[30.158935546875,51.32965729374412,127.2625],[30.16748046875,51.325555731244116,130.9684],[30.1890625,51.32184479374412,110.0],[30.199951171875,51.31659577030662,110.0],[30.220458984375,51.28558991093162,106.3571],[30.230224609375,51.275018621869116,129.2222],[30.277099609375,51.25202057499412,106.9648],[30.29248046875,51.247674871869116,103.3396],[30.304882812500011,51.24750397343162,105.9373],[30.314697265625,51.24579498905662,103.7285],[30.321044921875,51.24066803593162,104.229],[30.323486328125,51.23029205936912,102.2668],[30.32763671875,51.22260162968162,103.2362],[30.33740234375,51.220331121869116,106.648],[30.358154296875,51.22040436405662,102.727],[30.41259765625,51.206903387494116,102.999],[30.44091796875,51.195086981244117,102.8403],[30.4599609375,51.17877838749412,102.6867]]}}