{"type":"Feature","properties":{"featurecla":"River","scalerank":7,"rivernum":429,"dissolve":"429River","name":"Pripyat3","name_alt":null,"note":null,"min_zoom":6.0,"strokeweig":0.25,"name_en":"Pripyat","min_label":7.0},
"geometry":{"type": "LineString","coordinates": [[28.000097656250006,52.076922918744117,123.1804],[28.009179687500023,52.074725653119117,122.1832],[28.016503906250023,52.071063543744117,122.8177],[28.024121093750011,52.07025787968162,119.0],[28.034423828125,52.076922918744117,122.446],[28.050683593750023,52.06610748905662,121.82],[28.076074218750023,52.069696356244116,119.4798],[28.15380859375,52.09137604374412,121.9997],[28.174902343750006,52.10578034061912,120.8077],[28.195068359375,52.11420319218162,121.7077],[28.21923828125,52.104266668744117,119.267],[28.232324218750023,52.10895416874412,122.5704],[28.291259765625,52.104266668744117,125.4996],[28.308837890625,52.09833405155662,118.0],[28.3349609375,52.07343170780662,119.6599],[28.3564453125,52.069452215619116,119.3365],[28.37353515625,52.074823309369116,120.999],[28.405664062500023,52.09332916874412,120.5528],[28.4501953125,52.09931061405662,118.3084],[28.49365234375,52.111688543744116,119.0077],[28.53125,52.111688543744116,116.5],[28.541259765625,52.11469147343162,119.3575],[28.555566406250023,52.12787506718162,119.3061],[28.565673828125,52.13092682499412,118.4899],[28.674218750000023,52.13849518436912,119.9973],[28.678613281250023,52.14179108280662,118.8057],[28.680908203125,52.14496491093162,118.2069],[28.685644531250006,52.146014715619117,119.2016],[28.690673828125,52.14496491093162,121.0663],[28.69287109375,52.14179108280662,118.7346],[28.691650390625,52.135614324994116,118.8846],[28.6890625,52.132440496869116,118.6162],[28.686621093750006,52.13043854374412,117.1873],[28.685449218750023,52.127801824994116,117.3846],[28.69384765625,52.11640045780662,118.8024],[28.713769531250023,52.112176824994116,122.143],[28.736425781250006,52.109881903119117,119.5467],[28.753662109375,52.104266668744117,117.7063],[28.773535156250006,52.11347077030662,119.1294],[28.796289062500023,52.121210028119116,119.2809],[28.818359375,52.12384674686912,117.7368],[28.836328125000023,52.117938543744117,115.3157],[28.846582031250023,52.132342840619117,115.0],[28.86181640625,52.135370184369116,116.6752],[28.901123046875,52.13092682499412,115.5647],[28.906982421875,52.128924871869117,118.6274],[28.916113281250006,52.11994049686912,114.0],[28.921630859375,52.117938543744117,116.0817],[28.924414062500006,52.11896393436912,119.2497],[28.926367187500006,52.12128327030662,118.2089],[28.929443359375,52.12360260624412,119.2948],[28.935302734375,52.12470123905662,114.0],[28.972753906250006,52.12470123905662,116.7541],[29.042724609375,52.11078522343162,118.4527],[29.0712890625,52.116473699994117,116.8572],[29.121484375000023,52.114618231244116,113.7501],[29.137939453125,52.111688543744116,131.2867],[29.146484375,52.10614655155662,120.7726],[29.149658203125,52.10065338749412,115.1119],[29.152099609375,52.095233465619117,118.8874],[29.158398437500011,52.089960028119116,134.4173],[29.168359375000023,52.08856842655662,149.6451],[29.182373046875,52.08881256718162,137.146],[29.194580078125,52.087176824994117,115.9737],[29.199951171875,52.080340887494117,129.0082],[29.332763671875,52.01361725468162,114.3688],[29.352294921875,51.98688385624412,145.9498],[29.40478515625,51.959588934369116,147.6531],[29.456152343750006,51.94818756718162,127.0514],[29.482421875,51.938104559369116,112.5],[29.49365234375,51.92206452030662,115.6408],[29.491455078125,51.90888092655662,114.0857],[29.48203125,51.88287994999412,117.2747],[29.479882812500023,51.86713287968162,114.3539],[29.487548828125,51.858514715619116,115.5158],[29.501367187500023,51.85138580936912,115.6146],[29.507910156250006,51.84442780155662,113.7966],[29.49365234375,51.83673737186912,113.8723],[29.49365234375,51.82990143436912,113.7397],[29.506738281250023,51.81903717655662,112.401],[29.513769531250006,51.80329010624412,114.7212],[29.522851562500023,51.788934637494116,114.5188],[29.5419921875,51.782098699994116,113.6575],[29.5517578125,51.78400299686912,113.1235],[29.56396484375,51.79352448124412,112.5081],[29.57275390625,51.79572174686912,111.9892],[29.579492187500023,51.791522528119117,112.9162],[29.58154296875,51.782098699994116,111.7575],[29.579199218750006,51.772723699994117,113.9912],[29.56982421875,51.76630280155662,112.1159],[29.576269531250006,51.76154205936912,115.3815],[29.587158203125,51.756854559369117,112.6075],[29.59716796875,51.754754949994116,113.5423],[29.60693359375,51.75702545780662,111.1817],[29.624267578125,51.766376043744117,112.1784],[29.634521484375,51.76850006718162,113.6792],[29.654296875,51.764032293744116,111.6953],[29.667089843750006,51.75385162968162,111.5093],[29.67822265625,51.742206121869117,112.2914],[29.692773437500023,51.73371002811912,112.8402],[29.67431640625,51.72199127811912,111.2023],[29.668554687500006,51.71588776249412,111.6159],[29.666113281250006,51.70636627811912,115.7617],[29.667578125,51.700458074994117,113.6285],[29.671630859375,51.70038483280662,112.3864],[29.676171875000023,51.70172760624412,112.9642],[29.67919921875,51.70014069218162,112.0463],[29.6796875,51.70001862186912,112.0463],[29.685302734375,51.68817780155662,111.2111],[29.685937500000023,51.68585846561912,110.4695],[29.708251953125,51.65900299686912,112.8594],[29.722900390625,51.64887116093162,117.544],[29.744384765625,51.64496491093162,111.6195],[29.7578125,51.63849518436912,111.7069],[29.762939453125,51.62445709843162,110.147],[29.770751953125,51.610370184369117,109.4836],[29.806396484375,51.599969793744116,111.6511],[29.823974609375,51.59052155155662,108.1854],[29.83359375,51.57904694218162,108.0854],[29.823144531250023,51.569208074994116,106.0],[29.823144531250023,51.563006903119117,110.9227],[29.831933593750023,51.55365631718162,107.296],[29.843017578125,51.545038153119116,109.6487],[29.856201171875,51.53839752811912,107.8581],[29.870996093750023,51.535028387494116,109.5593]]}}