{"type": "Feature","bbox": [30.7866,53.9311,31.2874,54.2008],"geometry": {"type": "MultiPolygon","coordinates": [[[[31.2107,53.9509,200.4178],[31.2256,53.9568,208.7006],[31.2304,53.9569,207.8175],[31.2314,53.9681,189.5087],[31.2508,53.9713,225.0662],[31.2559,53.9742,221.1064],[31.2871,53.9998,208.4389],[31.2874,54.0026,212.3517],[31.2739,54.0136,203.7388],[31.2752,54.0276,214.695],[31.2665,54.0386,217.8294],[31.267,54.0443,218.9463],[31.2627,54.0498,243.0611],[31.2485,54.0523,244.28],[31.2426,54.041,216.3816],[31.2375,54.0381,221.8874],[31.2185,54.0405,214.6956],[31.2139,54.0432,212.965],[31.2142,54.046,201.1665],[31.2297,54.0575,222.6233],[31.2304,54.0659,244.3638],[31.2271,54.0827,219.8206],[31.2185,54.0936,218.0851],[31.2482,54.1027,241.5403],[31.2447,54.1167,244.415],[31.2364,54.1216,247.6653],[31.2345,54.1548,213.6929],[31.2239,54.1846,198.2188],[31.1875,54.2008,192.1669],[31.0585,54.1971,186.6446],[31.0063,54.1819,183.553],[30.9897,54.1491,199.8782],[30.9705,54.119,199.6667],[30.9353,54.1211,217.1929],[30.8785,54.1392,208.7853],[30.8656,54.148,207.4139],[30.8441,54.1414,205.5296],[30.8477,54.1249,187.6429],[30.8561,54.1111,209.191],[30.8512,54.1057,188.8236],[30.8176,54.0872,201.4122],[30.7981,54.0711,196.3376],[30.7978,54.0656,204.4659],[30.8062,54.0518,181.0067],[30.7866,54.033,184.8804],[30.7949,54.0191,176.541],[30.8083,54.0106,158.715],[30.8166,53.9967,164.9983],[30.8253,53.9883,183.5559],[30.8345,53.9881,188.2642],[30.8538,54.0015,196.1716],[30.8588,54.0069,192.1999],[30.8634,54.0068,208.7756],[30.8678,54.0039,216.0964],[30.8671,53.993,193.6369],[30.8716,53.9901,212.8658],[30.8859,53.9981,209.1162],[30.8951,53.9979,194.7946],[30.8942,53.9842,193.183],[30.9075,53.9757,213.2216],[30.9117,53.9702,212.2605],[30.9206,53.9645,190.6577],[30.9254,53.9672,204.2094],[30.9303,53.9726,210.9199],[30.931,53.9835,188.9925],[30.936,53.9889,188.5811],[30.9406,53.9889,203.1057],[30.945,53.986,190.8087],[30.9582,53.9776,205.6808],[30.9625,53.972,209.0489],[30.9717,53.9718,212.3346],[30.9764,53.9745,195.2701],[30.9768,53.98,192.179],[30.9862,53.9826,201.768],[31.0225,53.9765,186.8625],[31.032,53.9818,175.1981],[31.0287,54.0011,199.126],[31.0244,54.0039,207.6367],[31.0247,54.0094,214.1273],[31.0344,54.0175,184.7766],[31.0531,54.0228,153.2752],[31.0623,54.0227,152.9435],[31.0755,54.0143,164.4604],[31.0796,54.006,170.276],[31.0788,53.995,151.7309],[31.0872,53.9839,158.6341],[31.0912,53.9756,177.3168],[31.0893,53.948,149.7955],[31.1023,53.9369,149.5892],[31.1065,53.9313,178.8852],[31.1157,53.9312,184.3991],[31.1297,53.9339,171.844],[31.1434,53.9311,158.1032],[31.1673,53.9393,154.6577],[31.168,53.9476,155.5408],[31.164,53.9559,155.2948],[31.1688,53.9587,165.0747],[31.1782,53.9588,164.4597],[31.1868,53.9478,177.5784],[31.1913,53.945,170.7844],[31.2107,53.9509,200.4178]]]]}
,"properties": {"GID_2": "BLR.4.7_1","GID_0": "BLR","country": "Belarus","GID_1": "BLR.4_1","province": "Mogilev","NL_NAME_1": "Магілёўская","county": "Drybin","VARNAME_2": "Dribin","NL_NAME_2": "Дрыбінскіраён","TYPE_2": "Raion","ENGTYPE_2": "District","CC_2": "NA","HASC_2": "BY.MA.DR","name": "Drybin.county","area_km2": 604.1625,"hist_schema_id": "Elevation0-9000","hist_area_km2": {"150": 43.2898,"175": 202.1506,"200": 293.1988,"225": 60.4009,"250": 5.1223}}}