{"type":"Feature","properties":{"GID_2":"BLR.4.9_1","GID_0":"BLR","country":"Belarus","GID_1":"BLR.4_1","province":"Mogilev","NL_NAME_1":"Магілёўская","county":"Horki","VARNAME_2":"Gorki","NL_NAME_2":"Горацкіраён","TYPE_2":"Raion","ENGTYPE_2":"District","CC_2":"NA","HASC_2":"BY.MA.GO","name":"Horki.county"},
"geometry":{"type": "MultiPolygon","coordinates": [[[[31.2447,54.1167,244.415],[31.2511,54.1337,229.8891],[31.2564,54.1395,213.1668],[31.2615,54.1424,212.7006],[31.3062,54.1578,198.7707],[31.341,54.1727,205.2422],[31.3511,54.1784,204.7707],[31.3516,54.184,201.5786],[31.3386,54.1983,203.6748],[31.3253,54.2096,193.7796],[31.3026,54.2232,214.4927],[31.2983,54.2287,201.1265],[31.2991,54.2372,196.0033],[31.305,54.2489,202.73],[31.32,54.2553,205.8467],[31.3197,54.2525,211.7807],[31.3393,54.2573,227.9115],[31.3301,54.2609,206.1786],[31.3212,54.2695,206.8116],[31.3217,54.2792,214.7082],[31.3176,54.2918,208.1247],[31.3279,54.308,210.834],[31.3235,54.3158,206.6858],[31.3238,54.3207,206.9328],[31.3287,54.3251,212.6492],[31.3147,54.3289,209.13],[31.31,54.3293,210.1357],[31.3052,54.3272,214.3638],[31.3008,54.3325,209.4566],[31.301,54.3374,204.1448],[31.3058,54.3395,212.2517],[31.3059,54.3419,214.596],[31.3106,54.3415,211.2666],[31.3251,54.3476,212.9922],[31.3256,54.3574,222.8231],[31.3125,54.3784,236.7269],[31.2986,54.3846,231.1698],[31.2939,54.3849,225.8474],[31.2758,54.3963,237.2314],[31.2759,54.3988,237.0089],[31.2715,54.4041,222.0682],[31.2762,54.4062,232.2462],[31.2765,54.4112,230.7406],[31.2631,54.4246,239.5196],[31.2633,54.4271,242.9522],[31.2589,54.4324,247.7144],[31.2591,54.4374,249.2979],[31.2547,54.4427,239.7845],[31.2412,54.4512,240.5529],[31.2418,54.4637,240.0762],[31.2192,54.4752,219.9278],[31.2144,54.4704,220.0331],[31.2049,54.4658,218.8909],[31.191,54.464,221.5969],[31.1683,54.4725,213.0446],[31.1541,54.4726,211.7179],[31.149,54.4673,217.678],[31.1485,54.4593,214.5591],[31.1435,54.4565,229.1806],[31.124,54.4533,219.1227],[31.0796,54.4395,219.9289],[31.0642,54.4285,226.9174],[31.048,54.4065,223.3718],[31.0379,54.4009,233.8944],[31.0331,54.4008,243.0591],[31.0286,54.4034,240.5155],[31.0205,54.4225,245.6895],[31.0067,54.4278,221.817],[30.9923,54.4251,223.3986],[30.9782,54.4253,222.308],[30.9646,54.4309,218.7668],[30.9507,54.4312,215.0153],[30.9371,54.4342,221.065],[30.9191,54.4428,216.9217],[30.9098,54.443,237.018],[30.9003,54.4405,232.717],[30.9039,54.4241,214.1392],[30.8984,54.4106,217.2405],[30.8839,54.4028,216.4299],[30.8603,54.3978,201.2741],[30.851,54.398,212.3077],[30.8235,54.4068,214.0733],[30.8095,54.4072,209.6639],[30.7857,54.3995,202.6453],[30.781,54.3996,218.1151],[30.7765,54.4024,222.985],[30.7772,54.4133,227.433],[30.7585,54.4138,227.9652],[30.7173,54.4284,211.2053],[30.6986,54.4288,209.0876],[30.689,54.4236,205.783],[30.684,54.4182,198.6204],[30.6837,54.4128,195.8683],[30.6922,54.3989,196.3314],[30.6921,54.3962,196.0736],[30.6776,54.3883,196.03],[30.6119,54.3816,194.1219],[30.5981,54.3847,207.6048],[30.5888,54.3849,204.2189],[30.5794,54.3823,204.5459],[30.5698,54.3771,211.4459],[30.5743,54.3742,207.7779],[30.5926,54.3684,199.3984],[30.6242,54.3513,196.6337],[30.6239,54.3458,197.6485],[30.6001,54.3354,189.4453],[30.5955,54.3355,191.7935],[30.5766,54.3304,191.7319],[30.5718,54.3278,194.8336],[30.5714,54.3196,217.2237],[30.5757,54.314,196.437],[30.5748,54.2976,196.5022],[30.5653,54.2923,197.9163],[30.5417,54.2846,195.1667],[30.541,54.2709,197.3745],[30.5314,54.2656,194.9104],[30.5217,54.2576,208.7026],[30.5214,54.2521,199.272],[30.5259,54.2493,196.5055],[30.5861,54.2481,196.8433],[30.5955,54.2506,190.5835],[30.5961,54.2616,192.0083],[30.6007,54.2615,189.959],[30.6055,54.2641,193.6684],[30.6378,54.2607,175.7794],[30.6423,54.2578,178.1271],[30.6418,54.2496,183.4311],[30.651,54.2467,185.0027],[30.6649,54.2464,189.1777],[30.6692,54.2408,190.7591],[30.6689,54.2354,194.8412],[30.6826,54.2323,191.7423],[30.6967,54.2348,194.4189],[30.7152,54.2344,195.4137],[30.7197,54.2315,194.0921],[30.7148,54.2262,193.2067],[30.7188,54.2151,192.1472],[30.714,54.2125,190.9546],[30.7175,54.1933,189.7606],[30.7266,54.1903,203.0072],[30.7451,54.1899,174.6805],[30.7643,54.2005,180.3008],[30.7832,54.2056,182.8875],[30.7921,54.1999,191.809],[30.8052,54.186,192.5884],[30.8234,54.1801,209.9279],[30.8467,54.1824,196.3049],[30.8656,54.1875,207.4111],[30.87,54.1847,202.1579],[30.8743,54.1791,193.7031],[30.8777,54.1599,209.9019],[30.8726,54.1518,214.5042],[30.8656,54.148,207.4139],[30.8785,54.1392,208.7853],[30.9353,54.1211,217.1929],[30.9705,54.119,199.6667],[30.9897,54.1491,199.8782],[31.0063,54.1819,183.553],[31.0585,54.1971,186.6446],[31.1875,54.2008,192.1669],[31.2239,54.1846,198.2188],[31.2345,54.1548,213.6929],[31.2364,54.1216,247.6653],[31.2447,54.1167,244.415]]]]}}