{"type": "Feature","bbox": [24.9079,52.4337,26.2006,52.991],"geometry": {"type": "MultiPolygon","coordinates": [[[[25.4487,52.991,161.6138],[25.4353,52.988,135.2879],[25.4365,52.9719,135.2804],[25.4416,52.9639,170.3033],[25.4418,52.9612,152.0991],[25.4332,52.9556,139.2556],[25.3928,52.9492,209.831],[25.3608,52.9538,184.4519],[25.3289,52.9558,178.0837],[25.3243,52.9556,180.2413],[25.32,52.9528,178.4303],[25.3301,52.9396,185.8171],[25.3442,52.9319,195.3352],[25.3541,52.9214,190.0013],[25.3545,52.916,199.3003],[25.3454,52.9158,204.1698],[25.3366,52.9129,190.4126],[25.328,52.9073,187.9374],[25.3298,52.8831,181.6178],[25.3345,52.8805,175.0568],[25.3614,52.8839,190.1841],[25.3754,52.8788,181.2082],[25.3758,52.8735,181.152],[25.3632,52.8597,180.7305],[25.35,52.854,174.9691],[25.3137,52.8558,166.8809],[25.309,52.8584,178.4073],[25.304,52.8637,183.131],[25.3036,52.869,168.7223],[25.2985,52.877,163.8698],[25.2971,52.8958,165.1014],[25.2924,52.8983,164.0267],[25.2833,52.8981,166.364],[25.2436,52.8837,164.5919],[25.2261,52.8752,178.6622],[25.2268,52.8671,169.6227],[25.2317,52.8619,162.1819],[25.2319,52.8592,161.5534],[25.2233,52.8536,161.1351],[25.2142,52.8534,163.2258],[25.191,52.8608,176.8134],[25.1908,52.8635,179.7891],[25.1759,52.8793,158.1844],[25.1626,52.8762,176.9832],[25.1585,52.8708,167.6967],[25.1408,52.8649,171.898],[25.1362,52.8648,170.6743],[25.1369,52.8568,166.7554],[25.1328,52.8513,162.1353],[25.119,52.8536,163.6885],[25.1089,52.8668,166.5986],[25.1041,52.8693,168.7933],[25.0998,52.8665,167.0896],[25.1004,52.8585,168.4978],[25.0963,52.853,161.2321],[25.092,52.8502,163.4916],[25.0927,52.8422,172.2272],[25.0584,52.8171,167.1874],[25.0586,52.8145,173.0171],[25.0543,52.8117,187.5663],[25.0454,52.8087,174.2399],[25.0362,52.8112,175.9777],[25.0319,52.8084,174.8991],[25.0323,52.803,183.5527],[25.0105,52.7917,185.1593],[25.0155,52.7865,183.1602],[25.0069,52.7809,191.6822],[24.9978,52.7807,191.3615],[24.9677,52.7611,170.7789],[24.9632,52.761,170.2709],[24.9394,52.7737,173.9488],[24.9349,52.7736,163.5377],[24.9217,52.7679,193.6275],[24.9176,52.7624,194.5246],[24.9179,52.7597,190.175],[24.9095,52.7514,179.726],[24.9079,52.7166,187.5839],[24.9088,52.7059,185.1576],[24.9138,52.7007,187.1761],[24.9233,52.6956,186.7769],[24.933,52.6878,180.0127],[24.9337,52.6798,171.1381],[24.9386,52.6746,159.1213],[24.9529,52.6669,157.1704],[24.9759,52.6622,159.353],[25.026,52.6581,150.3636],[25.0529,52.6615,149.6174],[25.066,52.6672,162.6566],[25.0705,52.6673,157.3124],[25.0752,52.6647,161.4791],[25.0885,52.6677,152.3053],[25.102,52.668,150.8971],[25.1158,52.6657,150.109],[25.1437,52.6556,148.8882],[25.1578,52.6479,148.4962],[25.1677,52.6374,148.5048],[25.1771,52.6323,148.0343],[25.2002,52.6248,152.6481],[25.2143,52.6171,158.7459],[25.2188,52.6172,154.2984],[25.2282,52.612,149.3208],[25.2332,52.6068,145.5746],[25.2338,52.5987,156.9317],[25.2387,52.5935,155.2164],[25.2622,52.5806,159.4565],[25.2718,52.5727,154.9906],[25.2934,52.584,161.258],[25.3071,52.5816,159.0505],[25.3296,52.5821,162.4103],[25.3342,52.5795,149.2189],[25.3354,52.5634,155.4879],[25.3417,52.5394,161.0035],[25.338,52.5285,156.9169],[25.339,52.5151,154.7192],[25.3437,52.5126,155.0861],[25.3612,52.5183,154.1191],[25.3702,52.5185,154.2403],[25.4021,52.5111,153.5303],[25.4246,52.5115,145.64],[25.4337,52.509,142.8152],[25.438,52.5118,142.8275],[25.4647,52.515,143.1412],[25.4875,52.5101,143.1464],[25.4968,52.5049,143.415],[25.5017,52.4997,142.6494],[25.5071,52.4863,143.8785],[25.534,52.4869,142.861],[25.5478,52.4818,142.4526],[25.553,52.4711,143.1816],[25.5672,52.4606,142.4557],[25.5811,52.4528,142.114],[25.5906,52.4449,142.3347],[25.591,52.4396,141.8008],[25.5956,52.437,141.9403],[25.6001,52.437,142.0352],[25.6219,52.4455,142.0091],[25.6354,52.4458,142.1607],[25.6529,52.4515,142.3486],[25.6667,52.4464,143.0666],[25.6844,52.4494,142.1017],[25.6891,52.4468,142.1816],[25.6935,52.4469,153.2758],[25.6942,52.4361,143.374],[25.7078,52.4337,142.7096],[25.7164,52.4392,148.6294],[25.715699999999998,52.45,154.8074],[25.72,52.4528,145.3872],[25.7242,52.4582,147.0538],[25.7639,52.467,146.6425],[25.7682,52.4698,146.56],[25.7681,52.4725,147.4048],[25.7633,52.4778,148.6653],[25.7629,52.4832,157.932],[25.7627,52.4859,157.4452],[25.7671,52.4887,157.4939],[25.776,52.4888,164.4386],[25.7807,52.4862,162.6615],[25.7858,52.4755,151.8499],[25.7866,52.4621,152.4342],[25.8004,52.4569,163.4828],[25.8054,52.449,166.906],[25.8055,52.4463,165.2485],[25.8191,52.4438,166.1482],[25.8369,52.4468,175.6873],[25.8316,52.4602,172.5821],[25.8268,52.4655,173.9548],[25.8263,52.4736,162.4356],[25.8306,52.4764,147.9531],[25.8395,52.4765,145.6574],[25.8582,52.4634,144.1645],[25.8627,52.4635,143.9578],[25.8674,52.4609,143.6502],[25.9031,52.4615,144.0266],[25.9038,52.4507,143.778],[25.9483,52.4542,143.5647],[25.953,52.4516,143.5596],[25.9533,52.4462,143.6432],[25.9622,52.4464,143.5311],[25.9796,52.4548,143.7077],[25.993,52.455,144.3595],[26.0018,52.4579,147.955],[26.0108,52.458,154.5612],[26.0109,52.4553,157.4466],[26.0154,52.4554,156.8155],[26.02,52.4528,165.2942],[26.0869,52.4567,147.3103],[26.0915,52.454,145.9663],[26.0964,52.446,155.0394],[26.1102,52.4382,154.0897],[26.1147,52.4382,156.0894],[26.1233,52.4438,149.0613],[26.136,52.4575,158.1481],[26.1358,52.4602,157.2036],[26.1531,52.4713,151.1495],[26.1976,52.472,153.8808],[26.1929,52.4774,152.1342],[26.1966,52.4909,155.9726],[26.2006,52.4991,148.1198],[26.1998,52.5153,148.9188],[26.1901,52.5287,149.1745],[26.1809,52.5339,149.717],[26.1664,52.5553,150.7762],[26.157,52.5632,149.9805],[26.1246,52.5843,151.0804],[26.1009,52.6082,151.2552],[26.0958,52.618899999999996,151.3572],[26.0814,52.6348,156.5822],[26.0397,52.6584,156.5231],[26.0298,52.6744,154.8214],[26.0295,52.6798,155.4803],[26.025,52.6797,154.8455],[26.0247,52.6851,154.7807],[26.0194,52.6985,154.9834],[25.9963,52.7089,157.6879],[25.9733,52.7165,160.3691],[25.9373,52.7158,160.4898],[25.9372,52.7185,161.8536],[25.9414,52.724,168.4278],[25.9407,52.7348,155.5038],[25.9451,52.7376,157.3636],[25.9404,52.7402,159.0726],[25.9269,52.7399,152.3479],[25.9081,52.753,154.0289],[25.9079,52.7557,160.3106],[25.8937,52.7662,150.444],[25.8565,52.7844,150.2544],[25.8517,52.7897,150.3011],[25.8515,52.7924,149.9607],[25.8597,52.806,150.6627],[25.8592,52.8141,150.5301],[25.8537,52.8302,170.2347],[25.8579,52.8357,153.0679],[25.8577,52.8384,158.8603],[25.862,52.8412,160.6886],[25.8619,52.8438,151.8638],[25.8525,52.8491,151.6171],[25.8393,52.8434,151.8562],[25.8348,52.8433,151.3999],[25.8299,52.8486,151.3683],[25.8294,52.8567,153.6857],[25.7922,52.8721,165.1269],[25.7827,52.88,158.0194],[25.7733,52.8852,161.3849],[25.7641,52.8876,164.2757],[25.7462,52.8846,169.3618],[25.7326,52.8843,183.2666],[25.7324,52.887,185.8091],[25.7366,52.8924,197.1082],[25.7364,52.8951,196.7881],[25.7319,52.895,194.4226],[25.7142,52.8893,190.0442],[25.7006,52.889,192.37],[25.6999,52.8997,193.5163],[25.6952,52.9023,199.1399],[25.6816,52.902,195.9509],[25.6767,52.9073,193.1615],[25.653,52.923,197.7071],[25.6302,52.9252,173.1607],[25.6161,52.9329,142.1798],[25.6157,52.9383,153.3033],[25.6061,52.9462,143.522],[25.6103,52.9517,188.0354],[25.6099,52.9571,151.9823],[25.5869,52.9619,142.9126],[25.5778,52.9617,154.0321],[25.5637,52.9695,138.9289],[25.5456,52.9691,138.1177],[25.5316,52.9741,137.8566],[25.518,52.9738,137.5155],[25.4946,52.984,136.5065],[25.4812,52.981,142.3517],[25.4586,52.9805,173.5711],[25.4538,52.983,157.8913],[25.4537,52.9857,148.9941],[25.4487,52.991,161.6138]]]]}
,"properties": {"GID_2": "BLR.1.7_1","GID_0": "BLR","country": "Belarus","GID_1": "BLR.1_1","province": "Brest","NL_NAME_1": "Брэсцкая","county": "Ivatsevichy","VARNAME_2": "Ivatsevichi","NL_NAME_2": "Івацэвіцкіраён","TYPE_2": "Raion","ENGTYPE_2": "District","CC_2": "NA","HASC_2": "BY.BR.IV","name": "Ivatsevichy.county","area_km2": 2931.079,"hist_schema_id": "Elevation0-9000","hist_area_km2": {"125": 6.205,"150": 1875.264,"175": 931.862,"200": 117.633,"225": 0.115}}}