{"type": "Feature","id": "2339","bbox": [27.27139,51.23517,31.76662,53.35364],"geometry": {"type": "Polygon","coordinates": [[[29.85971,53.33504,156.6727],[29.85423,53.33538,150.3681],[29.84973,53.33705,150.9726],[29.84121,53.34315,170.3827],[29.83377,53.34703,168.1254],[29.81811,53.35248,145.7643],[29.80896,53.35364,145.5057],[29.80162,53.35338,163.0532],[29.79666,53.35186,160.7146],[29.79248,53.34992,161.0895],[29.78876,53.34755,160.2615],[29.77651,53.33561,167.0263],[29.76085,53.32662,166.707],[29.75759,53.32377,170.0946],[29.75527,53.32031,162.6888],[29.75372,53.31625,165.301],[29.75139,53.30318,150.6894],[29.75108,53.29912,149.3651],[29.75201,53.29148,156.4769],[29.75418,53.2844,152.5743],[29.75573,53.28106,149.0573],[29.76302,53.26817,148.0603],[29.76845,53.25445,146.1935],[29.77217,53.24802,145.3421],[29.78953,53.22368,144.192],[29.79263,53.21698,143.4728],[29.79325,53.21324,142.6708],[29.79217,53.20978,143.8791],[29.78472,53.20699,143.0759],[29.77387,53.20709,142.5435],[29.75356,53.20962,144.118],[29.74426,53.20934,147.4306],[29.73987,53.2074,150.5127],[29.74178,53.20484,150.2774],[29.74519,53.20239,148.4205],[29.76101,53.19332,146.1756],[29.7638,53.1905,147.2346],[29.76535,53.1874,147.3497],[29.76178,53.17112,144.9739],[29.75853,53.16639,146.9943],[29.7531,53.16182,147.2815],[29.74018,53.15673,147.1799],[29.73429,53.15314,150.2379],[29.73196,53.14952,149.3479],[29.73444,53.14683,146.0732],[29.73832,53.14456,146.249],[29.7548,53.13962,159.3608],[29.75853,53.13745,146.8804],[29.75961,53.13466,145.5393],[29.75759,53.13154,145.1545],[29.75418,53.12839,143.89],[29.74876,53.12531,146.4375],[29.66277,53.1304,150.0125],[29.65316,53.12932,146.7422],[29.65362,53.12709,147.3515],[29.66509,53.12079,146.3498],[29.66819,53.11818,149.0922],[29.66742,53.11479,147.98],[29.66246,53.11097,147.6247],[29.63192,53.10239,147.4722],[29.63016,53.101,146.08],[29.62877,53.09826,147.5486],[29.62954,53.09516,147.0341],[29.63068,53.0918,143.4982],[29.63688,53.07831,141.587],[29.63936,53.07542,141.2376],[29.64339,53.07361,142.1875],[29.65424,53.07195,143.2539],[29.65812,53.07007,145.8984],[29.6606,53.0672,146.9384],[29.66199,53.06384,149.4539],[29.66277,53.06009,145.5795],[29.66308,53.05637,144.5204],[29.66246,53.05252,143.5403],[29.66044,53.04891,142.9009],[29.65781,53.04565,144.4747],[29.63765,53.02911,146.581],[29.63533,53.02648,144.8864],[29.63512,53.02343,143.8966],[29.63874,53.02152,141.9413],[29.66788,53.01051,143.1457],[29.67548,53.00581,143.4151],[29.68261,53.0002,146.7105],[29.68618,52.99801,141.4016],[29.69445,52.99408,143.7139],[29.73584,52.98044,157.5318],[29.73956,52.97811,157.2809],[29.74147,52.97532,149.0253],[29.74096,52.97222,153.7482],[29.74002,52.9701,146.9505],[29.72824,52.95465,146.7829],[29.7239,52.95119,141.8826],[29.71801,52.94767,138.4255],[29.707,52.94359,137.8363],[29.69863,52.94245,136.3874],[29.69073,52.94248,139.0633],[29.68463,52.94375,136.6327],[29.67951,52.9455,134.9956],[29.67068,52.94969,134.7836],[29.66695,52.95201,134.5249],[29.66013,52.95385,133.8991],[29.65083,52.95511,133.8524],[29.54376,52.95599,144.4148],[29.52267,52.95279,149.106],[29.51709,52.95108,159.8563],[29.5127,52.94865,161.5495],[29.50557,52.94077,156.7308],[29.49766,52.93677,146.6635],[29.45947,52.9232,153.8067],[29.4525,52.92328,155.6886],[29.44738,52.92488,159.6334],[29.44428,52.92752,156.2032],[29.43172,52.94209,144.99],[29.42661,52.9448,140.9077],[29.41901,52.94705,141.0058],[29.40454,52.94902,140.6498],[29.39632,52.94855,149.4355],[29.39028,52.947,146.7127],[29.38718,52.94447,154.7625],[29.38609,52.94163,153.2681],[29.38811,52.93915,147.2551],[29.39586,52.93475,156.127],[29.39865,52.93201,159.0481],[29.39927,52.92835,157.6674],[29.3971,52.92444,155.6014],[29.39198,52.92085,150.9022],[29.35349,52.91088,132.1134],[29.34759,52.91145,132.2267],[29.34465,52.91346,132.2724],[29.3448,52.91708,133.5893],[29.34728,52.92488,132.7522],[29.34775,52.92819,133.0178],[29.34682,52.9299,132.4577],[29.34341,52.9317,133.5051],[29.24538,52.94964,149.1066],[29.20362,52.95165,143.4606],[29.19076,52.95098,149.3545],[29.18192,52.94948,150.2102],[29.17753,52.94744,157.0749],[29.17024,52.94245,155.699],[29.14652,52.91837,155.4093],[29.1335,52.90731,144.0972],[29.12849,52.90447,143.929],[29.10895,52.89899,137.2952],[29.10244,52.89625,137.3454],[29.09872,52.89264,149.8015],[29.09717,52.88817,154.0861],[29.095,52.88344,158.9176],[29.08942,52.8777,149.9937],[29.08291,52.87574,149.8424],[28.98328,52.87419,155.2115],[28.97397,52.87269,155.5812],[28.96932,52.86943,159.6704],[28.9687,52.86551,156.4835],[28.97025,52.8252,153.0048],[28.96886,52.81259,143.1732],[28.96777,52.80851,146.1601],[28.9656,52.80484,141.2532],[28.96033,52.79848,141.2253],[28.8191,52.77117,144.6498],[28.80112,52.76507,146.1873],[28.79646,52.76293,132.5379],[28.79331,52.76081,132.5444],[28.79228,52.75825,131.8011],[28.79238,52.75626,131.8257],[28.79352,52.755,131.7713],[28.79569,52.75298,131.4589],[28.79895,52.75099,136.7451],[28.80375,52.74913,154.2706],[28.82887,52.74456,155.2974],[28.83383,52.7427,148.151],[28.83739,52.74019,147.5396],[28.8391,52.73699,148.3855],[28.8391,52.73322,150.5212],[28.8377,52.72947,141.7523],[28.83476,52.72544,148.5609],[28.83042,52.72154,150.4318],[28.82297,52.71717,140.5546],[28.81429,52.7158,152.7614],[28.78949,52.71637,137.1885],[28.78138,52.71546,131.4973],[28.77564,52.71345,133.2108],[28.76618,52.70624,136.1399],[28.75719,52.70102,131.9969],[28.74944,52.69929,131.5395],[28.70179,52.6989,133.2523],[28.69203,52.69663,136.6481],[28.68412,52.69358,143.1657],[28.67663,52.68932,141.0965],[28.66996,52.68784,139.9948],[28.66345,52.68769,142.0842],[28.63539,52.69239,139.7725],[28.62144,52.69288,161.4142],[28.6141,52.69141,162.8788],[28.6079,52.68867,140.9687],[28.60309,52.68531,141.3869],[28.5955,52.68118,147.8244],[28.58836,52.6795,138.9825],[28.58092,52.67919,150.2235],[28.53188,52.68392,144.7861],[28.4692,52.68012,136.5564],[28.46532,52.67901,134.4296],[28.44992,52.66691,135.6675],[28.45132,52.66449,136.9406],[28.45276,52.66108,135.0402],[28.45556,52.65865,134.1347],[28.45214,52.65464,142.5038],[28.44295,52.65027,133.8582],[28.42109,52.64247,141.2713],[28.41179,52.63725,143.5482],[28.4062,52.63237,149.0649],[28.40496,52.62811,133.4162],[28.4031,52.61493,133.339],[28.40119,52.58144,133.0347],[28.40326,52.56188,133.5687],[28.40931,52.53204,131.817],[28.40977,52.52439,144.7284],[28.40946,52.52077,135.2761],[28.4076,52.51752,130.8867],[28.4045,52.51483,145.3623],[28.34073,52.48062,153.1006],[28.13433,52.46641,167.1239],[28.1224,52.46755,158.8156],[28.11459,52.46946,160.4019],[28.10622,52.47799,155.259],[28.09723,52.49,166.0315],[28.09165,52.49977,163.7285],[28.09103,52.50041,161.6918],[28.08777,52.50258,162.0685],[28.08405,52.50439,164.2264],[28.07336,52.50744,157.6036],[27.98768,52.51897,165.3456],[27.97993,52.51778,151.6497],[27.97186,52.51524,159.6267],[27.96039,52.50928,157.2541],[27.9559,52.50491,151.2267],[27.95419,52.50124,161.455],[27.95481,52.49938,144.1794],[27.96427,52.48853,144.4575],[27.96597,52.48527,153.2086],[27.96737,52.48186,151.8661],[27.97,52.46657,150.2389],[27.97016,52.46284,143.6357],[27.96938,52.45923,142.7191],[27.96675,52.45623,152.4875],[27.96256,52.45396,148.9604],[27.94995,52.44982,135.629],[27.94484,52.44739,135.8334],[27.94127,52.4444,136.3956],[27.92856,52.44093,135.9783],[27.81745,52.43463,135.37],[27.7849,52.43907,135.3198],[27.70589,52.43778,144.2053],[27.69922,52.43835,150.7732],[27.69333,52.43944,146.5683],[27.64243,52.45618,143.1931],[27.6092,52.47235,138.0608],[27.6061,52.47473,140.8089],[27.60331,52.47737,148.0888],[27.60114,52.48047,168.6433],[27.60005,52.48403,166.9416],[27.59974,52.48799,166.197],[27.59974,52.49876,165.8765],[27.60238,52.52227,169.7447],[27.60222,52.52638,160.5489],[27.60098,52.52997,157.1584],[27.59773,52.5324,155.6176],[27.59215,52.53369,162.6718],[27.58501,52.53266,146.934],[27.57804,52.52938,152.9073],[27.57013,52.52049,159.2954],[27.56378,52.5099,156.6857],[27.56176,52.50775,158.1623],[27.55814,52.5093,157.5739],[27.55535,52.51178,154.4158],[27.55039,52.51798,151.2214],[27.54838,52.52111,155.4203],[27.53365,52.53871,139.6501],[27.52791,52.53933,150.7231],[27.51908,52.53747,149.4589],[27.4505,52.50165,155.263],[27.44828,52.5015,155.669],[27.44662,52.503,154.2753],[27.44456,52.50946,149.4472],[27.4429,52.51276,140.1556],[27.44022,52.51555,140.0992],[27.43572,52.51739,140.0397],[27.40952,52.51814,150.0077],[27.40239,52.51555,154.2589],[27.39557,52.51036,155.7065],[27.38813,52.49674,149.3649],[27.38265,52.48346,151.0503],[27.37908,52.48052,146.9125],[27.37164,52.47892,155.5541],[27.34389,52.47799,139.6198],[27.33831,52.47638,140.0528],[27.33469,52.47287,147.5838],[27.33335,52.46579,160.2154],[27.33366,52.46073,145.5959],[27.33438,52.45633,148.3815],[27.33676,52.44915,150.0043],[27.34002,52.44251,154.7239],[27.34606,52.43305,145.5399],[27.3349,52.41623,149.1653],[27.27139,52.36073,134.0305],[27.27702,52.35283,133.6434],[27.27702,52.34683,135.4635],[27.2793,52.33954,135.6649],[27.28601,52.32905,133.6867],[27.29206,52.32482,134.2608],[27.29857,52.32306,134.3789],[27.35133,52.3221,140.4361],[27.35707,52.32073,137.0803],[27.36219,52.31908,137.8562],[27.36637,52.31694,138.7462],[27.36978,52.31448,134.3743],[27.3735,52.30988,135.7475],[27.38482,52.2913,131.9817],[27.39061,52.2858,131.8464],[27.3965,52.28203,132.1611],[27.42409,52.27477,136.3781],[27.52311,52.23681,142.7388],[27.5307,52.23237,145.7052],[27.53675,52.22699,141.8216],[27.53907,52.2242,140.5778],[27.54062,52.22141,137.1403],[27.54109,52.21779,135.2292],[27.54016,52.21395,135.0538],[27.53644,52.20581,134.6687],[27.53287,52.20131,145.7933],[27.52636,52.1947,133.5574],[27.52373,52.19152,132.1397],[27.52171,52.18793,133.7715],[27.52078,52.18346,131.7252],[27.5214,52.17852,130.8641],[27.52373,52.16999,135.3083],[27.52435,52.16157,134.113],[27.52264,52.13511,126.4922],[27.5245,52.12245,125.2094],[27.52667,52.07269,126.5439],[27.52776,52.06597,126.9018],[27.52993,52.06292,125.7217],[27.53303,52.06034,126.5647],[27.55225,52.04899,125.979],[27.56564,52.03915,126.7165],[27.59029,52.02644,127.4198],[27.5937,52.02396,126.2694],[27.59664,52.02137,126.1767],[27.59912,52.01853,126.0154],[27.5999,52.01445,126.1352],[27.59897,52.00897,126.3261],[27.59323,51.99946,131.1011],[27.58905,51.99414,134.0059],[27.58501,51.99019,135.1784],[27.52559,51.94257,138.1853],[27.52373,51.9382,136.6088],[27.52311,51.93295,138.5381],[27.52543,51.92463,140.6623],[27.53179,51.91218,134.7246],[27.53225,51.90696,132.0954],[27.53194,51.90058,140.3957],[27.52652,51.8821,133.8084],[27.51877,51.86523,133.6628],[27.51396,51.85859,133.7358],[27.51117,51.85565,136.3768],[27.50481,51.85038,133.6074],[27.50295,51.84758,133.7441],[27.50306,51.84448,133.9563],[27.50683,51.84063,134.7403],[27.51442,51.83492,135.3746],[27.54497,51.81671,139.1232],[27.55132,51.81167,146.3271],[27.55628,51.80593,139.4855],[27.55814,51.79973,138.4181],[27.55907,51.79084,143.9648],[27.55752,51.76092,140.4898],[27.55504,51.75028,139.2372],[27.54652,51.73547,139.2556],[27.5414,51.72832,139.1373],[27.53628,51.72366,139.6292],[27.53148,51.72211,138.6063],[27.51923,51.72129,138.2229],[27.50946,51.7056,140.5643],[27.5121,51.62902,140.873],[27.51241,51.62341,142.037],[27.51243,51.6231,142.037],[27.62062,51.5959,144.4957],[27.67684,51.59481,155.7442],[27.69266,51.58923,151.7046],[27.70516,51.56835,156.1063],[27.69731,51.54319,161.3848],[27.66413,51.49285,157.728],[27.66618,51.49019,157.7125],[27.67033,51.48482,158.2767],[27.68377,51.47552,164.4827],[27.70005,51.46753,179.7301],[27.71426,51.46371,179.0491],[27.73012,51.46515,182.6765],[27.74056,51.47141,169.8552],[27.78733,51.51091,173.2249],[27.79255,51.5173,159.5772],[27.79715,51.5306,158.8887],[27.79627,51.54153,149.0282],[27.79373,51.55231,148.7623],[27.79322,51.56502,147.6732],[27.79952,51.5852,163.8201],[27.81254,51.60202,154.2627],[27.83125,51.61292,154.023],[27.8542,51.61533,144.6163],[27.87559,51.60804,145.2753],[27.93605,51.56701,149.5042],[27.95476,51.56078,162.2964],[27.97316,51.55781,153.8456],[28.07082,51.55763,151.7172],[28.09015,51.56205,155.5445],[28.11423,51.57561,161.5656],[28.14668,51.6144,155.3038],[28.16622,51.6331,149.2235],[28.18761,51.6452,148.8298],[28.21004,51.65196,149.4531],[28.2304,51.65114,145.7019],[28.24513,51.64062,150.0464],[28.2489,51.6306,145.9096],[28.24838,51.6221,149.6485],[28.24937,51.61308,143.5928],[28.25779,51.60176,145.172],[28.26973,51.59427,149.0739],[28.29851,51.58298,152.8881],[28.31091,51.57445,154.7202],[28.31742,51.56396,158.0716],[28.32817,51.53636,159.8979],[28.33386,51.52838,167.4705],[28.34688,51.525149999999996,170.4682],[28.35964,51.52936,162.6776],[28.38553,51.54505,160.9765],[28.43535,51.56613,155.3203],[28.46124,51.57166,158.8702],[28.48837,51.57202,156.9836],[28.57808,51.56011,157.4879],[28.60392,51.55355,150.2319],[28.6127,51.53993,161.3746],[28.61518,51.51957,155.3877],[28.63089,51.46363,163.4123],[28.6373,51.44963,172.815],[28.64702,51.43901,179.2506],[28.66355,51.43399,178.4772],[28.67792,51.43808,176.693],[28.69115,51.44342,176.8319],[28.70396,51.44262,174.039],[28.71109,51.43025,174.222],[28.71823,51.41162,187.3201],[28.72877,51.40126,164.1602],[28.74675,51.41399,175.0012],[28.75161,51.42875,168.3769],[28.74944,51.46686,163.0198],[28.75223,51.48371,150.8038],[28.77187,51.51128,150.477],[28.79987,51.53262,142.6672],[28.83191,51.54828,153.6763],[28.86364,51.55892,146.2004],[28.89289,51.56287,145.5101],[28.95459,51.56326,138.9425],[28.98085,51.56946,135.8916],[28.99997,51.58241,135.7674],[29.02363,51.61403,145.8406],[29.04358,51.62618,147.3653],[29.06322,51.6306,130.0738],[29.08368,51.63122,132.9533],[29.12389,51.62504,128.9957],[29.14797,51.61564,125.8413],[29.16042,51.60331,128.0168],[29.18145,51.56701,140.9735],[29.21484,51.53546,151.9365],[29.22652,51.51905,159.5104],[29.23044,51.49288,163.2273],[29.22104,51.46696,163.9978],[29.22776,51.45562,158.1579],[29.2444,51.44789,160.368],[29.26486,51.43291,180.8497],[29.27612,51.41358,167.0627],[29.2846,51.39175,164.0299],[29.297,51.37371,153.912],[29.31995,51.36557,154.5813],[29.34057,51.3701,165.1397],[29.35326,51.37706,166.4007],[29.37968,51.39154,158.3232],[29.40273,51.39614,170.5939],[29.4464,51.3849,177.1037],[29.46629,51.38506,170.7458],[29.48087,51.40126,175.1723],[29.49554,51.42565,158.8926],[29.50546,51.43746,166.1035],[29.519,51.4418,159.2194],[29.54505,51.44366,165.4294],[29.5682,51.44963,154.9116],[29.58319,51.46081,153.1317],[29.59735,51.47397,151.9422],[29.61802,51.48564,157.967],[29.63776,51.49089,157.2663],[29.6608,51.49314,150.5581],[29.68271,51.4912,150.4603],[29.69997,51.48371,129.2209],[29.71651,51.46567,145.3673],[29.7253,51.45045,152.4455],[29.73791,51.4395,154.6111],[29.82865,51.42996,130.3148],[29.84663,51.43291,130.4722],[29.85676,51.43986,119.1038],[29.87361,51.45919,117.4262],[29.88627,51.46479,118.329],[29.89655,51.4642,126.5604],[29.91257,51.45743,133.9321],[29.92508,51.45787,136.148],[29.98575,51.47787,108.1401],[30.00869,51.48208,108.9769],[30.14863,51.48443,112.4242],[30.17731,51.47949,117.1381],[30.20537,51.4665,121.9028],[30.24278,51.43441,118.6893],[30.25689,51.42505,119.2137],[30.30738,51.4096,118.5268],[30.3202,51.40208,108.1988],[30.32619,51.39526,108.5235],[30.32903,51.38862,121.6658],[30.33012,51.38072,124.1511],[30.33001,51.37035,122.2195],[30.32826,51.36247,119.0177],[30.31989,51.3416,120.2345],[30.31709,51.34059,120.0329],[30.32454,51.32997,124.2104],[30.35513,51.30527,109.9491],[30.36846,51.29767,117.7039],[30.38376,51.29392,117.6191],[30.41352,51.29405,109.0427],[30.4281,51.29175,120.0367],[30.44277,51.28305,105.1149],[30.46504,51.26194,106.6042],[30.4807,51.25886,113.549],[30.49465,51.25992,116.215],[30.50809,51.25767,106.1698],[30.5208,51.2524,110.5167],[30.53202,51.24463,119.4246],[30.53961,51.23517,102.0],[30.55067,51.2368,106.0564],[30.55466,51.24251,104.5482],[30.55532,51.24346,104.5482],[30.55662,51.26731,103.8581],[30.55935,51.26933,108.9534],[30.57723,51.28902,102.5],[30.57992,51.30367,104.2764],[30.61046,51.31754,110.1319],[30.63832,51.33586,107.9465],[30.63242,51.3641,105.8708],[30.64555,51.36746,120.4742],[30.64452,51.37268,106.7279],[30.63749,51.3786,106.2947],[30.63242,51.38397,105.528],[30.62261,51.41211,105.4616],[30.61816,51.41872,105.3118],[30.60602,51.42456,104.0775],[30.59558,51.42495,107.4603],[30.58788,51.42735,104.6969],[30.584,51.43921,105.7724],[30.58602,51.45185,105.6369],[30.59356,51.4589,105.8813],[30.60483,51.46123,105.3728],[30.61816,51.45965,107.7538],[30.61816,51.46714,105.4677],[30.60762,51.46983,103.5],[30.59728,51.47428,103.5],[30.58891,51.48182,103.5],[30.584,51.49383,107.8265],[30.58974,51.50197,106.5243],[30.5854,51.50939,105.9854],[30.57506,51.51606,124.5409],[30.56287,51.52177,107.0653],[30.57145,51.52642,104.0],[30.57641,51.53112,105.1129],[30.584,51.54226,111.6093],[30.56742,51.54727,108.4198],[30.53414,51.55326,107.6046],[30.52256,51.56272,107.6284],[30.52256,51.56892,107.9588],[30.52773,51.5713,105.087],[30.53109,51.57331,105.3307],[30.53527,51.57502,104.5],[30.54313,51.57639,106.5698],[30.54313,51.58259,105.273],[30.53455,51.58584,105.7183],[30.51512,51.59626,108.0849],[30.51512,51.60367,106.6354],[30.54385,51.62013,108.9209],[30.55662,51.62362,106.1333],[30.55284,51.63334,105.9516],[30.54995,51.63719,107.7435],[30.55532,51.63977,109.428],[30.56349,51.64731,108.7526],[30.57031,51.6515,109.5886],[30.56431,51.6653,108.4381],[30.57599,51.68641,106.6121],[30.57031,51.69992,109.9446],[30.58281,51.7023,109.3438],[30.61382,51.70292,108.9326],[30.62498,51.7061,108.7329],[30.63056,51.7156,108.7786],[30.63201,51.72798,110.119],[30.63506,51.73969,106.5],[30.64617,51.74708,107.1758],[30.64617,51.75454,110.7207],[30.63811,51.75511,112.2143],[30.61816,51.76134,109.3008],[30.63046,51.77002,110.9814],[30.65278,51.77914,110.7981],[30.67056,51.79053,107.5],[30.66963,51.80606,107.5],[30.66229,51.8156,109.1001],[30.66198,51.81942,107.5],[30.66632,51.82239,118.2175],[30.67273,51.8296,108.5837],[30.69454,51.84728,112.575],[30.69733,51.85074,108.0],[30.70281,51.85376,109.508],[30.70756,51.86038,111.6953],[30.71397,51.86696,111.4396],[30.73454,51.87373,116.0131],[30.73722,51.88223,109.3644],[30.73784,51.89159,110.7687],[30.74167,51.89792,108.5],[30.74973,51.89962,112.4471],[30.7795,51.89792,112.4124],[30.78818,51.90061,110.0345],[30.79707,51.90673,112.1334],[30.8106,51.91838,112.0359],[30.8106,51.92518,112.8681],[30.80523,51.92934,112.3598],[30.80254,51.93554,118.5249],[30.80306,51.93913,127.2847],[30.83138,51.9459,110.6216],[30.84564,51.95135,111.745],[30.85804,51.95763,112.1144],[30.8691,51.96502,114.1359],[30.87933,51.97365,123.2307],[30.87964,51.97688,117.3454],[30.87902,51.98202,124.9102],[30.88088,51.98817,131.0553],[30.88874,51.99435,113.3328],[30.8969,51.99833,113.4459],[30.9028,51.99998,116.7757],[30.90838,51.99835,115.7144],[30.9152,51.99259,112.8909],[30.94124,51.9938,119.6382],[30.95013,52.00678,126.9863],[30.94052,52.02008,112.5155],[30.91127,52.02256,116.6306],[30.91463,52.02757,113.7725],[30.91685,52.03235,113.632],[30.91975,52.03726,113.0808],[30.92471,52.04228,114.585],[30.91882,52.05917,115.4448],[30.93442,52.06972,111.6],[30.95933,52.07468,119.6813],[31.09632,52.07961,138.9762],[31.13482,52.07667,141.9548],[31.15921,52.06811,143.2407],[31.2049,52.04393,148.8267],[31.22898,52.03822,145.3919],[31.25244,52.0445,145.1797],[31.26887,52.06124,156.7715],[31.28427,52.08124,161.8181],[31.30442,52.09749,159.8064],[31.38308,52.11749,179.4131],[31.47485,52.11778,144.7008],[31.64993,52.09685,182.449],[31.76434,52.10057,169.6091],[31.76662,52.13007,161.5659],[31.76259,52.14984,151.2828],[31.74905,52.16395,150.8865],[31.69872,52.18545,155.5877],[31.68952,52.19157,158.5754],[31.68239,52.20193,164.0376],[31.67949,52.21586,156.085],[31.68192,52.23046,160.6091],[31.6889,52.24322,155.6706],[31.69944,52.25146,158.4016],[31.68342,52.2572,152.5977],[31.64869,52.261,149.0365],[31.63143,52.26477,152.8905],[31.61366,52.27301,147.147],[31.59712,52.2843,145.5777],[31.56735,52.31138,144.6092],[31.5796,52.31851,132.9542],[31.59226,52.32862,133.758],[31.60275,52.34091,149.2836],[31.60859,52.35443,152.8094],[31.60808,52.37246,153.3052],[31.60053,52.38339,156.6064],[31.59035,52.39184,142.1176],[31.58286,52.40277,140.8397],[31.58332,52.4283,157.8766],[31.58937,52.45804,136.6378],[31.58792,52.48261,150.9061],[31.56549,52.49264,140.6649],[31.55299,52.50225,129.0193],[31.55056,52.51189,130.1504],[31.55816,52.52,129.6134],[31.57593,52.52473,131.4981],[31.56363,52.53705,130.1505],[31.55929,52.54054,126.634],[31.57438,52.54126,127.0632],[31.61076,52.53599,144.4715],[31.6243,52.53806,142.5043],[31.62864,52.54806,155.6696],[31.61521,52.55858,145.3562],[31.57903,52.57783,146.4935],[31.56591,52.59015,131.3648],[31.53614,52.63048,149.9523],[31.4917,52.6671,178.5449],[31.48064,52.68247,167.9738],[31.48064,52.68252,167.9738],[31.54792,52.7057,159.5775],[31.57025,52.72526,144.0892],[31.56952,52.7675,149.8123],[31.56084,52.78706,136.387],[31.55056,52.79474,134.8379],[31.53836,52.79985,136.5313],[31.52395,52.81166,146.0797],[31.51516,52.82838,140.3194],[31.51278,52.84104,143.5286],[31.50514,52.84889,150.2502],[31.48064,52.85094,145.9878],[31.45098,52.85721,145.8259],[31.41811,52.87024,137.5123],[31.38793,52.88799,146.7409],[31.36623,52.90855,126.7933],[31.33915,52.95806,158.8748],[31.32261,52.97713,156.3658],[31.24706,53.01439,168.6391],[31.26928,53.02842,166.6955],[31.3192,53.07637,156.4976],[31.32944,53.07935,149.5537],[31.35414,53.08211,151.1345],[31.3637,53.08878,147.7907],[31.36706,53.09893,166.2715],[31.36489,53.10973,159.3818],[31.36157,53.12004,153.2903],[31.36142,53.12001,153.2903],[31.29626,53.1096,158.5986],[31.27099,53.10875,157.494],[31.26681,53.11084,154.4597],[31.26045,53.11686,156.1308],[31.25611,53.12012,164.2161],[31.24784,53.12368,156.2321],[31.24148,53.12435,156.0679],[31.23559,53.12384,158.1847],[31.2311,53.12205,159.8219],[31.22707,53.1196,146.5163],[31.22397,53.11673,145.6758],[31.21823,53.10929,172.557],[31.21404,53.10557,170.6295],[31.2097,53.10557,171.4251],[31.20567,53.10699,165.9236],[31.19446,53.11417,180.0922],[31.1881,53.11945,170.0329],[31.17927,53.12826,161.8843],[31.17461,53.13149,165.0892],[31.16593,53.13505,176.9561],[31.1588,53.13619,176.9218],[31.15214,53.13634,179.6838],[31.1093,53.12957,171.6226],[31.10123,53.1303,163.8939],[31.09488,53.13203,156.8714],[31.09126,53.13443,158.4867],[31.08847,53.13702,165.8746],[31.08713,53.13994,173.3755],[31.08806,53.14275,161.5911],[31.09085,53.14554,176.2876],[31.10247,53.15226,175.205],[31.10573,53.15505,171.3576],[31.10821,53.1582,173.1524],[31.10945,53.16166,167.5125],[31.10899,53.165,167.827],[31.10728,53.16823,157.0981],[31.10542,53.17138,159.1147],[31.10387,53.17469,160.6356],[31.10278,53.17825,159.3931],[31.10247,53.18197,156.8039],[31.10294,53.1859,160.9984],[31.10464,53.18962,168.3706],[31.10697,53.19314,156.8405],[31.10604,53.19727,173.1145],[31.1017,53.20202,169.7082],[31.08444,53.20993,170.4433],[31.07684,53.21476,170.5359],[31.07157,53.21931,165.1021],[31.06971,53.22319,177.7689],[31.06444,53.22753,173.1358],[31.05622,53.22998,172.9516],[31.04196,53.232,156.2489],[31.03462,53.23406,164.8421],[31.02997,53.23672,163.5128],[31.02796,53.23949,152.8288],[31.02687,53.24285,149.6641],[31.02625,53.24641,151.9679],[31.02594,53.25008,160.8843],[31.02625,53.25365,141.9724],[31.02517,53.25807,160.6599],[31.02284,53.26318,147.2981],[31.00904,53.27437,127.989],[31.00532,53.27812,128.9365],[31.00377,53.2814,128.6683],[31.00114,53.29365,164.0574],[30.9999,53.29693,142.3645],[30.99757,53.30101,152.1401],[30.99478,53.30272,154.6561],[30.99075,53.30352,154.8182],[30.90678,53.30899,157.2819],[30.90042,53.30874,159.9489],[30.89484,53.30786,165.27],[30.89003,53.30641,161.7878],[30.886,53.30419,156.7313],[30.88275,53.3014,154.7375],[30.87996,53.29814,158.3118],[30.87778,53.29447,170.0903],[30.87639,53.2907,153.1754],[30.87515,53.28341,158.2901],[30.87282,53.28052,158.821],[30.86316,53.27998,159.0109],[30.78978,53.28776,135.4344],[30.77598,53.28546,156.2483],[30.76358,53.28525,168.6483],[30.75268,53.28778,148.4045],[30.73702,53.29411,153.3408],[30.72741,53.29659,151.8616],[30.72012,53.29706,153.1907],[30.71547,53.29525,157.642],[30.71159,53.29277,158.1829],[30.70849,53.28949,149.2744],[30.70415,53.28199,156.0484],[30.7009,53.27918,153.4476],[30.69656,53.27727,155.0724],[30.69139,53.27587,156.7823],[30.66767,53.2761,151.2878],[30.63961,53.27936,152.2968],[30.62684,53.28199,157.6309],[30.61909,53.28496,155.0933],[30.61227,53.29321,156.6481],[30.59615,53.30042,158.4799],[30.48783,53.31788,149.6263],[30.48101,53.31737,149.0291],[30.47094,53.31489,153.9873],[30.46158,53.31132,154.5967],[30.4543,53.31003,154.1901],[30.44453,53.30969,166.2289],[30.41833,53.31116,168.7226],[30.41161,53.31091,167.2005],[30.40789,53.30899,165.3202],[30.4051,53.30605,165.8089],[30.40293,53.30225,159.8373],[30.40029,53.29892,158.7036],[30.39688,53.29628,138.1625],[30.39254,53.29432,133.6759],[30.37895,53.29303,134.5975],[30.37208,53.29122,148.223],[30.37332,53.27843,144.4942],[30.37518,53.27029,150.0713],[30.3789,53.26197,133.733],[30.3605,53.26148,133.0109],[30.3094,53.24833,132.7574],[30.27214,53.24786,132.57],[30.25679,53.24476,132.8096],[30.24852,53.2353,131.0],[30.23813,53.23499,145.279],[30.19023,53.23474,158.7643],[30.17995,53.2367,162.4979],[30.17344,53.23923,163.1843],[30.16909,53.24523,164.3453],[30.15452,53.27509,149.6668],[30.15003,53.28192,147.5297],[30.14615,53.28559,148.4168],[30.13618,53.28998,152.693],[30.12408,53.29163,172.381],[30.09137,53.29297,157.9854],[30.08378,53.29468,160.3441],[30.08109,53.29742,167.2679],[30.08037,53.30109,160.9986],[30.07954,53.30884,169.7146],[30.07303,53.31264,166.9551],[30.06156,53.31638,166.1476],[30.02197,53.32501,162.5138],[30.01391,53.32817,163.6349],[30.00507,53.33545,171.9304],[29.99593,53.34067,158.1419],[29.98864,53.34243,168.2975],[29.98213,53.34258,140.3955],[29.97205,53.3399,145.7337],[29.96771,53.33793,156.7749],[29.95634,53.33075,133.2403],[29.95293,53.32801,133.3411],[29.94518,53.32543,133.8937],[29.93448,53.32341,144.7859],[29.91076,53.323,153.9346],[29.90219,53.32491,166.224],[29.89862,53.32762,175.0109],[29.89893,53.3315,164.2999],[29.8966,53.33561,160.1973],[29.88808,53.34083,147.9211],[29.88126,53.34217,150.5166],[29.87552,53.3415,149.8575],[29.86622,53.33705,152.2504],[29.85971,53.33504,156.6727]]]}
,"properties": {"ISO3166-1-Alpha-3": "BLR","country": "Belarus","fill": "#FF0","name": "Gomel","area_km2": 40515.36,"hist_schema_id": "Elevation0-9000","hist_area_km2": {"100": 1168.79,"125": 17083.94,"150": 19297.03,"175": 2933.42,"200": 31.97}}}