{"type":"Feature","properties":{"GID_1":"BLR.2_1","GID_0":"BLR","country":"Belarus","province":"Gomel","VARNAME_1":"Гомель|Homyel'skayaVoblasts'|Ho","NL_NAME_1":"Гомельская","TYPE_1":"Oblast","ENGTYPE_1":"Region","CC_1":"NA","HASC_1":"BY.HO","ISO_1":"NA","name":"Gomel.province"},
"geometry":{"type": "MultiPolygon","coordinates": [[[[29.9164,51.4843,131.5441],[29.9351,51.4898,112.5169],[29.9561,51.4778,114.4427],[29.974,51.4836,103.0],[29.9931,51.4834,109.475],[30.0193,51.5172,112.1758],[30.0388,51.5177,119.7022],[30.0394,51.5123,115.9963],[30.0492,51.5124,111.4236],[30.0885,51.5072,124.4333],[30.108,51.5075,111.7222],[30.1177,51.5014,116.1461],[30.1273,51.5076,116.8872],[30.1271,51.5201,117.6789],[30.1367,51.5202,114.0367],[30.1651,51.5075,117.6344],[30.1742,51.5073,109.9161],[30.172,51.5248,124.4158],[30.1814,51.5246,125.7754],[30.1818,51.5187,111.234],[30.2018,51.5065,109.576],[30.2113,51.5063,121.1652],[30.2213,51.5002,122.8237],[30.2308,51.5,121.3037],[30.2503,51.4937,109.2267],[30.2899,51.4692,111.622],[30.2994,51.4691,116.1076],[30.3092,51.4629,117.1264],[30.3196,51.4448,107.741],[30.3294,51.4387,109.2663],[30.3485,51.4323,108.2859],[30.3496,51.4145,109.9758],[30.3595,51.4024,109.9916],[30.3612,51.3786,118.9629],[30.3399,51.3744,113.5471],[30.3288,51.3696,122.2195],[30.3377,51.364,118.0529],[30.3461,51.3529,113.209],[30.3646,51.3471,113.004],[30.3826,51.33,108.9586],[30.401,51.3184,106.3832],[30.4102,51.3184,106.6339],[30.4194,51.3126,108.0905],[30.4284,51.3185,105.9963],[30.4466,51.3245,105.0747],[30.456,51.3243,105.5587],[30.4646,51.3188,123.9436],[30.4641,51.3005,107.4922],[30.455,51.2945,108.3484],[30.4549,51.2885,111.1611],[30.4637,51.2824,106.0181],[30.4816,51.2823,126.7153],[30.4905,51.2882,116.3469],[30.4994,51.2882,119.5682],[30.5262,51.2698,112.0761],[30.544,51.2696,119.139],[30.5617,51.2751,107.2517],[30.5794,51.2745,111.3139],[30.5881,51.2802,103.4231],[30.6052,51.3035,109.8583],[30.6048,51.3216,102.5],[30.6136,51.3212,107.1108],[30.6398,51.3262,114.773],[30.6571,51.3376,106.2646],[30.6574,51.3493,104.4059],[30.6487,51.3548,105.5113],[30.6317,51.3832,105.7068],[30.6234,51.4061,104.9184],[30.5969,51.4153,104.3556],[30.5881,51.4202,104.3892],[30.5791,51.4195,105.2929],[30.5705,51.4303,105.6048],[30.5706,51.4363,109.0161],[30.5889,51.4506,105.4418],[30.6158,51.4531,105.3184],[30.6166,51.4832,105.3504],[30.5988,51.4879,107.8517],[30.5723,51.5044,107.7865],[30.5725,51.5106,108.9348],[30.5638,51.5224,107.4879],[30.5639,51.5285,106.2483],[30.5731,51.535,106.0028],[30.5734,51.5471,107.1724],[30.5464,51.5466,108.1395],[30.5375,51.5529,106.884],[30.5288,51.5713,105.087],[30.5379,51.5772,106.3886],[30.547,51.577,107.3492],[30.5471,51.5831,104.5],[30.5381,51.5833,106.2721],[30.5382,51.5893,106.2936],[30.5292,51.5956,107.9203],[30.5384,51.6015,109.3802],[30.5565,51.6013,107.1831],[30.5658,51.6076,107.417],[30.566,51.6136,107.4114],[30.557,51.6195,109.7821],[30.5571,51.6256,105.5],[30.539,51.6379,108.6019],[30.521,51.6624,106.2061],[30.5211,51.6685,108.9071],[30.5305,51.6744,108.0404],[30.5306,51.6807,108.4859],[30.5491,51.6744,109.6289],[30.5677,51.6744,112.2717],[30.5771,51.6806,106.0],[30.5773,51.6866,109.2161],[30.5684,51.6988,110.7645],[30.5685,51.7049,110.4203],[30.578,51.711,106.0],[30.6058,51.7173,109.5092],[30.6055,51.7113,108.4102],[30.6239,51.7236,109.4944],[30.6335,51.7417,108.1844],[30.6425,51.7478,114.7106],[30.643,51.7599,114.3418],[30.652,51.766,109.817],[30.6523,51.772,111.1436],[30.6348,51.7719,113.5144],[30.6254,51.778,110.3654],[30.6437,51.79,108.3079],[30.6529,51.79,109.1933],[30.6618,51.796,109.7185],[30.6706,51.796,107.5],[30.6708,51.808,113.7766],[30.6611,51.8139,107.5],[30.6608,51.8198,110.1089],[30.679,51.8318,111.2933],[30.6974,51.8379,108.0],[30.7053,51.8617,110.8664],[30.7037,51.8736,108.0],[30.7126,51.8796,108.8559],[30.7118,51.8855,134.0594],[30.7301,51.8916,113.8544],[30.738,51.9035,125.0272],[30.7475,51.9036,119.7029],[30.7561,51.9096,111.2807],[30.7768,51.9038,111.571],[30.787,51.9039,111.135],[30.7963,51.904,110.0117],[30.805,51.91,110.4654],[30.8125,51.9161,111.9543],[30.8058,51.951,109.5],[30.8231,51.9569,110.0257],[30.8309,51.9678,111.8533],[30.8306,51.973,112.5567],[30.839,51.9734,112.718],[30.847,51.9789,114.7047],[30.8546,51.9794,112.8323],[30.8547,51.9845,116.5073],[30.862,51.9901,116.2272],[30.8622,51.9953,117.3994],[30.8694,52.0009,116.136],[30.8623,52.0004,116.2981],[30.8623,52.0056,126.5709],[30.8699,52.0112,126.825],[30.8769,52.0116,127.9836],[30.8819,52.007,134.5736],[30.8815,52.0018,114.3338],[30.8912,51.9914,113.0138],[30.9157,51.9921,112.8909],[30.9155,51.9973,113.0804],[30.9237,51.9975,113.9049],[30.9322,51.9925,118.8785],[30.9324,51.9873,121.249],[30.9406,51.9928,124.1435],[30.9398,52.0084,114.6931],[30.9471,52.0243,111.9855],[30.9428,52.0457,110.4281],[30.937,52.0621,117.2811],[30.9448,52.0676,116.195],[30.9428,52.0731,117.4839],[30.9511,52.0785,116.6516],[31.0574,52.0785,135.7682],[31.0839,52.0893,145.1773],[31.102,52.0947,140.5323],[31.1117,52.0948,148.5715],[31.1255,52.0796,140.9641],[31.1364,52.0747,145.5921],[31.1661,52.0753,137.1584],[31.1767,52.0705,139.7587],[31.1866,52.0708,138.2007],[31.1972,52.0611,150.188],[31.2166,52.0521,142.1648],[31.2354,52.0483,142.0059],[31.2449,52.0488,143.8197],[31.255,52.0539,147.0259],[31.2748,52.0594,151.918],[31.2951,52.0696,150.3656],[31.3061,52.0842,151.2116],[31.3068,52.0989,158.3833],[31.317,52.1041,157.448],[31.3374,52.1046,175.5327],[31.3578,52.1101,174.3704],[31.3679,52.1104,166.7725],[31.3783,52.1155,161.8396],[31.3813,52.1357,160.2104],[31.4437,52.1375,147.4373],[31.4527,52.1329,148.6902],[31.4603,52.1235,153.7924],[31.4796,52.1193,144.7624],[31.531,52.126,147.6063],[31.5606,52.1215,151.9491],[31.5704,52.1158,153.1287],[31.6819,52.1147,142.9816],[31.7011,52.1086,140.6422],[31.721,52.1085,140.5457],[31.7401,52.1025,148.6593],[31.7597,52.1023,149.5264],[31.7811,52.114,148.8084],[31.7896,52.1082,148.7112],[31.7964,52.112,149.8243],[31.8012,52.1173,159.7268],[31.8012,52.1305,154.667],[31.7869,52.1411,155.3546],[31.7868,52.149,156.5143],[31.782,52.157,156.3263],[31.7868,52.1649,149.3928],[31.7867,52.1754,151.198],[31.7818,52.1807,149.3333],[31.7724,52.1862,141.3186],[31.729,52.1889,156.1829],[31.6897,52.1832,166.3303],[31.6897,52.1859,158.2882],[31.6802,52.1912,159.5236],[31.6815,52.2018,163.3446],[31.6872,52.2129,155.4154],[31.6972,52.2212,159.8109],[31.6982,52.2294,158.927],[31.6953,52.2428,154.8846],[31.6959,52.2483,155.9695],[31.6923,52.2563,152.9057],[31.7066,52.2621,132.606],[31.7076,52.2702,134.3985],[31.6856,52.2777,135.9464],[31.6467,52.2746,134.4998],[31.6354,52.287,135.3424],[31.6229,52.2858,135.6345],[31.6146,52.2877,136.0856],[31.6029,52.2974,134.6431],[31.5983,52.2973,134.7574],[31.5946,52.3025,133.9141],[31.5959,52.3134,133.1001],[31.6141,52.3257,134.7254],[31.6174,52.3621,170.3245],[31.6237,52.3848,177.8342],[31.6255,52.4045,152.6492],[31.6218,52.4099,157.2629],[31.6179,52.4125,157.0878],[31.6095,52.4124,146.1383],[31.605,52.4096,143.2199],[31.6006,52.4097,145.5039],[31.5924,52.4157,164.5437],[31.5933,52.4242,142.1058],[31.5862,52.4415,159.8979],[31.5909,52.4441,157.9822],[31.5959,52.4495,143.31],[31.6049,52.452,144.7442],[31.6097,52.4576,139.909],[31.615,52.4688,137.8653],[31.6158,52.4773,140.0332],[31.6124,52.4859,149.9865],[31.6003,52.4918,156.2659],[31.5873,52.4923,154.9159],[31.5747,52.4984,141.5243],[31.576,52.5097,128.7071],[31.5811,52.5151,130.776],[31.6027,52.5144,128.6396],[31.6075,52.5199,135.4283],[31.6057,52.5422,136.7941],[31.6103,52.5447,142.3757],[31.6184,52.5414,147.2803],[31.6256,52.5299,146.9536],[31.6334,52.5239,139.2908],[31.642,52.5262,142.5456],[31.6467,52.5315,151.7625],[31.6475,52.5398,167.1462],[31.6655,52.553,154.2453],[31.6577,52.5589,154.4418],[31.6448,52.5538,146.9651],[31.6365,52.5542,155.6376],[31.6285,52.5574,139.4167],[31.6094,52.5752,131.0127],[31.5847,52.5823,135.1484],[31.5727,52.5914,133.906],[31.5694,52.6,131.9452],[31.572,52.6221,135.5188],[31.5689,52.6335,133.758],[31.5607,52.6367,135.5228],[31.5489,52.6457,137.3355],[31.5225,52.6778,141.2541],[31.5185,52.6809,141.2524],[31.5153,52.6893,141.6207],[31.5158,52.6951,144.0607],[31.5201,52.6981,150.0527],[31.5491,52.6978,157.9333],[31.5534,52.7008,156.8329],[31.5658,52.7007,154.9458],[31.5701,52.7036,150.868],[31.5883,52.7241,151.1551],[31.6035,52.7377,145.0706],[31.6066,52.7666,149.3109],[31.6023,52.7756,145.0791],[31.579,52.7942,135.2736],[31.5517,52.8098,139.0189],[31.5431,52.8099,141.6658],[31.5344,52.8246,143.8012],[31.5299,52.8275,146.6103],[31.5344,52.8335,144.8018],[31.5434,52.8394,144.3679],[31.5435,52.8423,142.8388],[31.5478,52.8452,144.1842],[31.5397,52.8599,141.7127],[31.5219,52.8594,154.2184],[31.5172,52.8563,155.6136],[31.5039,52.8588,156.3175],[31.4948,52.8585,159.6843],[31.4144,52.8997,158.2291],[31.4101,52.9053,165.1597],[31.3923,52.9166,154.8753],[31.3839,52.928,142.7878],[31.3766,52.9616,145.0426],[31.3684,52.9756,162.8596],[31.2959,53.0078,150.372],[31.2832,53.0093,149.7124],[31.2708,53.0163,142.5522],[31.2581,53.0205,162.3681],[31.2498,53.027,139.4108],[31.2505,53.0348,148.3855],[31.26,53.0391,144.9813],[31.2814,53.0365,166.3207],[31.3061,53.0281,161.3782],[31.3189,53.0292,163.196],[31.3328,53.036,150.1229],[31.3295,53.0443,149.8428],[31.3328,53.061,149.1342],[31.3386,53.0666,148.9455],[31.3409,53.0777,147.6962],[31.352,53.086,149.9523],[31.3714,53.0887,147.0673],[31.3631,53.0942,147.2425],[31.3537,53.0942,151.3302],[31.340699999999998,53.0997,166.2268],[31.3311,53.0997,149.2491],[31.2376,53.1144,168.4913],[31.2248,53.1178,145.7118],[31.2123,53.1291,165.5378],[31.1954,53.138,169.7021],[31.1823,53.1387,168.4089],[31.1601,53.1345,167.2658],[31.1381,53.1354,176.3442],[31.1254,53.1466,160.4407],[31.1217,53.1575,170.4289],[31.1358,53.1729,160.5925],[31.1361,53.1782,159.2347],[31.1276,53.1839,174.3399],[31.1059,53.1902,156.7962],[31.1062,53.1956,168.0112],[31.1109,53.2007,161.7263],[31.1066,53.2036,171.1564],[31.0889,53.2017,158.2779],[31.0847,53.2072,168.752],[31.0897,53.2177,179.6157],[31.0859,53.2286,174.6744],[31.0593,53.227,172.2818],[31.0419,53.233,162.2194],[31.0422,53.2384,160.668],[31.0471,53.2463,162.389],[31.0473,53.249,158.7549],[31.0432,53.2545,174.4873],[31.0389,53.2574,173.8507],[31.0255,53.2552,143.9244],[31.0166,53.2555,145.208],[31.0079,53.2584,149.7772],[31.0082,53.2638,147.6001],[31.022,53.2715,153.088],[31.0362,53.2897,156.498],[31.0327,53.3059,135.4408],[31.0242,53.3117,128.644],[30.9881,53.2996,158.5811],[30.9435,53.301,168.4735],[30.9299,53.2987,160.9836],[30.9256,53.3015,164.3431],[30.9214,53.3071,163.0712],[30.9169,53.3072,161.5957],[30.8895,53.2997,156.9858],[30.876,53.3,157.2777],[30.8713,53.2974,155.5304],[30.8704,53.2838,159.2993],[30.8567,53.2814,159.1623],[30.8116,53.2824,148.6054],[30.7978,53.2772,150.1917],[30.7795,53.2749,150.5049],[30.748,53.2756,158.9571],[30.7429,53.2675,158.4376],[30.7422,53.2565,155.8557],[30.7242,53.2569,157.6073],[30.7013,53.252,153.2323],[30.6926,53.2576,159.4601],[30.6799,53.2716,154.8156],[30.6804,53.2798,155.6625],[30.6851,53.2824,150.2908],[30.6901,53.2905,150.7828],[30.6858,53.2934,151.8432],[30.654,53.2913,154.5361],[30.6316,53.2946,158.6506],[30.6043,53.2924,157.0519],[30.5909,53.2954,156.2448],[30.591,53.2982,160.561],[30.5959,53.3035,160.3436],[30.6051,53.3061,162.2852],[30.6191,53.314,162.3149],[30.6149,53.3196,156.4213],[30.6059,53.3198,157.7268],[30.6015,53.3226,157.0308],[30.6019,53.3281,155.8692],[30.6159,53.336,159.6567],[30.6161,53.3387,155.7717],[30.6072,53.3416,155.6634],[30.5981,53.3418,157.4045],[30.5935,53.3392,154.8616],[30.5883,53.3284,157.6457],[30.5594,53.2988,161.2923],[30.5549,53.2989,161.7924],[30.5507,53.3045,168.9155],[30.5461,53.3046,160.2199],[30.5273,53.2913,157.517],[30.4908,53.2866,158.6275],[30.4861,53.2839,165.9821],[30.4858,53.2785,162.7781],[30.4811,53.2758,150.2156],[30.4407,53.2821,165.6728],[30.4226,53.2825,138.1808],[30.4132,53.2772,158.396],[30.4125,53.2635,154.5628],[30.4075,53.2554,142.1325],[30.4028,53.2527,138.7267],[30.3938,53.2529,133.3309],[30.3852,53.2613,132.6472],[30.3621,53.2535,135.1461],[30.3483,53.251,132.9143],[30.3435,53.2457,134.7084],[30.3477,53.2401,133.2559],[30.3431,53.2374,155.4974],[30.2887,53.2385,132.7507],[30.27,53.2279,132.6183],[30.2518,53.2282,132.659],[30.2425,53.2229,131.6343],[30.2151,53.2206,157.1116],[30.2018,53.2263,165.7968],[30.1971,53.2237,158.7688],[30.179,53.224,164.1388],[30.1572,53.2435,167.8916],[30.1495,53.2737,147.6944],[30.1497,53.2792,147.1906],[30.1409,53.2848,147.8717],[30.1052,53.3018,157.9422],[30.0965,53.3102,166.7853],[30.0693,53.3161,155.8959],[30.0555,53.3136,154.9019],[30.0327,53.3139,163.2673],[30.0104,53.3252,165.1025],[30.0014,53.3281,161.9113],[29.974,53.3285,155.1779],[29.9693,53.3258,158.7626],[29.9644,53.3177,163.4562],[29.9642,53.3123,161.9717],[29.9499,53.2988,146.5992],[29.9407,53.2962,132.4842],[29.9362,53.299,132.5415],[29.9317,53.2991,144.6605],[29.9228,53.3047,175.3884],[29.9091,53.3049,163.5681],[29.9046,53.3077,172.1116],[29.9003,53.3132,161.722],[29.9049,53.3159,154.7325],[29.905,53.3186,149.075],[29.9187,53.3184,139.1862],[29.9235,53.3238,142.8967],[29.9236,53.3265,143.7869],[29.9104,53.3377,151.8134],[29.9105,53.3404,151.7493],[29.9059,53.3405,155.8823],[29.8919,53.3325,169.8432],[29.8918,53.3298,173.9432],[29.8962,53.327,175.016],[29.8961,53.3242,168.1823],[29.8776,53.319,163.2321],[29.8685,53.3192,155.7871],[29.864,53.322,169.8621],[29.8605,53.3493,147.8278],[29.8559,53.3494,154.5494],[29.8142,53.3336,151.9373],[29.8141,53.3309,149.7939],[29.8092,53.3228,167.7548],[29.809,53.3173,167.5348],[29.7905,53.3121,161.202],[29.7722,53.3124,164.6158],[29.7721,53.3097,164.7699],[29.7626,53.3016,165.5599],[29.7624,53.2961,164.4474],[29.7758,53.2878,171.1983],[29.775,53.2659,165.7206],[29.7793,53.2577,152.8837],[29.7837,53.2521,163.1993],[29.797,53.2438,171.2879],[29.8011,53.23,151.3039],[29.7963,53.2247,147.4718],[29.7961,53.2192,145.6613],[29.8047,53.2054,144.4695],[29.7954,53.2001,143.0124],[29.7863,53.2002,143.4316],[29.786,53.192,146.5514],[29.7584,53.187,146.8824],[29.7537,53.1843,147.6983],[29.7761,53.1731,145.972],[29.7759,53.1676,144.6401],[29.7803,53.1621,142.5651],[29.7893,53.1592,148.0372],[29.7892,53.1565,145.1256],[29.7708,53.1513,142.5037],[29.7661,53.1487,143.6198],[29.766,53.1459,148.1297],[29.7794,53.1403,163.8488],[29.7792,53.1348,159.5491],[29.7424,53.1244,145.6171],[29.7286,53.1219,138.7797],[29.7195,53.122,144.5634],[29.7106,53.1276,139.0163],[29.7064,53.1359,139.9098],[29.7066,53.1413,141.8433],[29.7021,53.1441,139.8535],[29.6746,53.1391,147.3454],[29.6699,53.1364,146.0509],[29.6744,53.1336,145.8915],[29.6652,53.131,148.4368],[29.6603,53.1229,145.4305],[29.6602,53.1202,145.342],[29.6647,53.1174,148.0746],[29.6645,53.1119,149.2236],[29.6688,53.1064,148.5394],[29.6547,53.093,149.1602],[29.641,53.0932,148.3122],[29.6364,53.0905,144.9589],[29.6363,53.0878,145.1404],[29.6495,53.074,142.1014],[29.6629,53.0656,148.7181],[29.6765,53.0654,147.9645],[29.6948,53.0678,147.2943],[29.6988,53.0514,144.0728],[29.6705,53.0245,144.4027],[29.688,53.0052,141.2994],[29.6969,52.9996,140.3377],[29.7104,52.9967,143.906],[29.7327,52.9854,145.9297],[29.7418,52.9853,143.3113],[29.7507,52.9797,142.8865],[29.746,52.977,145.6524],[29.7459,52.9743,145.9521],[29.732,52.9663,144.2736],[29.7318,52.9609,142.5778],[29.7361,52.9553,144.0369],[29.7314,52.95,140.2533],[29.7133,52.9502,138.4267],[29.6949,52.9451,136.9009],[29.6813,52.9453,135.3878],[29.6814,52.948,135.7655],[29.6861,52.9534,140.8951],[29.6862,52.9561,141.4679],[29.6818,52.9589,141.4962],[29.6682,52.9591,134.5362],[29.6501,52.9621,137.7157],[29.6322,52.9678,137.3881],[29.6092,52.96,139.2164],[29.5999,52.9547,137.312],[29.5908,52.9548,139.1712],[29.5819,52.9604,141.5932],[29.5729,52.9632,138.1954],[29.5638,52.9634,138.9042],[29.5637,52.9606,140.0009],[29.5593,52.9634,139.9295],[29.5088,52.9505,160.4005],[29.481,52.9318,146.6376],[29.4488,52.9214,147.748],[29.4443,52.9214,149.0234],[29.44,52.9297,155.4866],[29.4355,52.9325,157.7943],[29.4219,52.9326,140.5821],[29.4174,52.9354,140.3355],[29.4176,52.9436,153.5849],[29.4132,52.9464,153.0775],[29.3993,52.9384,148.1243],[29.39,52.9304,145.6661],[29.3721,52.9442,134.6817],[29.3451,52.9527,134.3174],[29.3132,52.9532,150.8398],[29.2858,52.9508,160.343],[29.2678,52.9592,148.9185],[29.2544,52.9703,146.9986],[29.2406,52.9677,155.3326],[29.2315,52.9678,163.5849],[29.227,52.9706,146.6182],[29.2228,52.9843,139.0069],[29.2091,52.9845,156.5623],[29.2134,52.9735,155.1097],[29.2088,52.9708,164.885],[29.1951,52.9683,156.2972],[29.195,52.9656,156.9646],[29.1903,52.9602,156.8929],[29.1947,52.9547,150.3593],[29.1624,52.936,146.4888],[29.1576,52.9279,146.5492],[29.1438,52.9199,157.9856],[29.1391,52.9145,156.7191],[29.1389,52.9091,152.257],[29.1434,52.9036,143.4455],[29.1524,52.9007,156.6746],[29.1523,52.898,143.1185],[29.1432,52.8954,140.8773],[29.143,52.89,154.723],[29.152,52.8844,146.6057],[29.1336,52.8738,141.9215],[29.1243,52.8657,140.6661],[29.1151,52.8631,141.1836],[29.1106,52.8659,145.1482],[29.1109,52.8768,142.5893],[29.0972,52.8769,145.4229],[29.0698,52.8718,158.1124],[29.0516,52.872,162.9676],[29.015,52.867,187.3593],[29.0014,52.8672,177.4953],[28.9967,52.8618,172.4841],[29.0011,52.8536,183.4192],[29.0009,52.8427,172.6617],[28.9869,52.8265,150.7626],[28.9731,52.8213,153.0052],[28.9685,52.8159,142.0862],[28.9684,52.8104,141.9195],[28.9545,52.7997,141.316],[28.9315,52.7864,144.5212],[28.9269,52.781,147.3358],[28.9177,52.7757,141.0059],[28.904,52.7758,153.3673],[28.8904,52.7733,147.8326],[28.8812,52.7707,149.1125],[28.8812,52.7679,156.5976],[28.872,52.7626,142.579],[28.8583,52.7628,148.6827],[28.8358,52.7712,149.3058],[28.8267,52.7713,148.5545],[28.8221,52.7686,137.6669],[28.822,52.7659,148.6205],[28.8173,52.7578,150.9753],[28.8262,52.7441,155.2974],[28.8307,52.7413,152.9652],[28.8488,52.7384,151.0005],[28.8488,52.7357,145.3513],[28.8396,52.7304,141.7523],[28.8395,52.7276,143.6273],[28.8531,52.722,154.4398],[28.853,52.7193,156.7647],[28.8484,52.7167,144.6835],[28.8439,52.7194,136.6653],[28.8167,52.7197,148.2863],[28.8076,52.7171,152.2297],[28.803,52.7145,149.1379],[28.7984,52.7091,144.9347],[28.7847,52.7038,148.4935],[28.78,52.6984,143.5961],[28.7799,52.693,136.8052],[28.7708,52.6876,143.5971],[28.7618,52.6932,131.9528],[28.7618,52.6959,132.2552],[28.7392,52.7043,132.0333],[28.7256,52.7044,131.6198],[28.7073,52.6938,149.0269],[28.7028,52.6938,132.4717],[28.6892,52.6994,140.1323],[28.6665,52.7024,142.9585],[28.6529,52.7025,164.1386],[28.6438,52.6999,161.807],[28.6437,52.6944,140.0474],[28.6391,52.6918,139.5629],[28.6255,52.6946,149.9591],[28.621,52.692,154.146],[28.6255,52.6892,137.8681],[28.6209,52.6865,137.4676],[28.6072,52.684,147.632],[28.6027,52.6867,141.5582],[28.5756,52.6951,145.528],[28.5528,52.6927,155.318],[28.5391,52.6874,154.978],[28.5256,52.6957,146.1977],[28.521,52.6957,135.7613],[28.5073,52.6877,135.1809],[28.5073,52.685,135.9506],[28.4844,52.6716,134.3416],[28.4616,52.6664,142.8889],[28.4479,52.6584,134.6352],[28.4478,52.6448,134.3479],[28.4523,52.6421,136.3355],[28.4522,52.6339,142.0432],[28.4566,52.6122,147.6311],[28.4564,52.5959,136.4467],[28.4609,52.585,133.0283],[28.4607,52.5633,132.5365],[28.4651,52.5524,131.9383],[28.456,52.547,138.2466],[28.4333,52.5419,132.5493],[28.3922,52.5178,148.252],[28.3785,52.499,148.0968],[28.3694,52.4991,151.9744],[28.3649,52.4964,153.6899],[28.3467,52.493899999999996,139.8172],[28.2923,52.4917,162.3927],[28.2286,52.4815,172.6112],[28.2287,52.4842,168.4856],[28.2241,52.4897,168.7384],[28.2106,52.5006,171.6604],[28.1742,52.4982,160.8328],[28.156,52.493,156.3334],[28.156,52.4957,157.1107],[28.1515,52.4985,154.4101],[28.1515,52.5039,163.1496],[28.147,52.5093,174.2654],[28.1471,52.531,172.3624],[28.1425,52.5338,173.4302],[28.1289,52.5339,169.0172],[28.1243,52.5312,160.0273],[28.0924,52.5288,160.1423],[28.0788,52.5262,169.088],[28.0742,52.5289,164.1723],[28.0606,52.5236,154.9239],[28.0287,52.5212,166.6972],[28.0105,52.524,152.8887],[28.006,52.5214,164.6985],[27.9923,52.5188,162.127],[27.9923,52.5079,146.9467],[27.9968,52.5052,144.7069],[27.9968,52.4998,142.5019],[28.0014,52.4916,146.6059],[27.9968,52.4835,140.592],[27.9832,52.4755,148.6098],[27.9831,52.4647,140.5286],[27.9877,52.4619,138.6799],[27.9877,52.4538,136.2143],[27.9786,52.4404,135.8506],[27.9695,52.4404,141.4884],[27.9559,52.4378,136.9503],[27.9377,52.4326,138.1031],[27.9104,52.4328,135.4932],[27.8604,52.4385,135.3852],[27.8513,52.4413,135.2346],[27.7467,52.442,148.3139],[27.7422,52.4447,143.9626],[27.7376,52.4501,144.9851],[27.7376,52.4582,141.8025],[27.7194,52.4692,136.1726],[27.7103,52.48,135.7284],[27.7057,52.4882,136.5651],[27.7011,52.4909,135.9199],[27.692,52.4936,136.0391],[27.6557,52.4938,136.0534],[27.6511,52.4965,138.7166],[27.6466,52.502,148.2395],[27.6466,52.5047,145.542],[27.6511,52.5128,142.6363],[27.6511,52.5155,139.3943],[27.6465,52.5209,139.9602],[27.6419,52.5236,137.6954],[27.6419,52.5264,137.3149],[27.6555,52.5344,138.4429],[27.6555,52.5371,137.3729],[27.6464,52.5399,138.0638],[27.6418,52.5507,142.1901],[27.6372,52.5534,147.7724],[27.6054,52.5509,155.0228],[27.5964,52.5455,160.3673],[27.5873,52.5455,156.3098],[27.5827,52.5482,159.2007],[27.5827,52.5537,151.5674],[27.5781,52.556399999999996,150.526],[27.5645,52.5591,154.8573],[27.5645,52.5537,155.4127],[27.5555,52.5456,155.9707],[27.551,52.5429,155.1019],[27.5374,52.5403,139.2217],[27.5238,52.5403,145.3153],[27.5101,52.5431,143.3887],[27.4965,52.5485,140.2551],[27.4919,52.5485,139.5973],[27.4829,52.5432,142.7047],[27.4739,52.5296,140.244],[27.4649,52.5297,139.5963],[27.4467,52.5351,139.8709],[27.433,52.5433,140.521],[27.424,52.5406,139.6336],[27.3925,52.519,153.0859],[27.3926,52.5109,154.359],[27.3836,52.5055,155.6842],[27.3654,52.5082,148.9914],[27.361,52.5028,150.9857],[27.361,52.4974,146.9068],[27.3702,52.4866,154.4725],[27.384,52.4649,149.1597],[27.3841,52.4595,156.5626],[27.3751,52.4541,146.2857],[27.3706,52.446,143.9738],[27.3572,52.4379,149.6651],[27.3347,52.4325,150.457],[27.3168,52.4163,136.5785],[27.3078,52.4109,135.0527],[27.2898,52.4055,134.9331],[27.2854,52.3973,135.1071],[27.2632,52.373,134.7242],[27.2768,52.3648,134.0397],[27.2769,52.3567,133.9512],[27.2726,52.3459,134.9241],[27.2727,52.3378,134.0563],[27.2817,52.3351,134.4429],[27.3222,52.3378,133.3365],[27.3718,52.3378,136.3642],[27.3854,52.3351,133.3994],[27.3855,52.3243,134.7537],[27.3946,52.3188,142.7478],[27.4081,52.3161,132.2345],[27.4172,52.3107,131.4545],[27.4173,52.2999,135.5452],[27.4309,52.2972,131.7087],[27.4489,52.2971,138.0871],[27.476,52.2998,137.3723],[27.4805,52.2971,140.1384],[27.4805,52.2944,133.9593],[27.4851,52.2917,139.7358],[27.4896,52.2917,135.8194],[27.4986,52.2862,139.0697],[27.5032,52.2781,134.9207],[27.5212,52.2808,140.1688],[27.5258,52.278,141.2887],[27.5258,52.2699,139.918],[27.5439,52.2699,142.3778],[27.5439,52.2645,148.1169],[27.5395,52.2618,139.3533],[27.5395,52.2564,136.5194],[27.544,52.2537,139.3294],[27.5576,52.2563,138.4979],[27.5621,52.2536,140.0291],[27.5622,52.2401,140.3245],[27.5577,52.2374,138.6491],[27.5577,52.2293,135.9483],[27.5713,52.2212,141.1719],[27.5714,52.2185,137.185],[27.5669,52.2158,146.5913],[27.5533,52.2158,132.4333],[27.5488,52.2131,135.924],[27.5444,52.2024,135.3099],[27.5399,52.197,134.0024],[27.54,52.1943,135.1129],[27.5536,52.1834,137.1098],[27.5536,52.178,134.6573],[27.5401,52.1699,128.8928],[27.5447,52.1645,127.7406],[27.5357,52.1591,129.6088],[27.5357,52.1564,127.6154],[27.5402,52.1537,128.2518],[27.5403,52.151,130.2482],[27.5357,52.151,127.18],[27.5358,52.1429,126.0983],[27.5268,52.1321,125.5611],[27.5314,52.124,126.7489],[27.5314,52.1186,125.5803],[27.527,52.1159,125.8122],[27.527,52.1104,126.4012],[27.5315,52.1023,124.7426],[27.5271,52.0915,125.1047],[27.5272,52.0834,125.707],[27.5407,52.0807,125.989],[27.5452,52.078,126.0637],[27.5633,52.0779,126.1063],[27.5723,52.0752,126.2691],[27.577,52.059,125.7632],[27.5815,52.0563,126.4681],[27.586,52.0536,126.1641],[27.6041,52.0563,125.3705],[27.6132,52.0509,125.8111],[27.6178,52.04,126.1272],[27.6179,52.0265,125.7431],[27.6135,52.0184,126.1227],[27.6001,52.0049,126.6432],[27.5731,51.994,141.1068],[27.5686,51.994,134.382],[27.5372,51.9805,132.3409],[27.5283,51.9751,139.7295],[27.5195,51.9643,135.1681],[27.5198,51.9508,131.1713],[27.5337,51.9346,136.3067],[27.5385,51.9238,136.0081],[27.5388,51.913,133.6709],[27.5262,51.886,132.8516],[27.4956,51.8699,133.1224],[27.5049,51.8619,133.2123],[27.5094,51.8619,133.8635],[27.5278,51.8538,136.6484],[27.5471,51.8297,135.9209],[27.5523,51.8162,138.7862],[27.5527,51.8082,153.5367],[27.5401,51.7921,139.796],[27.5406,51.784,139.9758],[27.5502,51.7733,143.8443],[27.5552,51.7653,140.2201],[27.5469,51.7545,140.3406],[27.538,51.7518,142.536],[27.5293,51.7465,138.3199],[27.5159,51.7438,137.9449],[27.5067,51.7464,137.5952],[27.4979,51.7437,137.26],[27.4853,51.7276,137.7095],[27.4858,51.7195,139.5917],[27.5221,51.6573,150.1165],[27.5224,51.6435,140.376],[27.5298,51.6358,145.0103],[27.5334,51.636,143.6541],[27.5423,51.6422,146.4762],[27.5519,51.6425,146.5249],[27.572,51.6374,142.2103],[27.6032,51.6209,142.5541],[27.6128,51.6213,144.9221],[27.6217,51.6275,144.8938],[27.67,51.6292,147.3882],[27.6908,51.6182,147.732],[27.7095,51.6247,148.5137],[27.7198,51.6192,167.0077],[27.7233,51.5846,153.4308],[27.7141,51.5785,156.1312],[27.7147,51.5727,156.1129],[27.6868,51.56,162.9034],[27.6771,51.5596,156.628],[27.668,51.5535,165.3214],[27.6697,51.5296,163.1657],[27.6798,51.5242,169.5024],[27.6802,51.518,173.8769],[27.6904,51.5126,174.9406],[27.7002,51.5133,167.9806],[27.7309,51.4971,170.5076],[27.7509,51.4924,182.5351],[27.7606,51.4928,182.1503],[27.7686,51.5105,163.9426],[27.7681,51.5163,171.854],[27.7863,51.5282,158.917],[27.7853,51.54,132.9263],[27.8039,51.546,148.8679],[27.8328,51.5458,160.5375],[27.8419,51.5516,149.6461],[27.8413,51.5576,148.252],[27.8211,51.5697,155.0509],[27.8196,51.5876,145.7815],[27.8287,51.5934,145.7691],[27.8368,51.6111,144.7554],[27.8358,51.6229,150.5972],[27.8258,51.6286,153.6236],[27.8161,51.6283,153.3888],[27.8339,51.6406,152.9031],[27.8724,51.6417,155.2187],[27.8828,51.6359,150.4478],[27.902,51.6364,141.1957],[27.9222,51.6236,141.7298],[27.9251,51.5865,162.2336],[27.9348,51.5865,163.699],[27.9438,51.5922,149.502],[27.9624,51.5978,151.2478],[27.9817,51.5978,160.787],[27.9457,51.5749,148.6016],[27.9471,51.5632,166.1256],[27.9658,51.5691,164.263],[28.0822,51.5702,159.2261],[28.1013,51.5757,150.909],[28.1103,51.5827,152.7488],[28.1179,51.6027,149.2753],[28.1359,51.6166,153.0895],[28.1552,51.6175,153.8244],[28.1738,51.6249,146.9125],[28.1715,51.6506,139.9723],[28.1898,51.6643,144.471],[28.2182,51.6716,139.0214],[28.2461,51.6853,140.3041],[28.2553,51.6916,143.7919],[28.2741,51.6978,148.5015],[28.2843,51.6926,135.0308],[28.2847,51.6868,139.5993],[28.2663,51.6737,140.5747],[28.2677,51.6494,139.9657],[28.259,51.6365,142.5232],[28.2594,51.6303,144.1897],[28.2783,51.6316,141.9355],[28.2874,51.6384,144.375],[28.2973,51.633,141.6181],[28.3179,51.6094,159.9857],[28.3383,51.5916,161.5615],[28.3587,51.5793,168.1642],[28.3692,51.567,168.742],[28.3593,51.5615,169.9126],[28.3597,51.5496,161.2346],[28.3697,51.5494,164.0736],[28.3895,51.5604,161.5144],[28.3996,51.5601,165.844],[28.4196,51.5653,156.7708],[28.4593,51.5874,158.2988],[28.4892,51.5981,164.419],[28.4992,51.5977,165.6634],[28.5109,51.5913,157.3206],[28.5296,51.5907,157.2675],[28.54,51.5843,169.2205],[28.5604,51.5776,162.1455],[28.5705,51.5773,160.5918],[28.5807,51.571,151.5655],[28.601,51.5702,161.5267],[28.6011,51.5643,154.3932],[28.6315,51.5631,151.9195],[28.6407,51.5691,152.1424],[28.6615,51.5621,145.8721],[28.6805,51.5621,155.0167],[28.682,51.5495,147.2037],[28.6717,51.5442,160.6529],[28.6709,51.5168,154.9148],[28.6808,51.5058,175.2968],[28.6813,51.4909,172.1169],[28.6913,51.4852,156.5978],[28.6929,51.4617,176.3432],[28.7037,51.4516,173.0435],[28.7141,51.4462,174.235],[28.7334,51.445,170.5244],[28.7328,51.4491,168.8973],[28.7413,51.4516,171.2378],[28.7405,51.4555,168.8011],[28.7483,51.4577,173.3591],[28.7586,51.4542,175.1491],[28.7636,51.4336,176.2001],[28.774,51.4293,177.4071],[28.7747,51.4246,183.1009],[28.7833,51.4301,176.4323],[28.7923,51.4305,178.7337],[28.7899,51.4448,179.6372],[28.8074,51.4511,182.0413],[28.8061,51.4611,174.6531],[28.786,51.469,159.8886],[28.7843,51.4849,159.6206],[28.8007,51.5081,164.6536],[28.8084,51.5252,160.0101],[28.817,51.5312,157.4421],[28.8251,51.5428,154.1504],[28.8427,51.5492,159.4976],[28.8692,51.5559,146.2366],[28.9049,51.5749,139.2984],[28.9837,51.5765,138.8675],[28.9839,51.5709,136.1363],[28.9938,51.5663,134.439],[29.0122,51.5676,143.333],[29.0211,51.5736,144.7882],[29.0393,51.5805,138.6907],[29.0579,51.5934,142.5007],[29.0671,51.6055,140.8837],[29.104,51.631,128.8489],[29.1131,51.6492,125.2525],[29.122,51.6554,132.8774],[29.1409,51.6558,141.0691],[29.1601,51.6507,126.1471],[29.1697,51.6386,136.814],[29.1791,51.6325,135.6428],[29.1792,51.6259,127.0366],[29.1888,51.6133,127.8577],[29.2077,51.5946,125.0842],[29.2172,51.5885,126.0],[29.2169,51.577,129.7197],[29.2456,51.5575,145.7547],[29.2648,51.5505,152.9268],[29.2629,51.523,148.9086],[29.2406,51.5072,163.0329],[29.2417,51.497,152.9138],[29.2634,51.481,170.6336],[29.2643,51.4757,162.8181],[29.2855,51.465,160.9997],[29.2956,51.4646,174.7229],[29.306,51.4593,168.558],[29.3169,51.4491,160.9498],[29.3245,51.402,154.5296],[29.3345,51.3967,167.5856],[29.3621,51.3964,173.6182],[29.3868,51.4192,164.4974],[29.3951,51.4247,181.0997],[29.4128,51.4303,172.5391],[29.4505,51.4303,157.8158],[29.4616,51.4187,174.911],[29.4806,51.4127,160.729],[29.5084,51.4124,163.4767],[29.5079,51.4182,161.7953],[29.5167,51.424,154.5757],[29.5247,51.4354,164.8138],[29.5202,51.4586,168.5214],[29.5284,51.4643,170.3943],[29.5227,51.493,150.6702],[29.5315,51.4983,156.7976],[29.5408,51.4985,144.0829],[29.5535,51.4813,147.8876],[29.5642,51.4754,162.1802],[29.5929,51.475,156.0289],[29.6014,51.4806,147.5734],[29.6081,51.4976,150.1441],[29.6171,51.503,150.2601],[29.6556,51.5024,152.6465],[29.702,51.5237,127.769],[29.7114,51.5237,128.6708],[29.7209,51.529,128.7041],[29.7302,51.5291,130.6179],[29.7305,51.5234,127.781],[29.7404,51.5178,132.4655],[29.7424,51.501,127.9279],[29.7525,51.4953,128.8627],[29.7531,51.4897,139.466],[29.7439,51.4843,135.7022],[29.7445,51.4787,134.6007],[29.7759,51.4501,135.3934],[29.7853,51.4443,139.1434],[29.7945,51.4442,139.2657],[29.8037,51.4498,140.112],[29.7943,51.4612,125.6736],[29.8126,51.4611,121.5387],[29.8128,51.4554,133.366],[29.8402,51.4552,121.4039],[29.8497,51.4494,124.2513],[29.8773,51.4492,126.6909],[29.886,51.4549,127.7522],[29.8812,51.4786,117.3684],[29.889,51.4844,114.5221],[29.9164,51.4843,131.5441]]]]}}