{"type":"Feature","properties":{"id":116092.0,"name":null,"lge_id":null,"pfafstette":4433.0,"lke_type":"N","altitude":131,"objectid":68911,"scalerank":11,"featurecla":"Lake","note":"_untitled_68911","funkyname":0,"min_zoom":6.7,"min_label":7.7},
"geometry":{"type": "Polygon","coordinates": [[[27.989512566021233,52.386725164837827,133.0],[27.989512566021233,52.386725164837827,133.0],[28.024790886333733,52.385504461712827,133.0],[28.039073112896233,52.396124578900327,140.0375],[28.036021355083733,52.404913641400327,135.8378],[28.024790886333733,52.415899969525327,138.8398],[28.011973503521233,52.425604559369077,135.7804],[27.986827019146233,52.429571844525327,135.675],[27.963023308208733,52.436529852337827,137.4663],[27.929576042583733,52.434698797650327,136.6127],[27.894663933208733,52.423834539837827,136.2353],[27.898326042583733,52.412237860150327,133.0],[27.922373894146233,52.404303289837827,133.0],[27.952403191021233,52.396368719525327,133.0],[27.989512566021233,52.386725164837827,133.0]]]}}