{"type":"Feature","properties":{"GID_2":"BLR.2.10_1","GID_0":"BLR","country":"Belarus","GID_1":"BLR.2_1","province":"Gomel","NL_NAME_1":"Гомельская","county":"Loyew","VARNAME_2":"Loev","NL_NAME_2":"Лоеўскіраён","TYPE_2":"Raion","ENGTYPE_2":"District","CC_2":"NA","HASC_2":"BY.HO.LO","name":"Loyew.county"},
"geometry":{"type": "MultiPolygon","coordinates": [[[[30.5763,51.7099,113.2673],[30.6058,51.7173,109.5092],[30.6055,51.7113,108.4102],[30.6239,51.7236,109.4944],[30.6335,51.7417,108.1844],[30.6425,51.7478,114.7106],[30.643,51.7599,114.3418],[30.652,51.766,109.817],[30.6523,51.772,111.1436],[30.6348,51.7719,113.5144],[30.6254,51.778,110.3654],[30.6437,51.79,108.3079],[30.6529,51.79,109.1933],[30.6618,51.796,109.7185],[30.6706,51.796,107.5],[30.6708,51.808,113.7766],[30.6611,51.8139,107.5],[30.6608,51.8198,110.1089],[30.679,51.8318,111.2933],[30.6974,51.8379,108.0],[30.7053,51.8617,110.8664],[30.7037,51.8736,108.0],[30.7126,51.8796,108.8559],[30.7118,51.8855,134.0594],[30.7301,51.8916,113.8544],[30.738,51.9035,125.0272],[30.7475,51.9036,119.7029],[30.7561,51.9096,111.2807],[30.7768,51.9038,111.571],[30.7963,51.904,110.0117],[30.8125,51.9161,111.9543],[30.8058,51.951,109.5],[30.8231,51.9569,110.0257],[30.8309,51.9678,111.8533],[30.8306,51.973,112.5567],[30.839,51.9734,112.718],[30.847,51.9789,114.7047],[30.8546,51.9794,112.8323],[30.8547,51.9845,116.5073],[30.862,51.9901,116.2272],[30.8622,51.9953,117.3994],[30.8694,52.0009,116.136],[30.8623,52.0004,116.2981],[30.8623,52.0056,126.5709],[30.8699,52.0112,126.825],[30.8769,52.0116,127.9836],[30.8819,52.007,134.5736],[30.8815,52.0018,114.3338],[30.8912,51.9914,113.0138],[30.9157,51.9921,112.8909],[30.9155,51.9973,113.0804],[30.9237,51.9975,113.9049],[30.9322,51.9925,118.8785],[30.9324,51.9873,121.249],[30.9406,51.9928,124.1435],[30.9398,52.0084,114.6931],[30.9471,52.0243,111.9855],[30.9428,52.0457,110.4281],[30.937,52.0621,117.2811],[30.9448,52.0676,116.195],[30.9428,52.0731,117.4839],[30.9495,52.0774,116.6516],[30.9397,52.084,120.0172],[30.9269,52.0782,132.1672],[30.9242,52.0786,117.6458],[30.9261,52.0868,120.5907],[30.9224,52.0954,123.5828],[30.9194,52.0956,120.0632],[30.9159,52.0931,115.0616],[30.9086,52.0854,118.4889],[30.9005,52.0939,142.2243],[30.8937,52.0914,132.8863],[30.8927,52.0834,141.1994],[30.8952,52.0779,121.2832],[30.8949,52.0753,127.2879],[30.8911,52.07,130.4453],[30.874,52.0624,123.8204],[30.8707,52.0625,116.2433],[30.8467,52.0819,126.9224],[30.8511,52.0899,131.8496],[30.8477,52.0954,124.015],[30.8364,52.1011,127.1322],[30.7774,52.1219,131.4482],[30.7655,52.1278,127.7665],[30.7618,52.1334,116.8216],[30.759,52.15,117.8963],[30.7516,52.1612,118.6033],[30.7477,52.164,118.1843],[30.7393,52.1643,118.2393],[30.7259,52.1537,130.0605],[30.7133,52.154,116.1805],[30.7051,52.157,130.1976],[30.6932,52.1683,130.2643],[30.6795,52.155,114.0854],[30.653,52.142,128.5079],[30.6266,52.1318,131.1003],[30.6171,52.1183,131.7911],[30.6247,52.1044,132.0222],[30.6243,52.0989,133.4688],[30.6198,52.0936,132.0],[30.5942,52.097,130.7605],[30.5853,52.0918,129.6488],[30.581,52.0919,129.806],[30.5766,52.0893,130.4851],[30.568,52.0896,129.8241],[30.5635,52.087,129.8213],[30.5549,52.0872,132.0207],[30.5417,52.0821,128.9326],[30.5287,52.0825,130.611],[30.5199,52.08,131.0981],[30.5113,52.0802,129.8069],[30.5022,52.0723,130.1592],[30.5058,52.0559,129.1626],[30.5013,52.0533,133.2384],[30.4843,52.0592,128.0627],[30.471,52.0541,127.6806],[30.4668,52.057,127.3111],[30.4587,52.0707,130.1215],[30.4502,52.0737,128.9449],[30.4412,52.0685,136.1793],[30.4451,52.0575,128.9432],[30.4359,52.0469,128.6194],[30.4314,52.0443,128.9271],[30.4183,52.0446,140.0294],[30.3804,52.07,131.0219],[30.3718,52.0729,146.828],[30.3641,52.0922,133.557],[30.3556,52.0951,133.4744],[30.3467,52.0926,135.1843],[30.342,52.0873,142.0254],[30.3411,52.071,131.8687],[30.3368,52.0711,132.5809],[30.3369,52.0738,135.2224],[30.3282,52.074,144.3622],[30.3363,52.0602,130.2796],[30.3405,52.0574,129.5618],[30.3311,52.0441,127.3304],[30.3302,52.0251,125.5385],[30.3383,52.0114,145.4451],[30.3425,52.0086,140.0793],[30.3469,52.0085,126.9035],[30.3515,52.0138,144.481],[30.3519,52.0219,144.7394],[30.3607,52.0244,152.5255],[30.3734,52.0159,147.4877],[30.3774,52.0077,144.5778],[30.3769,51.9969,146.8505],[30.3454,51.976,123.52],[30.3313,51.9547,120.2172],[30.331,51.9493,121.5982],[30.3441,51.9489,119.4628],[30.3486,51.9515,128.3666],[30.358,51.9648,136.1029],[30.3715,51.9753,132.7986],[30.3805,51.9805,133.7302],[30.3979,51.9801,139.3699],[30.3982,51.9855,141.5134],[30.407,51.988,139.0535],[30.4418,51.9871,137.9158],[30.4502,51.9814,134.9109],[30.4586,51.9731,137.7722],[30.4309,51.9385,125.9256],[30.4085,51.9255,133.6399],[30.3952,51.9205,129.2577],[30.3951,51.9178,134.4967],[30.3993,51.9149,128.2224],[30.4342,51.914,134.4091],[30.447,51.9082,131.9463],[30.4377,51.8949,132.4382],[30.4375,51.8895,132.6058],[30.4329,51.8842,131.1084],[30.4198,51.8845,138.3271],[30.4153,51.8819,133.134],[30.4149,51.8711,133.0421],[30.4236,51.8708,133.7312],[30.4278,51.868,136.8873],[30.4277,51.8653,136.1976],[30.4187,51.8601,140.8648],[30.3969,51.8607,122.3342],[30.3967,51.8553,125.0459],[30.4095,51.8495,122.6101],[30.4139,51.8494,122.784],[30.4003,51.8389,122.5327],[30.4088,51.8332,129.5293],[30.4392,51.8269,115.2989],[30.448,51.8266,115.6072],[30.4696,51.8177,114.0596],[30.4784,51.8174,114.274],[30.4787,51.8256,114.6635],[30.4921,51.8307,115.1971],[30.5053,51.8302,125.7379],[30.5096,51.8274,129.8586],[30.5094,51.8219,115.3776],[30.5004,51.8167,113.9949],[30.5003,51.8139,114.2555],[30.509,51.8082,113.3585],[30.4998,51.8002,118.6688],[30.4909,51.7978,127.8594],[30.4867,51.8034,133.9825],[30.4823,51.8036,133.4982],[30.4817,51.7871,114.4636],[30.5035,51.7808,114.7457],[30.5344,51.7795,111.7507],[30.5387,51.7765,110.7115],[30.5335,51.7627,111.8987],[30.533,51.7515,111.1038],[30.5284,51.7489,110.474],[30.5281,51.7433,120.3989],[30.5367,51.7372,111.8674],[30.5497,51.7337,112.0007],[30.5538,51.7279,114.9459],[30.5533,51.7223,123.9402],[30.5572,51.7165,113.0653],[30.5613,51.7134,111.9046],[30.5763,51.7099,113.2673]]]]}}