{"type":"Feature","properties":{"GID_2":"BLR.1.16_1","GID_0":"BLR","country":"Belarus","GID_1":"BLR.1_1","province":"Brest","NL_NAME_1":"Брэсцкая","county":"Zhabinka","VARNAME_2":"NA","NL_NAME_2":"Жабінкаўскіраён","TYPE_2":"Raion","ENGTYPE_2":"District","CC_2":"NA","HASC_2":"BY.BR.ZH","name":"Zhabinka.county"},
"geometry":{"type": "MultiPolygon","coordinates": [[[[24.1141,52.0518,155.7791],[24.1397,52.0322,153.861],[24.14,52.0295,160.5426],[24.1457,52.0218,159.2127],[24.1465,52.0164,153.5838],[24.1522,52.0086,144.3568],[24.1615,52.0067,150.576],[24.17,52.0103,164.0548],[24.1696,52.013,145.7294],[24.1587,52.0256,147.9165],[24.1579,52.031,149.1098],[24.1661,52.0372,142.6359],[24.1791,52.041,150.3094],[24.188,52.0418,148.7275],[24.1921,52.0449,141.6282],[24.1817,52.0548,140.9406],[24.1813,52.0575,140.6168],[24.1933,52.0693,159.4304],[24.2206,52.0689,145.313],[24.242,52.0786,140.0539],[24.2413,52.0839,142.0014],[24.2685,52.0857,155.1994],[24.2761,52.0993,160.3349],[24.2788,52.1152,155.298],[24.2877,52.1183,149.6241],[24.2675,52.1329,139.7605],[24.2672,52.1356,139.7243],[24.2895,52.142,141.1078],[24.2886,52.1498,139.8302],[24.2748,52.1491,139.0718],[24.2699,52.1514,150.3024],[24.2693,52.1567,142.7977],[24.273,52.1647,145.7252],[24.2724,52.1699,140.6246],[24.2666,52.1801,141.8083],[24.2617,52.1825,142.1508],[24.2479,52.1817,141.486],[24.2384,52.1838,141.6068],[24.2381,52.1864,145.5245],[24.2189,52.1932,141.3002],[24.2085,52.2031,142.4822],[24.1987,52.2078,143.9333],[24.2066,52.2188,154.4341],[24.2063,52.2214,159.5492],[24.2152,52.2245,145.3905],[24.2134,52.2402,144.2165],[24.2085,52.2425,144.7946],[24.1855,52.2412,145.8316],[24.1843,52.2516,148.6017],[24.1788,52.2592,146.7361],[24.1748,52.2931,150.721],[24.1788,52.2986,149.6218],[24.1785,52.3012,156.9148],[24.1733,52.3062,149.8425],[24.1718,52.3193,149.5626],[24.1651,52.3373,148.7186],[24.1642,52.3451,150.0194],[24.1589,52.3501,149.9334],[24.1583,52.3553,152.1409],[24.167,52.3611,162.0863],[24.1664,52.3663,165.5524],[24.1611,52.3713,180.1463],[24.1366,52.383,175.2891],[24.1086,52.384,174.4392],[24.0984,52.3913,154.4877],[24.107,52.3971,151.3437],[24.1021,52.3994,157.2252],[24.0929,52.3989,157.6029],[24.0788,52.4006,163.1055],[24.0794,52.3954,161.1299],[24.0754,52.3899,167.0674],[24.0662,52.3893,164.3633],[24.0623,52.3838,183.8437],[24.0626,52.3812,166.0412],[24.077,52.3768,168.0035],[24.074,52.3635,187.5902],[24.07,52.3579,175.8097],[24.0612,52.3547,176.7784],[24.0293,52.3526,181.9748],[24.0105,52.3566,174.7717],[24.0014,52.356,184.5367],[23.9975,52.3505,188.0564],[23.981,52.3362,183.2256],[23.9732,52.3251,178.6592],[23.952,52.3105,152.2546],[23.9388,52.307,148.3843],[23.9345,52.3041,147.1753],[23.9352,52.2989,148.2318],[23.9407,52.2912,150.316],[23.9416,52.2833,151.8328],[23.9325,52.2828,145.981],[23.9231,52.2849,145.4061],[23.8989,52.2967,148.6395],[23.9006,52.3207,150.6938],[23.886,52.3278,157.8255],[23.8809,52.3328,169.7789],[23.8802,52.3381,174.588],[23.8751,52.3431,158.1459],[23.866,52.3426,156.3369],[23.8654,52.3478,167.9265],[23.8609,52.3476,173.6363],[23.8441,52.3361,190.1046],[23.8363,52.325,184.7923],[23.8414,52.32,185.0913],[23.833,52.3143,178.7333],[23.8291,52.3087,160.5639],[23.8123,52.2972,192.3637],[23.8141,52.2814,166.8002],[23.8341,52.2665,166.5602],[23.8344,52.2639,167.0652],[23.8395,52.2588,165.0762],[23.8486,52.2593,156.996],[23.8492,52.254,161.9521],[23.8541,52.2516,156.9487],[23.8595,52.244,164.5144],[23.8605,52.236,162.9198],[23.8711,52.2233,183.4015],[23.8802,52.2238,165.5579],[23.889,52.227,180.4304],[23.8968,52.2381,181.1862],[23.9052,52.243899999999996,150.346],[23.9098,52.2442,150.0508],[23.9149,52.2392,148.8208],[23.9162,52.2286,148.5858],[23.9137,52.2125,162.9815],[23.9069,52.1933,175.5824],[23.9079,52.1854,154.9999],[23.9184,52.1753,144.093],[23.9317,52.1788,142.0113],[23.9412,52.1767,144.221],[23.9429,52.1634,138.7401],[23.9573,52.159,140.907],[23.9625,52.1539,140.4663],[23.9636,52.146,136.9714],[23.9602,52.1376,143.0461],[23.9446,52.1177,141.5862],[23.9316,52.1114,131.5],[23.932,52.1088,131.5],[23.9469,52.1016,141.478],[23.9753,52.0955,140.3318],[23.9981,52.0971,139.8369],[24.0067,52.1004,139.8181],[24.015,52.1064,138.9316],[24.0377,52.1081,138.9062],[24.0633,52.0884,140.6604],[24.0637,52.0857,140.885],[24.0686,52.0834,140.5063],[24.0776,52.0841,139.228],[24.0814,52.0898,138.6283],[24.0904,52.0905,141.2121],[24.0956,52.0856,142.0716],[24.1054,52.0809,139.7282],[24.1061,52.0756,146.8582],[24.093,52.0718,149.6161],[24.0889,52.0688,155.5588],[24.0893,52.0661,146.9],[24.1036,52.0618,149.9628],[24.104,52.0591,152.8235],[24.1141,52.0518,155.7791]]]]}}