{"type": "Feature","bbox": [29.9051,54.2656,30.7725,54.823],"geometry": {"type": "MultiPolygon","coordinates": [[[[30.7725,54.4135,227.0018],[30.7682,54.419,209.0557],[30.7685,54.4245,209.781],[30.7645,54.4355,214.8741],[30.7553,54.4384,214.9088],[30.7457,54.4332,214.8474],[30.7144,54.4585,220.0064],[30.7012,54.4725,209.0396],[30.6873,54.4755,211.031],[30.678,54.4758,209.023],[30.6731,54.4731,203.3038],[30.6504,54.4846,203.3292],[30.646,54.4902,199.5988],[30.6463,54.4956,197.7997],[30.6607,54.5007,201.9948],[30.6516,54.5064,195.0861],[30.6474,54.5147,190.7448],[30.6386,54.5258,187.0663],[30.6388,54.5286,186.0607],[30.6343,54.5314,189.0785],[30.6296,54.5315,190.8327],[30.6163,54.5455,187.2944],[30.6213,54.5508,186.0166],[30.6171,54.5591,160.6557],[30.6125,54.5619,170.0987],[30.5938,54.5624,183.4487],[30.589,54.5598,194.5714],[30.5703,54.5602,203.7955],[30.5611,54.5632,205.9364],[30.5529,54.5852,204.6833],[30.5536,54.5989,197.8735],[30.5443,54.5991,193.61],[30.5346,54.5939,202.327],[30.5307,54.6077,206.3856],[30.5361,54.6212,195.0886],[30.5645,54.626,197.2132],[30.5742,54.6312,191.8212],[30.5792,54.6365,184.5445],[30.5793,54.6393,178.2355],[30.5703,54.645,175.0921],[30.5514,54.6427,178.7135],[30.5518,54.6509,169.9925],[30.5567,54.6535,170.56],[30.5706,54.6504,176.1881],[30.5893,54.6499,178.3414],[30.5942,54.6525,175.4958],[30.6042,54.6632,178.2615],[30.6239,54.6791,172.0049],[30.6242,54.6845,180.4241],[30.6156,54.6985,182.3502],[30.6163,54.7094,166.4511],[30.6074,54.7178,168.7373],[30.6077,54.7233,169.6266],[30.6181,54.7394,187.6806],[30.6379,54.7553,181.0868],[30.6723,54.7761,184.0219],[30.6831,54.795,171.4748],[30.6108,54.7753,177.5057],[30.5874,54.7787,179.2997],[30.5644,54.7876,190.0669],[30.5597,54.7877,185.6528],[30.5592,54.7795,186.4817],[30.5543,54.7769,176.6374],[30.5452,54.7826,191.5374],[30.541,54.791,199.438],[30.5365,54.7938,197.9264],[30.5316,54.7912,190.1277],[30.5311,54.783,186.6104],[30.5255,54.7667,196.8459],[30.5208,54.7668,189.774],[30.4976,54.7729,203.6553],[30.4885,54.7786,192.5462],[30.4699,54.7819,186.7211],[30.4465,54.7825,192.0187],[30.4323,54.7801,187.0464],[30.4136,54.7805,191.9527],[30.4045,54.7862,181.903],[30.3905,54.7865,188.4234],[30.3683,54.809,189.8447],[30.3687,54.8173,188.2582],[30.3596,54.823,180.1513],[30.3408,54.8206,189.8975],[30.3358,54.8152,190.4041],[30.3355,54.8097,166.6752],[30.3398,54.8014,156.5],[30.3397,54.7986,171.271],[30.3347,54.7932,174.9181],[30.3252,54.7907,179.3679],[30.3203,54.7853,195.606],[30.3197,54.7743,175.7153],[30.3149,54.7716,175.0564],[30.2959,54.7665,187.2043],[30.2866,54.7667,192.3393],[30.2816,54.7613,181.1078],[30.2904,54.7501,185.6327],[30.2901,54.7446,187.5377],[30.2852,54.7392,189.9106],[30.2569,54.7343,194.1938],[30.252,54.7316,185.8389],[30.2336,54.7374,181.6566],[30.2245,54.7431,191.7585],[30.2103,54.7406,194.6063],[30.2055,54.7379,195.1597],[30.2097,54.7268,194.4381],[30.1904,54.7162,180.6188],[30.1855,54.7108,186.2454],[30.1852,54.7053,189.255],[30.2034,54.694,219.5012],[30.208,54.6939,218.2539],[30.2171,54.6882,216.9142],[30.2349,54.6687,229.7089],[30.2394,54.6659,235.5731],[30.2393,54.6631,236.384],[30.2299,54.6633,234.9095],[30.2072,54.6774,203.9768],[30.1979,54.6776,204.8533],[30.1833,54.6668,205.5481],[30.1641,54.6561,228.6209],[30.1499,54.6536,217.2569],[30.1031,54.6544,216.7396],[30.0698,54.6439,210.1147],[30.0556,54.6413,219.3452],[30.0462,54.6415,215.8806],[30.0373,54.6498,206.585],[30.0188,54.6556,206.4815],[30.0046,54.6531,201.4864],[29.9995,54.6449,201.2112],[29.9899,54.6395,221.7599],[29.9852,54.6396,206.4115],[29.9806,54.6424,211.2003],[29.9809,54.6479,217.9499],[29.9763,54.6507,213.3938],[29.9294,54.6513,214.9272],[29.9246,54.6487,206.6786],[29.9147,54.6378,200.2],[29.9051,54.6324,196.9089],[29.9092,54.6187,195.669],[29.9137,54.6159,196.3779],[29.9135,54.6104,231.0166],[29.9087,54.6077,208.5749],[29.9086,54.6049,213.7199],[29.9178,54.6021,223.7113],[29.9177,54.5993,229.5431],[29.908,54.5912,224.756],[29.9077,54.5857,227.6308],[29.9122,54.5802,237.7624],[29.9163,54.5664,215.4349],[29.9678,54.5657,216.1169],[29.9911,54.5626,215.8142],[30.0053,54.5652,211.5236],[30.0101,54.5678,207.6145],[30.0194,54.5677,199.9698],[30.0289,54.5703,203.8442],[30.0571,54.5727,205.3987],[30.057,54.5699,206.6638],[30.0424,54.5591,218.1008],[30.0423,54.556399999999996,219.8041],[30.0469,54.5536,216.9405],[30.0658,54.5588,214.8534],[30.0705,54.5587,210.2608],[30.0751,54.5559,208.6707],[30.0838,54.5421,210.529],[30.0883,54.5392,210.2211],[30.1118,54.5416,217.3262],[30.115,54.5086,184.257],[30.1238,54.4975,188.5086],[30.1283,54.4947,185.8934],[30.1474,54.5027,191.89],[30.1567,54.5025,188.9099],[30.1566,54.4998,179.3938],[30.1375,54.4918,176.7403],[30.1281,54.4892,200.0436],[30.1187,54.4894,175.8803],[30.1139,54.4867,184.9452],[30.109,54.4813,190.3767],[30.1133,54.473,186.4427],[30.1173,54.4592,208.3337],[30.1306,54.4426,216.1715],[30.1396,54.4369,219.1456],[30.1439,54.4286,221.3157],[30.1437,54.4232,215.1051],[30.1389,54.4205,215.0664],[30.1014,54.4183,221.7413],[30.0966,54.4157,222.2814],[30.0959,54.3992,217.8077],[30.1004,54.3964,217.4815],[30.1097,54.3963,220.5302],[30.1324,54.3822,217.5412],[30.1419,54.3848,236.3889],[30.1464,54.382,215.8646],[30.1415,54.3766,230.242],[30.132,54.374,227.6137],[30.1223,54.3659,228.7731],[30.1221,54.3605,207.2692],[30.1266,54.3577,205.7095],[30.1359,54.3575,207.2261],[30.1549,54.3654,206.7913],[30.1689,54.3652,217.5887],[30.187,54.354,201.3391],[30.1866,54.3457,212.9006],[30.1815,54.3349,204.0578],[30.186,54.3321,210.0952],[30.2,54.3318,185.486],[30.2191,54.3425,193.1827],[30.2195,54.3507,200.6805],[30.2059,54.3591,212.8001],[30.2156,54.3672,215.3797],[30.2297,54.3697,184.4885],[30.2477,54.3557,210.5385],[30.271,54.3553,170.6603],[30.2757,54.358,165.6173],[30.2803,54.3552,174.7811],[30.2849,54.3551,185.9703],[30.2801,54.3524,172.6224],[30.2937,54.344,163.1873],[30.2979,54.3357,152.8649],[30.2835,54.325,148.4556],[30.2783,54.3141,153.1606],[30.2639,54.3061,162.3459],[30.2637,54.3007,154.8205],[30.2958,54.2919,177.0231],[30.3145,54.2943,180.8995],[30.3469,54.291,189.5423],[30.3517,54.2937,190.0589],[30.3617,54.3072,194.6115],[30.3669,54.3181,196.0234],[30.3716,54.3207,201.9701],[30.3856,54.3205,201.4233],[30.3947,54.3176,204.1105],[30.4087,54.3173,224.1313],[30.4135,54.3199,201.9265],[30.414,54.3309,206.7785],[30.4189,54.3363,210.1733],[30.4284,54.3388,211.4854],[30.4374,54.3332,228.2466],[30.4465,54.3303,212.6516],[30.4685,54.3052,213.2928],[30.4868,54.2994,218.7985],[30.4865,54.2939,210.7366],[30.4816,54.2885,216.193],[30.481,54.2776,231.1389],[30.49,54.2719,206.699],[30.4946,54.2718,205.0423],[30.5136,54.2797,193.6519],[30.5229,54.2795,198.6048],[30.5179,54.2741,213.0255],[30.5223,54.2686,209.803],[30.5314,54.2656,194.9104],[30.541,54.2709,197.3745],[30.5417,54.2846,195.1667],[30.5653,54.2923,197.9163],[30.5748,54.2976,196.5022],[30.5757,54.314,196.437],[30.5714,54.3196,217.2237],[30.5718,54.3278,194.8336],[30.5766,54.3304,191.7319],[30.5955,54.3355,191.7935],[30.6001,54.3354,189.4453],[30.6239,54.3458,197.6485],[30.6242,54.3513,196.6337],[30.5926,54.3684,199.3984],[30.5743,54.3742,207.7779],[30.5698,54.3771,211.4459],[30.5794,54.3823,204.5459],[30.5888,54.3849,204.2189],[30.5981,54.3847,207.6048],[30.6119,54.3816,194.1219],[30.6776,54.3883,196.03],[30.6921,54.3962,196.0736],[30.6922,54.3989,196.3314],[30.6837,54.4128,195.8683],[30.684,54.4182,198.6204],[30.689,54.4236,205.783],[30.6986,54.4288,209.0876],[30.7173,54.4284,211.2053],[30.7585,54.4138,227.9652],[30.7725,54.4135,227.0018]]]]}
,"properties": {"GID_2": "BLR.6.1_1","GID_0": "BLR","country": "Belarus","GID_1": "BLR.6_1","province": "Vitebsk","NL_NAME_1": "Вiцебская","county": "Arsha","VARNAME_2": "Orsha","NL_NAME_2": "Аршанскіраён","TYPE_2": "Raion","ENGTYPE_2": "District","CC_2": "NA","HASC_2": "BY.VI.OR","name": "Arsha.county","area_km2": 1715.423,"hist_schema_id": "Elevation0-9000","hist_area_km2": {"150": 48.421,"175": 480.501,"200": 832.61,"225": 336.581,"250": 17.311}}}