{"type":"Feature","properties":{"GID_2":"BLR.4.16_1","GID_0":"BLR","country":"Belarus","GID_1":"BLR.4_1","province":"Mogilev","NL_NAME_1":"Магілёўская","county":"Kruhlaye","VARNAME_2":"Krugloye","NL_NAME_2":"Круглянскіраён","TYPE_2":"Raion","ENGTYPE_2":"District","CC_2":"NA","HASC_2":"BY.MA.KG","name":"Kruhlaye.county"},
"geometry":{"type": "MultiPolygon","coordinates": [[[[29.4369,54.073,204.1326],[29.4742,54.0725,203.0769],[29.4975,54.075,189.1275],[29.6138,54.0736,192.4749],[29.6232,54.0762,192.2184],[29.6557,54.0758,190.8814],[29.6602,54.073,172.4584],[29.6602,54.0703,165.3829],[29.674,54.0674,167.8493],[29.6833,54.0672,178.0278],[29.7021,54.0724,168.2197],[29.707,54.0806,166.5316],[29.7354,54.0965,168.4001],[29.7356,54.102,173.1414],[29.7404,54.1074,193.1897],[29.7452,54.11,174.8214],[29.7733,54.1178,182.7128],[29.7784,54.1314,211.0186],[29.7832,54.134,195.8116],[29.7968,54.1257,187.4763],[29.7964,54.1148,185.6935],[29.8008,54.1065,191.9399],[29.8054,54.1037,195.3848],[29.8193,54.1035,198.8889],[29.833,54.0979,205.4937],[29.898,54.0969,190.9284],[29.9351,54.099,172.3244],[29.9446,54.1043,177.1133],[29.945,54.1152,175.2285],[29.9499,54.1232,175.735],[29.9408,54.1261,172.9374],[29.941,54.1343,179.6632],[29.9367,54.1425,173.8042],[29.9416,54.1506,178.5273],[29.9418,54.156,177.4043],[29.9374,54.1616,176.5733],[29.9745,54.1609,177.0701],[29.9792,54.1636,178.207],[29.9749,54.1718,180.1935],[29.975,54.1745,181.9571],[29.9705,54.1773,181.0294],[29.9753,54.1827,182.7927],[29.9664,54.1938,192.8939],[29.9621,54.202,208.9385],[29.9622,54.2047,225.2391],[29.9669,54.2074,206.2139],[30.0043,54.2122,188.9387],[30.0136,54.212,191.0416],[30.0324,54.2199,202.5207],[30.0514,54.2305,215.5863],[30.0517,54.2359,215.7021],[30.0476,54.2496,214.0363],[30.0252,54.2719,236.1884],[30.0066,54.2722,224.4248],[29.9926,54.2697,208.3712],[29.988,54.2725,207.9418],[29.9881,54.2752,208.1811],[29.9977,54.2805,226.7216],[30.0071,54.2831,238.8036],[30.003,54.2968,237.1353],[29.9937,54.2969,235.0151],[29.9841,54.2916,228.5544],[29.9654,54.2892,202.1117],[29.9653,54.2865,206.9009],[29.9559,54.2839,210.5173],[29.9374,54.2869,225.6232],[29.919,54.2927,213.6851],[29.9145,54.2955,215.041],[29.9193,54.3008,222.7758],[29.9194,54.3036,231.8509],[29.9149,54.306399999999996,237.4364],[29.9014,54.3202,209.0039],[29.9016,54.323,207.365],[29.9111,54.3283,207.3347],[29.9112,54.331,207.8575],[29.9022,54.3393,212.8115],[29.8975,54.3394,212.4178],[29.8928,54.3367,208.8969],[29.8925,54.3313,221.6083],[29.8877,54.3259,207.8252],[29.8734,54.3179,197.9103],[29.8641,54.3181,199.7396],[29.8504,54.3265,193.8397],[29.8458,54.3265,193.2711],[29.8363,54.324,194.8403],[29.8362,54.3212,195.0786],[29.8267,54.3159,190.656],[29.8174,54.3161,190.9598],[29.8035,54.319,199.2653],[29.799,54.3218,215.6892],[29.785,54.322,195.9059],[29.7661,54.3141,195.1156],[29.752,54.3116,181.0032],[29.7381,54.3145,191.0504],[29.7288,54.3146,192.9567],[29.7146,54.3094,206.6881],[29.6959,54.3069,232.759],[29.6912,54.307,229.0288],[29.6728,54.3154,217.0688],[29.6591,54.3238,212.6292],[29.6499,54.3267,213.8887],[29.6359,54.3268,218.4553],[29.6313,54.3296,217.6012],[29.6314,54.3324,219.0173],[29.6268,54.3351,221.5535],[29.6128,54.3353,222.2061],[29.5799,54.3303,216.4173],[29.5752,54.3277,211.2363],[29.5748,54.314,233.4199],[29.5793,54.3113,233.579],[29.5838,54.3057,219.2793],[29.5838,54.303,220.9906],[29.5743,54.2977,206.2056],[29.5603,54.2979,203.181],[29.551,54.3007,203.7648],[29.5369,54.2982,200.8429],[29.5322,54.2955,196.911],[29.532,54.2901,197.5496],[29.5271,54.282,215.8672],[29.5177,54.2794,197.6506],[29.5082,54.274,194.6104],[29.5173,54.2685,190.3063],[29.5171,54.2603,197.0521],[29.5123,54.2576,200.9982],[29.5077,54.2577,193.5066],[29.4981,54.2496,215.3882],[29.4934,54.2497,206.1016],[29.4843,54.2552,194.7012],[29.4796,54.2553,194.4467],[29.4793,54.2471,197.4906],[29.4608,54.2501,194.0812],[29.4605,54.2419,198.7416],[29.451,54.2365,199.8051],[29.4373,54.2449,195.7543],[29.4326,54.2449,195.1925],[29.4091,54.2398,195.8443],[29.4043,54.2344,196.6766],[29.4089,54.2316,214.1934],[29.4088,54.2289,207.4857],[29.4133,54.2233,194.4787],[29.4366,54.2231,202.2203],[29.4412,54.2203,215.1407],[29.441,54.2121,193.3015],[29.4502,54.2093,190.6424],[29.4642,54.2091,192.1614],[29.4688,54.2063,195.9548],[29.4544,54.1929,209.4046],[29.4542,54.1847,205.8875],[29.4447,54.1793,200.6394],[29.4446,54.1766,206.6693],[29.4399,54.1739,206.3614],[29.4443,54.1657,187.1872],[29.4488,54.1602,196.3428],[29.4534,54.1574,209.1302],[29.4532,54.1519,188.5294],[29.4339,54.1276,184.966],[29.4336,54.1194,194.1854],[29.4474,54.1138,198.2387],[29.4469,54.0947,180.4609],[29.4421,54.0893,199.0146],[29.4374,54.0893,199.2679],[29.4327,54.0867,194.6046],[29.4369,54.073,204.1326]]]]}}