{"type": "Feature","bbox": [23.762,52.3898,25.0927,52.9981],"geometry": {"type": "MultiPolygon","coordinates": [[[[24.9529,52.6669,157.1704],[24.9386,52.6746,159.1213],[24.9337,52.6798,171.1381],[24.933,52.6878,180.0127],[24.9233,52.6956,186.7769],[24.9138,52.7007,187.1761],[24.9088,52.7059,185.1576],[24.9079,52.7166,187.5839],[24.9095,52.7514,179.726],[24.9179,52.7597,190.175],[24.9176,52.7624,194.5246],[24.9217,52.7679,193.6275],[24.9349,52.7736,163.5377],[24.9394,52.7737,173.9488],[24.9632,52.761,170.2709],[24.9677,52.7611,170.7789],[24.9978,52.7807,191.3615],[25.0069,52.7809,191.6822],[25.0155,52.7865,183.1602],[25.0105,52.7917,185.1593],[25.0323,52.803,183.5527],[25.0319,52.8084,174.8991],[25.0362,52.8112,175.9777],[25.0454,52.8087,174.2399],[25.0543,52.8117,187.5663],[25.0586,52.8145,173.0171],[25.0584,52.8171,167.1874],[25.0927,52.8422,172.2272],[25.092,52.8502,163.4916],[25.083,52.85,165.3355],[25.0782,52.8526,165.8286],[25.0735,52.8551,161.9304],[25.073,52.8605,166.3515],[25.0901,52.8743,166.2567],[25.0851,52.8796,168.1977],[25.0847,52.8849,168.0239],[25.0797,52.8902,171.9817],[25.0841,52.893,174.3667],[25.0787,52.9036,193.219],[25.083,52.9064,177.6878],[25.0823,52.9144,191.9698],[25.0864,52.9199,192.6949],[25.0862,52.9226,192.3373],[25.0905,52.9254,178.9481],[25.0858,52.928,195.5133],[25.0899,52.9334,193.0788],[25.0897,52.9361,179.2666],[25.0804,52.9385,174.94],[25.0713,52.9383,172.6419],[25.054,52.9271,177.4318],[25.0549,52.9164,176.8253],[25.0471,52.9,173.6495],[25.029,52.8995,173.4333],[25.0197,52.902,178.2668],[25.0,52.9202,175.263],[24.9857,52.9279,190.7479],[24.9853,52.9332,200.5164],[24.9896,52.936,160.4506],[24.9941,52.9362,156.9509],[24.9982,52.9416,156.7119],[24.998,52.9443,161.9679],[24.9928,52.9522,149.5815],[24.9923,52.9576,152.0992],[24.9826,52.9654,155.7379],[24.9594,52.9701,169.6257],[24.9503,52.9698,143.7639],[24.9414,52.9669,136.9254],[24.9376,52.9587,136.4841],[24.9287,52.9557,137.4216],[24.915,52.9553,136.0483],[24.9052,52.9631,137.407],[24.9007,52.963,138.7506],[24.892,52.9573,159.4946],[24.8827,52.9597,168.4824],[24.8736,52.9595,173.3752],[24.8467,52.9533,164.166],[24.8376,52.953,191.492],[24.8237,52.9552,171.3046],[24.8141,52.9603,146.6005],[24.8004,52.9599,147.1024],[24.7814,52.9673,177.291],[24.7769,52.9672,180.836],[24.7639,52.9587,172.7621],[24.7593,52.9586,177.6691],[24.7545,52.9611,166.955],[24.7408,52.9606,181.5566],[24.736,52.9632,181.8727],[24.7355,52.9685,183.9992],[24.7396,52.974,172.8778],[24.7391,52.9793,173.2581],[24.743,52.9875,180.1241],[24.7425,52.9929,179.4296],[24.7375,52.9981,182.7462],[24.7146,52.9973,177.0217],[24.7148,52.9946,177.5611],[24.7105,52.9918,181.5046],[24.711,52.9865,195.5592],[24.7066,52.9836,197.4558],[24.6883,52.983,179.5969],[24.689,52.975,175.0743],[24.6804,52.9693,175.5023],[24.6314,52.9516,183.8228],[24.6273,52.9461,180.2713],[24.6285,52.9327,184.0641],[24.6334,52.9302,184.2395],[24.6661,52.9233,201.2183],[24.6666,52.918,197.9466],[24.6621,52.9178,182.9358],[24.6445,52.9092,201.7554],[24.6305,52.9114,199.9737],[24.6213,52.9111,197.1964],[24.6085,52.8999,175.9988],[24.6045,52.8944,176.791],[24.5871,52.8831,177.7144],[24.5876,52.8777,173.8609],[24.597,52.8754,174.1183],[24.6115,52.8679,170.7723],[24.6168,52.8601,169.6235],[24.6226,52.8469,172.5137],[24.6139,52.8412,185.1522],[24.6048,52.8409,176.1913],[24.6005,52.8381,179.9445],[24.5971,52.8246,193.0232],[24.5928,52.8218,181.4647],[24.5935,52.8138,191.0006],[24.5803,52.808,179.6649],[24.5805,52.8053,182.4595],[24.5856,52.8001,183.6196],[24.5902,52.8003,183.016],[24.5998,52.7953,172.7558],[24.5967,52.7792,170.2016],[24.5975,52.7712,163.3509],[24.5797,52.7652,174.5268],[24.5751,52.765,166.6178],[24.5654,52.77,169.3803],[24.5517,52.7695,167.6242],[24.5522,52.7642,174.6231],[24.5568,52.7644,173.3209],[24.557,52.7617,172.0334],[24.5527,52.7589,179.4601],[24.5343,52.7582,174.6773],[24.5341,52.7609,165.7911],[24.5249,52.7605,174.8273],[24.5117,52.7547,158.9604],[24.4933,52.754,159.4162],[24.4741,52.7612,159.4751],[24.4506,52.7656,160.1108],[24.4452,52.7734,160.6171],[24.4208,52.7857,161.0243],[24.407,52.7851,178.129],[24.3939,52.7765,160.2886],[24.3713,52.7702,161.7028],[24.3018,52.7669,161.8725],[24.2927,52.7638,160.0002],[24.2832,52.766,177.7571],[24.2829,52.7686,170.43],[24.2871,52.7742,169.8681],[24.2866,52.7795,168.6958],[24.2633,52.7783,159.9242],[24.259,52.7754,160.4158],[24.2592,52.7728,160.3318],[24.2553,52.7646,159.2709],[24.2561,52.7566,160.9013],[24.2517,52.7537,165.5327],[24.2424,52.7532,160.784],[24.2419,52.7585,159.4141],[24.2458,52.7667,159.7168],[24.2362,52.7689,159.7019],[24.2037,52.7671,158.0107],[24.1995,52.7615,157.8957],[24.1998,52.7589,157.9342],[24.1809,52.7605,158.8485],[24.1612,52.77,165.5148],[24.1607,52.7754,169.3449],[24.1558,52.7777,156.2751],[24.1644,52.7863,160.0364],[24.1629,52.8023,176.1367],[24.1533,52.8044,176.3645],[24.1433,52.8118,174.7106],[24.1386,52.8115,167.9842],[24.1242,52.816,179.3037],[24.1148,52.8153,176.9896],[24.1151,52.8127,170.3795],[24.1107,52.8097,166.1543],[24.1114,52.8017,166.3715],[24.0976,52.7981,177.9284],[24.0983,52.7901,179.4943],[24.0939,52.7871,183.7418],[24.0232,52.7868,169.9152],[24.0187,52.7837,183.6521],[24.0237,52.7815,167.4339],[24.0239,52.7788,164.2104],[24.0194,52.7757,168.8217],[23.9574,52.7748,178.2438],[23.939,52.7726,178.3206],[23.9389,52.754,162.5742],[23.9304,52.7577,159.5826],[23.9316,52.709,185.7943],[23.9001,52.6912,169.0349],[23.8925,52.6797,161.8203],[23.8794,52.6797,177.529],[23.7808,52.6271,163.3577],[23.7757,52.6225,154.8303],[23.7715,52.6222,164.9979],[23.7665,52.6188,155.7951],[23.7663,52.6154,172.0372],[23.762,52.6153,169.4614],[23.7713,52.6075,172.6917],[23.7928,52.6081,168.1767],[23.8061,52.6059,182.8241],[23.8447,52.6126,174.5886],[23.8488,52.6154,173.8921],[23.8875,52.6251,168.7715],[23.9059,52.6209,163.7688],[23.9104,52.6212,166.4513],[23.9247,52.6143,182.7061],[23.9253,52.6092,177.6626],[23.9349,52.6046,187.3029],[23.9677,52.5964,179.2756],[23.9725,52.5941,173.7602],[23.978,52.5866,188.7499],[23.9741,52.5811,207.1998],[23.9759,52.5655,193.1289],[23.9755,52.5313,179.3849],[23.9729,52.5153,198.7696],[23.9738,52.5075,195.3897],[23.9829,52.5081,196.5465],[23.9878,52.5057,192.5892],[23.9842,52.4976,188.907],[23.9893,52.4927,185.9936],[23.9942,52.4903,185.4077],[24.0033,52.4909,173.3188],[24.018,52.4839,159.1619],[24.0235,52.4763,178.5454],[24.0196,52.4708,174.5574],[24.0345,52.4612,175.5814],[24.0306,52.4557,169.8212],[24.0214,52.4551,153.4795],[24.0172,52.4522,166.152],[24.0178,52.447,152.2124],[24.0276,52.4423,150.5584],[24.0322,52.4426,162.3735],[24.0407,52.4484,178.4486],[24.0499,52.449,167.5788],[24.064,52.4472,151.9614],[24.0738,52.4425,164.9839],[24.0791,52.4376,155.2308],[24.08,52.4297,149.9262],[24.0892,52.4303,149.8728],[24.0935,52.4332,147.2346],[24.1028,52.4337,147.6548],[24.1037,52.4259,147.2333],[24.1132,52.4238,157.7678],[24.1225,52.4243,161.297],[24.145,52.4309,177.8218],[24.1549,52.4262,155.9222],[24.1734,52.4273,168.4032],[24.1916,52.4309,178.4718],[24.1919,52.4283,180.6254],[24.1879,52.4228,173.0856],[24.1835,52.4199,170.5308],[24.1888,52.415,177.6157],[24.1986,52.4102,167.2256],[24.1899,52.4045,164.0163],[24.1902,52.4019,170.1479],[24.1862,52.3964,167.7399],[24.2102,52.3898,178.3763],[24.2149,52.3901,184.9992],[24.2189,52.3955,180.4169],[24.2282,52.396,180.261],[24.2707,52.3904,182.6518],[24.28,52.3909,183.9903],[24.2881,52.4019,171.5138],[24.3112,52.4031,162.0714],[24.3156,52.406,159.5208],[24.315,52.4112,150.4622],[24.3193,52.4141,156.9457],[24.3566,52.4133,146.6893],[24.365,52.4216,154.1064],[24.3742,52.4221,147.8811],[24.3839,52.4172,147.5197],[24.4023,52.418,151.184],[24.4244,52.4269,166.6209],[24.4467,52.4331,153.6453],[24.4462,52.4383,160.9122],[24.4362,52.4459,149.5653],[24.436,52.4485,160.0107],[24.4311,52.451,164.9507],[24.4303,52.4589,167.4905],[24.4435,52.4647,162.2769],[24.4532,52.4598,165.7655],[24.4623,52.4602,164.6853],[24.472,52.4552,156.8361],[24.4857,52.4557,149.4105],[24.4868,52.4452,147.4857],[24.506,52.4353,151.1293],[24.52,52.4331,159.0684],[24.5202,52.4305,160.973],[24.5122,52.4196,145.4583],[24.517,52.4171,146.5751],[24.5258,52.42,158.1171],[24.5309,52.4149,160.685],[24.5319,52.4044,163.3973],[24.5675,52.4135,173.0217],[24.5949,52.4117,156.05],[24.5992,52.4144,157.3895],[24.6173,52.415,149.9912],[24.6346,52.4235,157.5807],[24.6341,52.4288,157.7145],[24.6432,52.429,167.7036],[24.652,52.4319,162.8565],[24.6879,52.4356,151.6435],[24.7014,52.436,151.4826],[24.7152,52.4337,160.97],[24.7147,52.439,155.0951],[24.719,52.4418,154.9633],[24.7235,52.4419,154.6351],[24.7278,52.4447,154.6206],[24.7275,52.4474,154.688],[24.6935,52.473,157.8186],[24.6882,52.4809,153.3715],[24.692,52.4889,155.7551],[24.6963,52.4917,155.3026],[24.6961,52.4944,156.3786],[24.7049,52.4973,161.0482],[24.7039,52.5079,170.2527],[24.6798,52.5232,162.8614],[24.6795,52.5258,158.6235],[24.6879,52.5341,157.3671],[24.6826,52.5419,156.0594],[24.6809,52.5605,158.7431],[24.6708,52.5709,159.2531],[24.6706,52.5735,160.5682],[24.6842,52.5739,159.552],[24.693,52.5769,158.8888],[24.7011,52.5878,159.8766],[24.7097,52.5934,161.5173],[24.7362,52.6022,159.5054],[24.7448,52.6077,157.6111],[24.7395,52.6156,177.0194],[24.7207,52.623,155.0546],[24.7183,52.6497,169.2008],[24.7135,52.6522,162.2559],[24.7128,52.6602,154.1715],[24.7168,52.6656,168.9036],[24.7305,52.666,170.2994],[24.747,52.6852,164.4485],[24.7556,52.6908,172.5049],[24.7647,52.6911,164.7882],[24.7933,52.6759,164.8484],[24.8436,52.672,167.7378],[24.885,52.6651,168.0753],[24.8939,52.668,161.4364],[24.9165,52.6687,161.2372],[24.9257,52.6662,162.6532],[24.926,52.6636,153.3091],[24.9357,52.6558,161.6785],[24.9447,52.656,155.0338],[24.9529,52.6669,157.1704]]]]}
,"properties": {"GID_2": "BLR.1.14_1","GID_0": "BLR","country": "Belarus","GID_1": "BLR.1_1","province": "Brest","NL_NAME_1": "Брэсцкая","county": "Pruzhany","VARNAME_2": "Pruzhanu","NL_NAME_2": "Пружанскіраён","TYPE_2": "Raion","ENGTYPE_2": "District","CC_2": "NA","HASC_2": "BY.BR.PR","name": "Pruzhany.county","area_km2": 2802.365,"hist_schema_id": "Elevation0-9000","hist_area_km2": {"125": 4.062,"150": 1002.216,"175": 1483.016,"200": 306.087,"225": 6.985}}}