{"type":"Feature","properties":{"GID_2":"BLR.2.1_1","GID_0":"BLR","country":"Belarus","GID_1":"BLR.2_1","province":"Gomel","NL_NAME_1":"Гомельская","county":"Aktsyabar","VARNAME_2":"Oktyabrski","NL_NAME_2":"Акцябрскіраён","TYPE_2":"Raion","ENGTYPE_2":"District","CC_2":"NA","HASC_2":"BY.HO.OK","name":"Aktsyabar.county"},
"geometry":{"type": "MultiPolygon","coordinates": [[[[29.2427,52.524,153.7916],[29.2473,52.5294,150.9373],[29.243,52.5349,141.8575],[29.2385,52.5377,141.0934],[29.234,52.5377,146.5667],[29.2344,52.554,139.4842],[29.2392,52.5621,138.5384],[29.2393,52.5676,138.5062],[29.2349,52.5704,139.6862],[29.2351,52.5785,138.8225],[29.2443,52.5838,138.9711],[29.2488,52.5838,140.6539],[29.2626,52.5945,140.2004],[29.2717,52.5943,143.2253],[29.285,52.586,155.1065],[29.2986,52.5858,142.508],[29.3123,52.591,151.5829],[29.3214,52.5963,154.6223],[29.3217,52.6045,157.8019],[29.3174,52.6127,156.4753],[29.322,52.6154,140.6466],[29.3221,52.6181,149.4808],[29.3449,52.626,143.6816],[29.3539,52.6258,142.9174],[29.3585,52.6285,135.9436],[29.3586,52.6312,137.1572],[29.3542,52.634,133.8707],[29.3498,52.6395,133.2524],[29.3499,52.6422,133.7453],[29.3454,52.645,134.8772],[29.3364,52.6451,149.5832],[29.3273,52.6425,135.243],[29.3138,52.6455,145.0658],[29.3001,52.6402,139.4772],[29.291,52.6403,144.6823],[29.282,52.6432,154.8571],[29.2459,52.6464,148.6711],[29.237,52.652,138.5051],[29.2234,52.6521,141.879],[29.2188,52.6495,148.6314],[29.2186,52.6413,143.6926],[29.2006,52.6443,143.2736],[29.1961,52.6471,142.7183],[29.1963,52.6525,144.9482],[29.2099,52.6523,151.2543],[29.21,52.6578,139.0072],[29.1876,52.669,138.4589],[29.1878,52.6771,147.2036],[29.179,52.6881,140.2075],[29.1792,52.6963,146.8371],[29.1838,52.6989,160.1992],[29.184,52.7071,141.1062],[29.1888,52.7152,144.2896],[29.2027,52.7259,160.7063],[29.2027,52.7286,159.2053],[29.2121,52.7394,169.3238],[29.2168,52.7475,145.4653],[29.217,52.7529,156.1673],[29.208,52.7585,162.4923],[29.2081,52.7612,155.7599],[29.2173,52.7665,155.8142],[29.2308,52.7609,169.8],[29.2353,52.7609,169.9818],[29.2446,52.7689,164.5837],[29.2447,52.7743,161.123],[29.2542,52.7878,138.1602],[29.2497,52.7906,138.4693],[29.2453,52.7961,144.2493],[29.2318,52.799,140.1049],[29.1954,52.7995,140.3554],[29.1863,52.7969,140.6424],[29.1773,52.7997,141.0118],[29.1728,52.8052,140.6162],[29.1637,52.8026,141.4164],[29.1546,52.8027,142.2914],[29.1501,52.8055,157.0292],[29.1503,52.8137,167.0399],[29.1229,52.8086,161.5559],[29.1093,52.8087,152.6489],[29.1048,52.8115,162.9369],[29.1054,52.8387,155.454],[29.101,52.8415,150.0031],[29.1012,52.8524,168.1885],[29.0967,52.8524,158.097],[29.0925,52.8688,149.8923],[29.088,52.8743,143.5878],[29.0698,52.8718,158.1124],[29.0516,52.872,162.9676],[29.015,52.867,187.3593],[29.0014,52.8672,177.4953],[28.9967,52.8618,172.4841],[29.0011,52.8536,183.4192],[29.0009,52.8427,172.6617],[28.9869,52.8265,150.7626],[28.9731,52.8213,153.0052],[28.9685,52.8159,142.0862],[28.9684,52.8104,141.9195],[28.9545,52.7997,141.316],[28.9315,52.7864,144.5212],[28.9269,52.781,147.3358],[28.9177,52.7757,141.0059],[28.904,52.7758,153.3673],[28.8904,52.7733,147.8326],[28.8812,52.7707,149.1125],[28.8812,52.7679,156.5976],[28.872,52.7626,142.579],[28.8583,52.7628,148.6827],[28.8358,52.7712,149.3058],[28.8267,52.7713,148.5545],[28.8221,52.7686,137.6669],[28.822,52.7659,148.6205],[28.8173,52.7578,150.9753],[28.8262,52.7441,155.2974],[28.8307,52.7413,152.9652],[28.8488,52.7384,151.0005],[28.8488,52.7357,145.3513],[28.8396,52.7304,141.7523],[28.8395,52.7276,143.6273],[28.8531,52.722,154.4398],[28.853,52.7193,156.7647],[28.8484,52.7167,144.6835],[28.8439,52.7194,136.6653],[28.8167,52.7197,148.2863],[28.8076,52.7171,152.2297],[28.803,52.7145,149.1379],[28.7984,52.7091,144.9347],[28.7847,52.7038,148.4935],[28.78,52.6984,143.5961],[28.7799,52.693,136.8052],[28.7708,52.6876,143.5971],[28.7618,52.6932,131.9528],[28.7618,52.6959,132.2552],[28.7392,52.7043,132.0333],[28.7256,52.7044,131.6198],[28.7073,52.6938,149.0269],[28.7028,52.6938,132.4717],[28.6892,52.6994,140.1323],[28.6665,52.7024,142.9585],[28.6529,52.7025,164.1386],[28.6438,52.6999,161.807],[28.6437,52.6944,140.0474],[28.6391,52.6918,139.5629],[28.6255,52.6946,149.9591],[28.621,52.692,154.146],[28.6255,52.6892,137.8681],[28.6209,52.6865,137.4676],[28.6072,52.684,147.632],[28.6027,52.6867,141.5582],[28.5756,52.6951,145.528],[28.5528,52.6927,155.318],[28.5391,52.6874,154.978],[28.5256,52.6957,146.1977],[28.521,52.6957,135.7613],[28.5073,52.6877,135.1809],[28.5073,52.685,135.9506],[28.4844,52.6716,134.3416],[28.4616,52.6664,142.8889],[28.4479,52.6584,134.6352],[28.4478,52.6448,134.3479],[28.4523,52.6421,136.3355],[28.4522,52.6339,142.0432],[28.4566,52.6122,147.6311],[28.4564,52.5959,136.4467],[28.4609,52.585,133.0283],[28.4607,52.5633,132.5365],[28.4651,52.5524,131.9383],[28.456,52.547,138.2466],[28.5058,52.5384,132.4344],[28.5284,52.5382,132.0788],[28.5375,52.5354,138.5194],[28.542,52.5326,129.8197],[28.5418,52.5217,131.2144],[28.5463,52.5163,131.9547],[28.5508,52.5135,141.348],[28.6052,52.5211,143.9913],[28.637,52.5289,133.2681],[28.6371,52.537,138.0123],[28.6417,52.5397,143.3174],[28.6507,52.5396,129.9362],[28.6507,52.5341,134.5637],[28.6552,52.5314,128.8831],[28.6688,52.5366,138.5992],[28.6824,52.5392,135.5592],[28.705,52.5362,144.6982],[28.7774,52.5354,146.3121],[28.782,52.5381,145.019],[28.7775,52.5436,145.0565],[28.7776,52.549,148.6279],[28.7822,52.5517,147.8869],[28.7912,52.5515,145.9102],[28.7913,52.5543,143.0101],[28.7868,52.5597,130.5855],[28.7869,52.5652,139.4695],[28.796,52.5678,144.316],[28.7962,52.5759,142.8286],[28.8052,52.5758,145.8857],[28.8142,52.573,146.646],[28.8371,52.5891,139.2102],[28.8462,52.5889,129.7411],[28.8553,52.5916,130.2859],[28.8598,52.5915,129.9754],[28.8597,52.5861,130.4088],[28.8687,52.5832,130.2902],[28.8823,52.5831,134.7828],[28.8822,52.5776,131.2586],[28.8683,52.5588,143.8401],[28.8728,52.556,147.6015],[28.8726,52.5479,131.6721],[28.8772,52.5478,130.346],[28.8816,52.545,144.0199],[28.877,52.5397,147.54],[28.8815,52.5369,146.8047],[28.886,52.5396,146.7555],[28.895,52.534,137.2215],[28.8949,52.5286,144.2067],[28.8675,52.5126,136.5426],[28.8674,52.5072,148.8428],[28.8764,52.5043,150.619],[28.8809,52.507,154.4221],[28.8945,52.5096,151.1601],[28.9035,52.504,148.7949],[28.8989,52.5014,147.0472],[28.8987,52.4932,147.0149],[28.9123,52.4958,147.0922],[28.9169,52.4984,149.5316],[28.9214,52.4984,151.6885],[28.9214,52.4956,152.8292],[28.9258,52.4929,147.6608],[28.9258,52.4902,134.5909],[28.9212,52.4848,129.3642],[28.8984,52.4769,135.8196],[28.8893,52.4716,135.7546],[28.8893,52.4689,127.949],[28.93,52.4765,130.7685],[28.9662,52.4788,129.7449],[29.007,52.4864,149.6053],[29.0116,52.4918,132.2446],[29.0071,52.4918,131.3017],[29.0072,52.4946,137.8138],[29.0118,52.4972,137.8187],[29.0208,52.4971,135.0718],[29.0252,52.4916,131.5312],[29.0296,52.4888,133.2299],[29.0297,52.4915,132.0986],[29.0343,52.4969,131.3999],[29.0344,52.4996,139.3448],[29.039,52.5023,146.6929],[29.0435,52.5022,131.9071],[29.0434,52.4968,130.9607],[29.0478,52.494,130.7108],[29.0569,52.493899999999996,135.7083],[29.0705,52.4964,151.7168],[29.075,52.4991,130.8357],[29.0795,52.499,130.2121],[29.1023,52.5069,149.5114],[29.1022,52.5042,147.8929],[29.1067,52.5041,148.1223],[29.0975,52.4934,140.2006],[29.0971,52.4771,135.1439],[29.1062,52.4824,130.3559],[29.1064,52.4905,154.6748],[29.1156,52.4986,139.8847],[29.1158,52.5067,148.9227],[29.1205,52.5121,132.0349],[29.1296,52.5147,133.8425],[29.1296,52.5174,132.9941],[29.1342,52.5201,133.7708],[29.1387,52.5173,134.7234],[29.143,52.5118,137.9622],[29.1429,52.5036,132.9855],[29.1382,52.4982,146.0257],[29.138,52.4901,131.3456],[29.1425,52.4873,132.0374],[29.1562,52.4953,149.9848],[29.1652,52.4952,149.0308],[29.1785,52.4868,146.1212],[29.1876,52.4867,148.7832],[29.2105,52.5027,152.0474],[29.2062,52.5109,153.5272],[29.2063,52.5136,152.1809],[29.22,52.5189,151.3127],[29.229,52.5187,139.7106],[29.2427,52.524,153.7916]]]]}}