{"type": "Feature","bbox": [29.111,53.1219,29.9511,53.5724],"geometry": {"type": "MultiPolygon","coordinates": [[[[29.9362,53.299,132.5415],[29.9408,53.299,132.6763],[29.9456,53.3044,133.549],[29.9503,53.307,138.426],[29.937,53.3181,133.9536],[29.9511,53.3261,133.7755],[29.9466,53.3289,133.6909],[29.933,53.3319,149.4372],[29.9285,53.3347,145.9473],[29.9199,53.3457,134.2595],[29.9201,53.3512,134.3595],[29.9295,53.3592,168.623],[29.9298,53.3647,167.1715],[29.88,53.3791,139.0929],[29.8754,53.3792,141.7751],[29.871,53.382,153.7249],[29.8711,53.3847,143.4719],[29.8759,53.3901,136.4116],[29.8761,53.3955,138.5357],[29.8808,53.3982,156.5588],[29.881,53.4037,159.3241],[29.8764,53.4037,136.2633],[29.8766,53.4092,136.5356],[29.8632,53.4176,140.698],[29.8633,53.4203,139.1255],[29.868,53.423,138.1476],[29.8637,53.4312,157.6084],[29.8549,53.4396,158.1837],[29.8551,53.445,167.8322],[29.8644,53.4504,156.2419],[29.8645,53.4531,146.124],[29.8601,53.4559,141.5],[29.8555,53.4559,141.5],[29.8467,53.467,141.5],[29.833,53.4672,141.5],[29.8239,53.4701,141.6288],[29.8055,53.4703,142.0252],[29.8011,53.4731,164.9836],[29.8013,53.4786,173.4045],[29.8246,53.4892,171.1242],[29.825,53.5001,176.8181],[29.7844,53.5198,177.4757],[29.7668,53.5419,180.2254],[29.7672,53.5528,162.3299],[29.7585,53.5666,182.3408],[29.7449,53.5722,161.6894],[29.7311,53.5724,163.0881],[29.731,53.5697,168.4541],[29.7264,53.5697,164.5681],[29.7078,53.5645,169.498],[29.6976,53.5373,178.1832],[29.6839,53.5402,168.7104],[29.6749,53.5458,170.6114],[29.6703,53.5459,170.5446],[29.6609,53.5405,181.5264],[29.6517,53.5407,171.7767],[29.6518,53.5434,180.8852],[29.6426,53.5435,178.7573],[29.6424,53.538,184.3497],[29.6283,53.53,181.7668],[29.6189,53.522,167.9043],[29.6188,53.5192,171.4128],[29.6046,53.5085,161.3572],[29.5998,53.5004,179.6851],[29.5763,53.487,168.905],[29.5566,53.4463,173.1007],[29.5564,53.4409,171.2196],[29.5517,53.4355,173.63],[29.5424,53.4329,175.4887],[29.5286,53.433,159.4239],[29.4912,53.4117,161.3416],[29.4911,53.409,159.6209],[29.4817,53.4009,161.6659],[29.4723,53.3955,163.7037],[29.4676,53.3901,184.3391],[29.4629,53.3875,176.2693],[29.4538,53.3903,171.4604],[29.4398,53.385,162.4278],[29.4397,53.3796,175.6604],[29.4534,53.3794,153.6682],[29.4533,53.374,172.3716],[29.4256,53.3688,153.7982],[29.4162,53.3635,170.0807],[29.4025,53.3637,153.7797],[29.398,53.3692,154.5222],[29.3708,53.3831,170.6071],[29.3617,53.3833,167.8111],[29.357,53.3806,162.5474],[29.3475,53.3698,171.057],[29.3379,53.3535,169.5403],[29.3237,53.3401,178.2693],[29.3236,53.3373,176.7292],[29.3145,53.3375,161.5381],[29.3008,53.3431,164.2921],[29.287,53.3432,153.4398],[29.2868,53.3323,149.8935],[29.2589,53.3218,160.442],[29.2451,53.3192,158.4484],[29.2314,53.3221,155.4902],[29.213,53.3223,154.6545],[29.1899,53.3171,157.01],[29.1806,53.3118,165.8129],[29.1758,53.3036,162.5658],[29.1712,53.301,151.323],[29.1664,53.2956,158.7168],[29.1664,53.2928,156.2864],[29.1617,53.2902,155.1129],[29.1432,53.2849,152.2964],[29.1476,53.2767,149.2341],[29.143,53.274,154.7804],[29.1249,53.2878,142.4078],[29.1158,53.288,155.7715],[29.111,53.2826,138.2209],[29.1201,53.277,140.8768],[29.1244,53.2661,143.9389],[29.1377,53.2468,137.5203],[29.1469,53.2467,137.1607],[29.1561,53.2493,137.631],[29.1607,53.2466,137.0166],[29.1606,53.2438,136.9798],[29.156,53.2412,137.0862],[29.1559,53.2384,138.8808],[29.1604,53.2357,163.0398],[29.1696,53.2356,147.0914],[29.1696,53.2383,136.5925],[29.1877,53.2272,156.1456],[29.229,53.2267,136.7187],[29.2289,53.224,137.0225],[29.2242,53.2186,136.0532],[29.2241,53.2158,136.2037],[29.2421,53.2047,135.7247],[29.2464,53.1911,136.02],[29.2509,53.1883,135.6539],[29.2601,53.1909,136.2832],[29.2603,53.1963,136.452],[29.2696,53.2017,140.8978],[29.2879,53.2015,171.0892],[29.2878,53.1987,173.3729],[29.2831,53.1933,169.3268],[29.2872,53.1742,168.8362],[29.2916,53.1687,159.02],[29.3006,53.1631,149.1424],[29.3004,53.1577,142.8426],[29.3094,53.1521,143.9993],[29.3094,53.1494,150.2513],[29.3139,53.1493,163.9088],[29.328,53.1601,169.5209],[29.3372,53.1627,171.5315],[29.3466,53.1707,160.1024],[29.3468,53.1789,163.392],[29.3424,53.1844,163.7799],[29.3333,53.1873,174.2991],[29.3104,53.1875,160.2626],[29.306,53.1931,183.0207],[29.306,53.1958,161.399],[29.3107,53.1985,181.517],[29.3199,53.2011,173.72],[29.3291,53.201,183.5202],[29.3382,53.1981,184.6172],[29.3885,53.1975,178.6551],[29.4157,53.1862,152.967],[29.4385,53.1859,151.2223],[29.4525,53.1939,171.1192],[29.4662,53.1938,154.1947],[29.4707,53.191,154.2182],[29.466,53.1856,153.0444],[29.4655,53.1719,160.1645],[29.4788,53.1581,150.8477],[29.4876,53.1444,145.5396],[29.4966,53.1415,147.2918],[29.5331,53.141,139.8063],[29.5378,53.1437,140.949],[29.5333,53.1465,140.6407],[29.538,53.1492,141.2784],[29.5471,53.149,152.1271],[29.5567,53.1625,154.4637],[29.5568,53.1653,154.0482],[29.5613,53.1652,154.2423],[29.5703,53.1596,151.4589],[29.5748,53.1596,151.8951],[29.5751,53.1678,151.951],[29.5844,53.1731,152.521],[29.5981,53.1729,151.0632],[29.6073,53.1755,150.0451],[29.6076,53.1837,149.643],[29.6168,53.1863,149.7872],[29.6442,53.1859,147.945],[29.6441,53.1832,147.9913],[29.6346,53.1724,151.4019],[29.6345,53.1669,151.7205],[29.6389,53.1641,152.7748],[29.6435,53.1641,151.0935],[29.6527,53.1667,147.0224],[29.6664,53.1665,150.0737],[29.6709,53.1637,148.4939],[29.666,53.1556,145.0023],[29.6702,53.1446,145.8038],[29.6746,53.1391,147.3454],[29.7021,53.1441,139.8535],[29.7066,53.1413,141.8433],[29.7064,53.1359,139.9098],[29.7106,53.1276,139.0163],[29.7195,53.122,144.5634],[29.7286,53.1219,138.7797],[29.7792,53.1348,159.5491],[29.7794,53.1403,163.8488],[29.766,53.1459,148.1297],[29.7661,53.1487,143.6198],[29.7708,53.1513,142.5037],[29.7892,53.1565,145.1256],[29.7893,53.1592,148.0372],[29.7803,53.1621,142.5651],[29.7759,53.1676,144.6401],[29.7761,53.1731,145.972],[29.7537,53.1843,147.6983],[29.7584,53.187,146.8824],[29.786,53.192,146.5514],[29.7863,53.2002,143.4316],[29.7954,53.2001,143.0124],[29.8047,53.2054,144.4695],[29.7961,53.2192,145.6613],[29.7963,53.2247,147.4718],[29.8011,53.23,151.3039],[29.797,53.2438,171.2879],[29.7837,53.2521,163.1993],[29.7793,53.2577,152.8837],[29.775,53.2659,165.7206],[29.7758,53.2878,171.1983],[29.7624,53.2961,164.4474],[29.7626,53.3016,165.5599],[29.7721,53.3097,164.7699],[29.7722,53.3124,164.6158],[29.7905,53.3121,161.202],[29.809,53.3173,167.5348],[29.8092,53.3228,167.7548],[29.8141,53.3309,149.7939],[29.8142,53.3336,151.9373],[29.8467,53.3468,152.8948],[29.8605,53.3493,147.8278],[29.864,53.322,169.8621],[29.8685,53.3192,155.7871],[29.8776,53.319,163.2321],[29.8961,53.3242,168.1823],[29.8962,53.327,175.016],[29.8918,53.3298,173.9432],[29.8919,53.3325,169.8432],[29.9059,53.3405,155.8823],[29.9105,53.3404,151.7493],[29.9104,53.3377,151.8134],[29.9236,53.3265,143.7869],[29.9235,53.3238,142.8967],[29.9187,53.3184,139.1862],[29.905,53.3186,149.075],[29.9049,53.3159,154.7325],[29.9003,53.3132,161.722],[29.9046,53.3077,172.1116],[29.9091,53.3049,163.5681],[29.9228,53.3047,175.3884],[29.9317,53.2991,144.6605],[29.9362,53.299,132.5415]]]]}
,"properties": {"GID_2": "BLR.4.12_1","GID_0": "BLR","country": "Belarus","GID_1": "BLR.4_1","province": "Mogilev","NL_NAME_1": "Магілёўская","county": "Kirawsk","VARNAME_2": "Kirovsk","NL_NAME_2": "Кіраўскіраён","TYPE_2": "Raion","ENGTYPE_2": "District","CC_2": "NA","HASC_2": "BY.MA.KI","name": "Kirawsk.county","area_km2": 1281.0191,"hist_schema_id": "Elevation0-9000","hist_area_km2": {"125": 25.3227,"150": 626.7336,"175": 577.4024,"200": 51.5604}}}