{"type": "Feature","bbox": [27.0168,52.4054,28.0014,52.9579],"geometry": {"type": "MultiPolygon","coordinates": [[[[27.0191,52.6812,159.5161],[27.0195,52.6622,146.774],[27.024,52.6595,146.7762],[27.0466,52.6596,152.3529],[27.0557,52.6569,153.2406],[27.0605,52.6434,146.5072],[27.079,52.6163,152.9631],[27.0791,52.6136,151.556],[27.0475,52.6136,154.8153],[27.0431,52.6108,151.2715],[27.0479,52.5919,153.4208],[27.0481,52.5838,154.3027],[27.0572,52.5784,155.6743],[27.0753,52.5757,149.3143],[27.0753,52.573,155.4317],[27.0709,52.5676,151.7051],[27.071,52.5649,148.7255],[27.0756,52.5595,157.2072],[27.0757,52.5541,147.5056],[27.0668,52.5486,157.2646],[27.0444,52.5486,142.8645],[27.0444,52.5459,143.8196],[27.0671,52.5351,159.7145],[27.0722,52.5054,142.0756],[27.0767,52.5027,143.3705],[27.0902,52.5,142.7209],[27.1352,52.5,155.2349],[27.1354,52.4865,150.963],[27.1404,52.4622,137.8334],[27.1628,52.4622,137.8487],[27.1674,52.4595,137.4985],[27.1676,52.4487,137.3351],[27.1724,52.4297,136.3138],[27.2264,52.4298,136.1755],[27.2354,52.4271,135.6755],[27.2355,52.4217,135.4668],[27.2491,52.4136,135.2161],[27.2718,52.4054,134.7518],[27.2898,52.4055,134.9331],[27.3078,52.4109,135.0527],[27.3168,52.4163,136.5785],[27.3347,52.4325,150.457],[27.3572,52.4379,149.6651],[27.3706,52.446,143.9738],[27.3751,52.4541,146.2857],[27.3841,52.4595,156.5626],[27.384,52.4649,149.1597],[27.3702,52.4866,154.4725],[27.361,52.4974,146.9068],[27.361,52.5028,150.9857],[27.3654,52.5082,148.9914],[27.3836,52.5055,155.6842],[27.3926,52.5109,154.359],[27.3925,52.519,153.0859],[27.424,52.5406,139.6336],[27.433,52.5433,140.521],[27.4467,52.5351,139.8709],[27.4649,52.5297,139.5963],[27.4739,52.5296,140.244],[27.4829,52.5432,142.7047],[27.4919,52.5485,139.5973],[27.4965,52.5485,140.2551],[27.5101,52.5431,143.3887],[27.5238,52.5403,145.3153],[27.5374,52.5403,139.2217],[27.551,52.5429,155.1019],[27.5555,52.5456,155.9707],[27.5645,52.5537,155.4127],[27.5645,52.5591,154.8573],[27.5781,52.556399999999996,150.526],[27.5827,52.5537,151.5674],[27.5827,52.5482,159.2007],[27.5873,52.5455,156.3098],[27.5964,52.5455,160.3673],[27.6054,52.5509,155.0228],[27.6372,52.5534,147.7724],[27.6418,52.5507,142.1901],[27.6464,52.5399,138.0638],[27.6555,52.5371,137.3729],[27.6555,52.5344,138.4429],[27.6419,52.5264,137.3149],[27.6419,52.5236,137.6954],[27.6465,52.5209,139.9602],[27.6511,52.5155,139.3943],[27.6511,52.5128,142.6363],[27.6466,52.5047,145.542],[27.6466,52.502,148.2395],[27.6511,52.4965,138.7166],[27.6557,52.4938,136.0534],[27.692,52.4936,136.0391],[27.7011,52.4909,135.9199],[27.7057,52.4882,136.5651],[27.7103,52.48,135.7284],[27.7194,52.4692,136.1726],[27.7376,52.4582,141.8025],[27.7376,52.4501,144.9851],[27.7422,52.4447,143.9626],[27.7467,52.442,148.3139],[27.8513,52.4413,135.2346],[27.8604,52.4385,135.3852],[27.9104,52.4328,135.4932],[27.9377,52.4326,138.1031],[27.9559,52.4378,136.9503],[27.9695,52.4404,141.4884],[27.9786,52.4404,135.8506],[27.9877,52.4538,136.2143],[27.9877,52.4619,138.6799],[27.9831,52.4647,140.5286],[27.9832,52.4755,148.6098],[27.9968,52.4835,140.592],[28.0014,52.4916,146.6059],[27.9968,52.4998,142.5019],[27.9968,52.5052,144.7069],[27.9923,52.5079,146.9467],[27.9923,52.5188,162.127],[27.9832,52.5242,163.7261],[27.9787,52.5324,158.8802],[27.9696,52.5379,156.1279],[27.965,52.5569,141.5182],[27.9559,52.5624,138.8171],[27.9559,52.5651,138.0376],[27.9468,52.5679,137.3965],[27.9286,52.568,137.6833],[27.9195,52.5653,137.6261],[27.9012,52.5655,137.5703],[27.8967,52.5709,137.6238],[27.8967,52.5926,137.2857],[27.8921,52.6062,139.8094],[27.883,52.6171,157.554],[27.8875,52.6197,160.3708],[27.8875,52.6224,155.8364],[27.8967,52.6224,142.4815],[27.8967,52.6305,156.7656],[27.8921,52.6414,138.8816],[27.8875,52.6441,138.8739],[27.8784,52.6442,139.5251],[27.8739,52.6388,138.8757],[27.8693,52.6388,138.9342],[27.8647,52.6416,139.018],[27.8647,52.647,139.2353],[27.851,52.6552,155.5937],[27.8191,52.6527,149.8637],[27.8145,52.6554,143.9246],[27.8054,52.6663,156.5625],[27.8008,52.6826,142.7585],[27.8008,52.6907,140.5949],[27.7962,52.6935,141.9341],[27.7962,52.6962,143.493],[27.7825,52.7098,141.5127],[27.7688,52.7153,142.9722],[27.7642,52.7153,144.0791],[27.7597,52.7126,146.2282],[27.7551,52.7154,144.1039],[27.7414,52.7154,142.9253],[27.7414,52.7181,143.6979],[27.7368,52.7236,144.0223],[27.7368,52.7317,143.9451],[27.723,52.7453,145.1691],[27.7093,52.7562,142.7463],[27.7093,52.759,143.9492],[27.7184,52.7643,143.0056],[27.7413,52.7642,143.7836],[27.7504,52.7723,145.099],[27.7549,52.7885,150.2079],[27.7549,52.8048,152.7417],[27.7457,52.8157,155.0429],[27.7502,52.8184,155.2744],[27.7777,52.821,160.5884],[27.7868,52.8236,161.5571],[27.7777,52.8291,172.3577],[27.7685,52.8291,173.7372],[27.7685,52.8373,177.1286],[27.7593,52.8427,189.0811],[27.7639,52.8454,186.7346],[27.7685,52.8508,185.6747],[27.7685,52.8535,192.9765],[27.7547,52.8645,175.0863],[27.7455,52.8808,164.5582],[27.7455,52.8835,163.5725],[27.7409,52.8862,152.9507],[27.7363,52.8917,150.8015],[27.7363,52.8944,150.5938],[27.7317,52.8944,150.5647],[27.7272,52.8917,150.3208],[27.7226,52.8945,149.756],[27.718,52.8999,157.6064],[27.6997,52.9,150.8424],[27.6768,52.8947,149.2777],[27.6676,52.8974,147.5665],[27.6585,52.8974,148.2015],[27.6448,52.8894,145.528],[27.6311,52.884,147.591],[27.6174,52.8759,146.5206],[27.6037,52.8651,155.6408],[27.5946,52.8624,164.9883],[27.5762,52.8733,160.4659],[27.5762,52.8761,157.6629],[27.599,52.8868,150.1102],[27.5899,52.8896,150.3323],[27.5807,52.8896,150.6266],[27.5532,52.9005,147.8577],[27.544,52.906,150.0713],[27.544,52.9114,151.17],[27.5531,52.9195,150.4205],[27.553,52.9249,152.9166],[27.5439,52.9304,175.0073],[27.5392,52.9358,169.4891],[27.5301,52.9359,157.5035],[27.5072,52.9305,152.5241],[27.5027,52.9278,150.7426],[27.5028,52.9115,150.6661],[27.4937,52.9088,152.879],[27.4662,52.9089,154.7614],[27.4571,52.9062,154.5646],[27.457,52.9143,153.7892],[27.4524,52.917,153.3812],[27.4296,52.9171,155.3802],[27.4205,52.9144,155.529],[27.4068,52.9036,158.2224],[27.3932,52.8982,166.818],[27.3796,52.8901,171.1735],[27.3659,52.8847,170.9392],[27.3568,52.8847,173.8006],[27.3476,52.8874,171.6576],[27.3248,52.8901,171.0128],[27.3065,52.8901,165.2416],[27.2973,52.8956,168.5434],[27.2972,52.9037,164.8612],[27.2926,52.9064,162.1353],[27.2789,52.9091,160.7624],[27.2698,52.9091,160.2879],[27.2606,52.9118,160.5103],[27.2788,52.9227,161.9135],[27.2878,52.9308,164.1345],[27.2878,52.9335,164.3329],[27.251,52.9498,161.905],[27.2281,52.9552,158.1391],[27.2235,52.9579,158.9996],[27.2144,52.9579,159.3964],[27.1871,52.9498,158.8567],[27.1872,52.9416,156.8999],[27.1965,52.9308,161.0978],[27.1875,52.9254,160.8429],[27.1602,52.9199,164.6948],[27.1557,52.9172,164.9307],[27.1558,52.9118,168.5852],[27.1696,52.9009,163.4074],[27.1742,52.8955,159.31],[27.1743,52.8928,171.1183],[27.1698,52.8901,157.7682],[27.1516,52.8874,160.9446],[27.1244,52.8765,161.7643],[27.1245,52.8711,163.3818],[27.1383,52.8657,166.1026],[27.1475,52.8548,156.9405],[27.1476,52.8494,150.752],[27.1431,52.844,152.5521],[27.1252,52.8304,162.1664],[27.1207,52.825,170.4504],[27.1162,52.8223,168.442],[27.1071,52.8223,149.6253],[27.0979,52.8304,172.7072],[27.0796,52.8358,151.3487],[27.0706,52.833,149.239],[27.0569,52.8384,149.372],[27.0478,52.8384,151.4178],[27.0343,52.8329,149.0],[27.0298,52.8275,149.0],[27.03,52.8194,153.1572],[27.0255,52.8167,169.3554],[27.0257,52.8085,168.7049],[27.0212,52.8058,159.3397],[27.0213,52.8004,158.865],[27.0168,52.7977,151.8368],[27.017,52.7895,152.2036],[27.0261,52.7868,173.1463],[27.0262,52.7787,161.3734],[27.0447,52.7598,162.6929],[27.0448,52.7571,155.1618],[27.0359,52.7462,165.6001],[27.036,52.7408,162.2792],[27.0316,52.7327,161.5399],[27.0317,52.73,156.3367],[27.0363,52.7246,150.5229],[27.0409,52.7219,150.9394],[27.0545,52.7219,149.66],[27.0681,52.7165,150.569],[27.0684,52.703,152.3067],[27.073,52.6976,154.1856],[27.0596,52.6894,145.4676],[27.0191,52.6812,159.5161]]]]}
,"properties": {"GID_2": "BLR.5.15_1","GID_0": "BLR","country": "Belarus","GID_1": "BLR.5_1","province": "Minsk","NL_NAME_1": "Мінская","county": "Salihorsk","VARNAME_2": "Soligorsk","NL_NAME_2": "Салігорскіраён","TYPE_2": "Raion","ENGTYPE_2": "District","CC_2": "NA","HASC_2": "BY.MI.SO","name": "Salihorsk.county","area_km2": 2482.988,"hist_schema_id": "Elevation0-9000","hist_area_km2": {"125": 109.449,"150": 2136.524,"175": 232.111,"200": 1.985,"225": 1.447,"250": 0.935,"275": 0.512,"300": 0.026}}}