{"type":"Feature","properties":{"GID_2":"BLR.3.13_1","GID_0":"BLR","country":"Belarus","GID_1":"BLR.3_1","province":"Grodno","NL_NAME_1":"Гродзенская","county":"Slonim","VARNAME_2":"NA","NL_NAME_2":"Слонімскіраён","TYPE_2":"Raion","ENGTYPE_2":"District","CC_2":"NA","HASC_2":"BY.HR.SL","name":"Slonim.county"},
"geometry":{"type": "MultiPolygon","coordinates": [[[[25.5947,53.2401,212.5991],[25.5808,53.2424,199.5331],[25.5523,53.2579,232.1855],[25.5521,53.2606,228.8577],[25.542,53.2739,195.5276],[25.5376,53.2711,194.9283],[25.538,53.2657,192.2131],[25.5338,53.2602,188.7607],[25.52,53.2625,186.124],[25.5204,53.2571,179.7464],[25.5251,53.2545,195.0302],[25.5253,53.2518,192.4377],[25.5212,53.2463,173.4253],[25.5075,53.246,196.1048],[25.4988,53.2404,190.3355],[25.4946,53.2349,184.1297],[25.4903,53.2321,205.3931],[25.4857,53.2319,199.6024],[25.481,53.2345,202.7381],[25.4719,53.2343,198.6512],[25.4723,53.2289,191.3133],[25.4679,53.2261,180.4262],[25.4497,53.2256,167.3719],[25.4454,53.2228,165.2168],[25.4263,53.2331,178.538],[25.4214,53.2384,190.7292],[25.421,53.2438,189.8613],[25.4113,53.2516,197.503],[25.4024,53.2487,197.1459],[25.3933,53.2484,206.9815],[25.3837,53.2536,208.4585],[25.3786,53.2615,193.0682],[25.3726,53.2803,204.473],[25.363,53.2854,195.6385],[25.3268,53.2817,168.5226],[25.3038,53.2838,158.9657],[25.2942,53.2889,159.7903],[25.2938,53.2943,172.8271],[25.2843,53.2994,156.8037],[25.2434,53.2956,141.7665],[25.2445,53.2822,157.2617],[25.2217,53.2815,135.0928],[25.2228,53.2681,144.9181],[25.2141,53.2624,130.0115],[25.2002,53.2648,126.6151],[25.201,53.254,129.501],[25.1871,53.2563,123.4107],[25.1728,53.264,124.246],[25.1593,53.2609,122.7783],[25.15,53.2633,121.4268],[25.1363,53.2629,122.4876],[25.1185,53.257,125.074],[25.1144,53.2515,125.5879],[25.1148,53.2462,126.3621],[25.102,53.235,127.6199],[25.1024,53.2296,141.2431],[25.1074,53.2244,141.1553],[25.1079,53.219,143.1848],[25.1037,53.2135,132.2037],[25.0809,53.2129,133.2771],[25.0722,53.2072,150.8919],[25.0631,53.207,152.1675],[25.0588,53.2041,145.7007],[25.0542,53.204,149.5718],[25.0547,53.1986,152.9476],[25.0649,53.1855,160.0119],[25.0653,53.1801,163.3738],[25.0749,53.175,165.5767],[25.084,53.1753,160.9968],[25.0888,53.1727,151.6361],[25.0892,53.1673,159.9814],[25.0942,53.1621,160.2758],[25.1077,53.1652,160.4478],[25.1127,53.1599,161.7479],[25.122,53.1575,160.217],[25.1311,53.1578,161.7397],[25.1355,53.1606,158.897],[25.14,53.1607,160.4036],[25.1541,53.1557,158.1761],[25.1678,53.1561,171.4011],[25.1771,53.1537,177.9625],[25.1821,53.1484,174.5793],[25.1873,53.1405,166.1384],[25.1875,53.1378,163.6532],[25.1831,53.135,165.0229],[25.1836,53.1296,166.0391],[25.1796,53.1214,200.1273],[25.1751,53.1213,194.7614],[25.1703,53.1239,162.7782],[25.1658,53.1238,159.7071],[25.1614,53.1209,162.9903],[25.1619,53.1156,170.8405],[25.1762,53.1079,204.5183],[25.1718,53.1051,206.8786],[25.172,53.1024,209.8026],[25.1627,53.1048,205.9925],[25.1493,53.1018,194.6457],[25.1445,53.1043,185.6011],[25.1443,53.107,189.0948],[25.135,53.1094,187.7747],[25.1261,53.1065,196.9393],[25.1125,53.1061,197.8532],[25.1031,53.1086,212.3725],[25.1025,53.1166,198.7108],[25.0977,53.1192,198.0352],[25.0886,53.118899999999996,195.9273],[25.0797,53.116,197.9308],[25.0478,53.115,178.9746],[25.0109,53.1193,203.1726],[25.0016,53.1218,196.3224],[24.992,53.1268,208.872],[24.9874,53.1267,203.5773],[24.9831,53.1239,204.0675],[24.9929,53.1161,198.0281],[24.9975,53.1163,201.7682],[24.9977,53.1136,203.202],[24.9933,53.1108,202.6221],[24.9705,53.1101,219.9775],[24.9662,53.1073,216.4702],[24.9527,53.1042,208.7901],[24.9484,53.1013,180.0443],[24.9486,53.0987,198.8556],[24.958,53.0963,187.0526],[24.9587,53.0882,171.1156],[24.95,53.0826,194.7555],[24.9454,53.0824,182.4219],[24.9358,53.0875,200.1474],[24.9356,53.0902,204.2406],[24.9311,53.0901,197.4122],[24.9224,53.0844,175.3278],[24.9322,53.0767,181.0353],[24.9466,53.069,161.5493],[24.9518,53.0611,146.7278],[24.952,53.0585,157.9453],[24.934,53.0552,151.842],[24.9297,53.0524,152.8797],[24.9301,53.0471,144.6022],[24.9354,53.0392,133.7463],[24.9365,53.0258,141.4391],[24.923,53.0227,131.6216],[24.9105,53.0089,132.8119],[24.9109,53.0035,136.8234],[24.9205,52.9984,139.765],[24.9353,52.9855,138.584],[24.931,52.9827,135.7546],[24.9312,52.98,135.4289],[24.9414,52.9669,136.9254],[24.9503,52.9698,143.7639],[24.9594,52.9701,169.6257],[24.9733,52.9678,164.4932],[24.9874,52.9628,154.4434],[24.9923,52.9576,152.0992],[24.9928,52.9522,149.5815],[24.998,52.9443,161.9679],[24.9982,52.9416,156.7119],[24.9941,52.9362,156.9509],[24.9896,52.936,160.4506],[24.9853,52.9332,200.5164],[24.9857,52.9279,190.7479],[25.0,52.9202,175.263],[25.0197,52.902,178.2668],[25.029,52.8995,173.4333],[25.0471,52.9,173.6495],[25.0549,52.9164,176.8253],[25.054,52.9271,177.4318],[25.0713,52.9383,172.6419],[25.0804,52.9385,174.94],[25.0897,52.9361,179.2666],[25.0899,52.9334,193.0788],[25.0858,52.928,195.5133],[25.0905,52.9254,178.9481],[25.0862,52.9226,192.3373],[25.0864,52.9199,192.6949],[25.0823,52.9144,191.9698],[25.083,52.9064,177.6878],[25.0787,52.9036,193.219],[25.0841,52.893,174.3667],[25.0797,52.8902,171.9817],[25.0847,52.8849,168.0239],[25.0851,52.8796,168.1977],[25.0901,52.8743,166.2567],[25.073,52.8605,166.3515],[25.0735,52.8551,161.9304],[25.083,52.85,165.3355],[25.092,52.8502,163.4916],[25.0963,52.853,161.2321],[25.1004,52.8585,168.4978],[25.0998,52.8665,167.0896],[25.1041,52.8693,168.7933],[25.1089,52.8668,166.5986],[25.119,52.8536,163.6885],[25.1328,52.8513,162.1353],[25.1369,52.8568,166.7554],[25.1362,52.8648,170.6743],[25.1408,52.8649,171.898],[25.1585,52.8708,167.6967],[25.1626,52.8762,176.9832],[25.1714,52.8792,159.5379],[25.1759,52.8793,158.1844],[25.1908,52.8635,179.7891],[25.191,52.8608,176.8134],[25.2142,52.8534,163.2258],[25.2233,52.8536,161.1351],[25.2319,52.8592,161.5534],[25.2317,52.8619,162.1819],[25.2268,52.8671,169.6227],[25.2261,52.8752,178.6622],[25.2436,52.8837,164.5919],[25.2833,52.8981,166.364],[25.2924,52.8983,164.0267],[25.2971,52.8958,165.1014],[25.2985,52.877,163.8698],[25.3036,52.869,168.7223],[25.304,52.8637,183.131],[25.309,52.8584,178.4073],[25.3137,52.8558,166.8809],[25.35,52.854,174.9691],[25.3632,52.8597,180.7305],[25.3758,52.8735,181.152],[25.3754,52.8788,181.2082],[25.3614,52.8839,190.1841],[25.3345,52.8805,175.0568],[25.3298,52.8831,181.6178],[25.328,52.9073,187.9374],[25.3366,52.9129,190.4126],[25.3454,52.9158,204.1698],[25.3545,52.916,199.3003],[25.3541,52.9214,190.0013],[25.3442,52.9319,195.3352],[25.3301,52.9396,185.8171],[25.32,52.9528,178.4303],[25.3243,52.9556,180.2413],[25.3289,52.9558,178.0837],[25.3608,52.9538,184.4519],[25.3928,52.9492,209.831],[25.4332,52.9556,139.2556],[25.4418,52.9612,152.0991],[25.4416,52.9639,170.3033],[25.4365,52.9719,135.2804],[25.4353,52.988,135.2879],[25.4399,52.9881,138.1006],[25.4531,52.9938,165.4327],[25.4527,52.9992,147.2753],[25.4608,53.0129,144.4592],[25.5232,53.0278,194.3878],[25.5319,53.0334,195.1239],[25.5402,53.0444,195.0586],[25.5574,53.0583,188.4179],[25.5708,53.0613,208.0199],[25.5846,53.059,206.5502],[25.589,53.0618,205.5846],[25.5932,53.0673,203.4141],[25.5928,53.0726,205.4667],[25.6015,53.0782,193.8055],[25.6055,53.0864,192.9502],[25.6002,53.0971,202.9513],[25.5992,53.1106,190.4104],[25.6034,53.1161,200.8987],[25.6163,53.1272,200.2185],[25.6152,53.1434,198.6688],[25.6102,53.1486,204.2151],[25.6089,53.1675,202.3327],[25.6129,53.1757,204.5938],[25.6127,53.1784,209.4282],[25.5987,53.1835,212.3694],[25.5848,53.1858,201.7818],[25.5757,53.1856,206.9108],[25.5708,53.1909,211.0223],[25.5702,53.199,173.8926],[25.5746,53.2018,167.8688],[25.5791,53.2019,186.827],[25.5833,53.2074,201.8773],[25.5829,53.2128,205.4221],[25.5873,53.2156,210.4985],[25.6007,53.2186,208.9846],[25.5956,53.2266,221.2577],[25.5947,53.2401,212.5991]]]]}}