{"type": "Feature","bbox": [29.0827,54.8632,30.0468,55.2564],"geometry": {"type": "MultiPolygon","coordinates": [[[[29.4332,54.8632,155.6953],[29.4621,54.8739,151.3313],[29.4717,54.8793,158.2115],[29.4908,54.8818,158.5269],[29.5195,54.8898,145.4911],[29.5245,54.8952,149.5324],[29.5246,54.898,147.4876],[29.5294,54.9007,151.6852],[29.5673,54.9003,141.5172],[29.577,54.9057,142.284],[29.6056,54.9108,145.6962],[29.6061,54.9218,144.3521],[29.6156,54.9245,145.0397],[29.6251,54.9244,150.2789],[29.6398,54.9352,154.4566],[29.6447,54.9407,153.9679],[29.6448,54.9434,153.4013],[29.6497,54.9461,155.3574],[29.6598,54.9626,142.1509],[29.6599,54.9653,140.5246],[29.6695,54.968,150.9393],[29.6837,54.9678,145.0533],[29.6884,54.965,139.4076],[29.6881,54.9595,148.0826],[29.6927,54.9567,138.015],[29.7166,54.962,144.2169],[29.7168,54.9647,144.0336],[29.7217,54.9702,144.7381],[29.7223,54.9839,150.1654],[29.7272,54.9866,151.1424],[29.7366,54.9865,149.2091],[29.746,54.9837,143.1411],[29.7457,54.9782,143.0301],[29.7552,54.9781,148.3697],[29.7744,54.9834,157.984],[29.7745,54.9861,145.2527],[29.7469,55.0057,151.762],[29.7518,55.0084,133.3348],[29.7612,55.0083,144.619],[29.7658,55.0055,143.9833],[29.7657,55.0027,144.9996],[29.7982,54.9886,147.8498],[29.8167,54.9774,164.8994],[29.8215,54.9801,137.78],[29.8265,54.9855,153.8752],[29.8266,54.9883,154.3053],[29.8221,54.9938,136.7806],[29.8082,54.9995,130.5],[29.8036,55.0023,130.5],[29.7991,55.0079,131.4894],[29.7997,55.0217,143.4194],[29.8328,55.0213,164.3435],[29.8374,55.0185,163.0133],[29.8277,55.0131,157.8491],[29.8371,55.0102,174.9117],[29.8368,55.0047,169.3749],[29.8461,55.0018,167.6193],[29.8458,54.9936,163.1921],[29.8505,54.9935,160.1735],[29.8644,54.9878,164.8574],[29.8736,54.9822,166.1439],[29.8735,54.9795,169.5891],[29.8685,54.974,165.6498],[29.8495,54.9715,155.7997],[29.8447,54.9688,155.1055],[29.8445,54.966,164.6675],[29.8491,54.9632,168.5304],[29.8826,54.9711,167.6569],[29.9013,54.9681,170.9762],[29.9156,54.9707,184.164],[29.9206,54.9761,201.394],[29.9301,54.9788,185.3424],[29.9444,54.9814,173.5281],[29.968,54.9811,162.2433],[29.9729,54.9838,157.4375],[29.973,54.9865,158.6838],[29.9591,54.9922,169.3184],[29.9593,54.9977,160.8453],[29.9641,54.9977,169.9996],[29.9647,55.0115,155.9825],[29.9744,55.0169,165.624],[29.9795,55.0251,164.5694],[29.9939,55.0304,171.7629],[29.9938,55.0276,171.4537],[29.9888,55.0222,164.4763],[29.9887,55.0194,166.7952],[29.9837,55.014,165.967],[29.9834,55.0085,171.7409],[29.9931,55.0139,179.4491],[29.9933,55.0166,174.8398],[30.0223,55.0328,155.522],[30.0316,55.0299,153.2282],[30.041,55.0298,150.1973],[30.0459,55.0325,150.5482],[30.0468,55.0518,160.1458],[30.0051,55.0689,168.835],[30.0004,55.069,160.8919],[30.0003,55.0662,157.124],[29.9764,55.061,158.5771],[29.9624,55.0639,169.0746],[29.9529,55.064,169.0422],[29.9528,55.0613,162.7883],[29.9434,55.0614,159.8627],[29.9385,55.0587,161.9635],[29.9245,55.0616,165.6239],[29.9247,55.0671,169.9786],[29.9201,55.0699,170.0336],[29.9347,55.078,160.9344],[29.9488,55.0779,162.0078],[29.9492,55.0862,161.3403],[29.9542,55.0916,158.0814],[29.9355,55.0974,160.7594],[29.9356,55.1001,161.3303],[29.9267,55.1113,166.6677],[29.9269,55.1168,167.995],[29.9471,55.1469,141.7713],[29.9615,55.1523,147.2476],[29.9665,55.1578,143.9989],[29.9619,55.1606,140.3079],[29.943,55.1608,138.3842],[29.896,55.1668,134.9991],[29.882,55.1725,147.4717],[29.8775,55.1781,148.9593],[29.8732,55.1892,148.0427],[29.8736,55.1975,121.5],[29.8597,55.2059,150.713],[29.8502,55.206,137.8824],[29.8358,55.2006,142.3346],[29.8357,55.1978,145.6248],[29.8259,55.1896,144.4818],[29.8162,55.1842,152.3279],[29.8018,55.1816,159.1753],[29.7874,55.1762,153.6771],[29.7539,55.171,136.6964],[29.7345,55.1602,142.3364],[29.7291,55.1464,150.9422],[29.7338,55.1436,119.5],[29.7332,55.1298,134.6239],[29.7375,55.1188,145.7944],[29.7325,55.1133,146.1458],[29.7179,55.1052,143.6028],[29.7037,55.1053,140.4496],[29.6897,55.111,139.6341],[29.6519,55.1168,144.6787],[29.6043,55.1173,139.72],[29.5704,55.1011,154.7009],[29.5604,55.0902,140.8257],[29.5458,55.0821,156.02],[29.5218,55.0768,145.7948],[29.5024,55.0688,147.1612],[29.4878,55.0606,147.3256],[29.4829,55.0552,138.876],[29.4732,55.0498,141.3628],[29.4445,55.0473,143.2597],[29.4352,55.0529,131.6893],[29.4307,55.0612,119.2509],[29.4311,55.0722,130.4761],[29.4359,55.0749,137.6798],[29.4361,55.0804,127.6821],[29.4413,55.0914,134.9402],[29.4416,55.0996,118.7155],[29.4371,55.1079,125.9672],[29.4324,55.1107,126.2001],[29.4135,55.1164,136.4092],[29.3992,55.1166,135.7805],[29.3607,55.1087,135.0322],[29.3512,55.1088,138.7189],[29.3371,55.1145,136.7376],[29.3326,55.1255,116.3639],[29.3185,55.1312,128.3909],[29.2905,55.1535,136.8174],[29.2907,55.159,125.535],[29.2816,55.1756,119.2523],[29.2675,55.184,147.1607],[29.263,55.1923,124.2224],[29.2632,55.1978,122.4122],[29.2681,55.2033,126.4793],[29.2683,55.2088,114.1755],[29.2637,55.2171,123.2799],[29.2543,55.2227,123.3501],[29.2448,55.2256,124.9934],[29.2307,55.234,126.2464],[29.2169,55.2534,123.0484],[29.2074,55.2563,123.0519],[29.193,55.2564,122.492],[29.1637,55.2374,141.6415],[29.1398,55.2404,135.8569],[29.1208,55.246,139.8014],[29.1112,55.2461,151.8234],[29.1063,55.2434,132.6188],[29.1157,55.2323,141.1349],[29.1252,55.2295,141.354],[29.1346,55.2239,142.3091],[29.1439,55.2128,142.4957],[29.158,55.2044,141.9021],[29.1818,55.1986,147.7347],[29.1914,55.1985,146.7672],[29.2007,55.1902,136.3461],[29.2006,55.1847,136.0255],[29.1766,55.1821,158.205],[29.1474,55.1659,158.5508],[29.1331,55.166,149.2237],[29.1282,55.1605,144.6524],[29.128,55.1523,139.192],[29.123,55.1441,140.7876],[29.1181,55.1414,137.8655],[29.0989,55.1388,133.7222],[29.094,55.1333,131.0],[29.0939,55.1306,131.0],[29.1034,55.125,131.0],[29.1129,55.1249,134.9145],[29.1128,55.1194,135.1971],[29.1078,55.1139,131.0],[29.1173,55.1083,138.5163],[29.1171,55.1028,139.1311],[29.1075,55.1002,138.7385],[29.0885,55.1031,139.3042],[29.0835,55.0949,137.0286],[29.0834,55.0894,131.9236],[29.0928,55.0838,132.0361],[29.0926,55.0783,131.1852],[29.0877,55.0728,130.8891],[29.0827,55.0646,130.351],[29.0827,55.0618,135.1241],[29.092,55.0535,137.1448],[29.1061,55.0451,129.4088],[29.1059,55.0396,128.8797],[29.0867,55.0316,132.9695],[29.0865,55.0261,132.3629],[29.0958,55.0177,139.6025],[29.0955,55.004,135.9386],[29.0906,54.9985,136.7343],[29.0904,54.993,138.3563],[29.0951,54.9875,136.4773],[29.0998,54.9874,139.7082],[29.1138,54.9763,142.8093],[29.128,54.9734,142.412],[29.1423,54.9761,125.4186],[29.147,54.9733,135.4821],[29.1518,54.9732,136.9692],[29.1614,54.9786,141.0074],[29.19,54.9811,137.5186],[29.1897,54.9701,139.4273],[29.1944,54.9673,139.9748],[29.2087,54.9672,152.1003],[29.2183,54.9726,140.9918],[29.2279,54.9725,145.0194],[29.2324,54.9669,140.8726],[29.2515,54.9668,139.9831],[29.2563,54.9695,149.0441],[29.2849,54.9719,139.2714],[29.2946,54.9773,138.4374],[29.2993,54.9773,138.4152],[29.3134,54.9716,160.0613],[29.3278,54.9742,142.5922],[29.3324,54.9714,139.4765],[29.3415,54.9576,141.8203],[29.3412,54.9466,145.244],[29.3364,54.9467,146.8266],[29.3362,54.9412,150.1129],[29.336,54.9357,154.2701],[29.340699999999998,54.9329,157.4541],[29.3405,54.9274,156.8825],[29.3356,54.9219,155.5274],[29.3308,54.9192,156.6183],[29.3303,54.9055,141.8752],[29.335,54.9027,142.3471],[29.3397,54.9027,143.7066],[29.3446,54.9054,142.165],[29.3447,54.9109,140.412],[29.3497,54.9163,141.6214],[29.3641,54.9216,141.6688],[29.3688,54.9216,140.9636],[29.3735,54.9188,143.0399],[29.378,54.9105,142.224],[29.373,54.9051,142.1433],[29.3586,54.8997,140.7473],[29.3488,54.8888,140.1064],[29.3487,54.8861,142.7171],[29.3717,54.8666,137.3867],[29.3765,54.8665,137.7026],[29.3813,54.8692,136.6572],[29.3815,54.8747,138.0011],[29.3864,54.8802,137.7243],[29.3959,54.8801,151.0379],[29.4099,54.8744,136.5],[29.4241,54.8743,150.9278],[29.4288,54.8715,146.3269],[29.4332,54.8632,155.6953]]]]}
,"properties": {"GID_2": "BLR.6.3_1","GID_0": "BLR","country": "Belarus","GID_1": "BLR.6_1","province": "Vitebsk","NL_NAME_1": "Вiцебская","county": "Byeshankovichy","VARNAME_2": "Beshenkovichi","NL_NAME_2": "Бешанковіцкіраён","TYPE_2": "Raion","ENGTYPE_2": "District","CC_2": "NA","HASC_2": "BY.VI.BS","name": "Byeshankovichy.county","area_km2": 1218.0241,"hist_schema_id": "Elevation0-9000","hist_area_km2": {"125": 217.8509,"150": 916.7423,"175": 82.8834,"200": 0.5475}}}