{"type": "Feature","bbox": [27.7976,53.7594,28.5262,54.2276],"geometry": {"type": "MultiPolygon","coordinates": [[[[28.2195,54.2276,165.6697],[28.2054,54.2195,172.9997],[28.196,54.2196,166.4201],[28.1913,54.2141,168.4207],[28.1772,54.2087,166.8766],[28.1631,54.2061,162.2562],[28.149,54.198,164.6535],[28.1396,54.1871,167.951],[28.1396,54.1844,184.0086],[28.1349,54.1871,163.0323],[28.135,54.2008,163.2248],[28.1209,54.2008,182.9984],[28.1162,54.1981,167.2869],[28.1115,54.1981,180.5085],[28.1021,54.2009,184.6031],[28.1022,54.2145,186.1013],[28.0928,54.2173,202.4057],[28.0646,54.2147,167.263],[28.0318,54.2067,195.7525],[28.0271,54.204,206.8663],[28.0271,54.1985,186.3464],[28.0411,54.1848,168.8354],[28.0365,54.1794,170.8791],[28.0318,54.1767,180.1754],[28.0271,54.1767,200.4504],[28.0224,54.1794,205.816],[28.013,54.1795,206.0525],[27.9943,54.1741,184.7705],[27.9896,54.1741,177.2032],[27.9849,54.1714,206.5439],[27.9849,54.1632,198.917],[27.9708,54.1524,173.6887],[27.9755,54.1442,210.8979],[27.9708,54.1442,201.8001],[27.9755,54.136,170.4111],[27.9849,54.1305,164.9401],[28.0083,54.1223,167.1276],[28.0083,54.1168,165.7423],[27.9989,54.106,165.8354],[27.9989,54.0978,167.8199],[27.9942,54.0951,172.4284],[27.9942,54.0924,178.0641],[27.9849,54.0951,168.7593],[27.9755,54.1006,166.6255],[27.9615,54.1034,172.0733],[27.938,54.1144,183.3615],[27.924,54.1144,176.6651],[27.9146,54.1172,181.7821],[27.9099,54.1199,185.2553],[27.9146,54.1254,203.4535],[27.9052,54.1309,228.2144],[27.8912,54.1282,203.8566],[27.8818,54.1282,228.104],[27.8771,54.131,240.4206],[27.8631,54.131,256.543],[27.8584,54.1365,243.4484],[27.849,54.1392,267.2464],[27.8396,54.1393,275.6474],[27.8349,54.1365,271.2204],[27.835,54.1284,259.71],[27.8537,54.1174,210.7961],[27.8537,54.1147,228.7541],[27.8491,54.112,243.2213],[27.8022,54.1121,220.0479],[27.8022,54.104,254.657],[27.7976,54.0985,258.0375],[27.8023,54.0903,193.5],[27.7976,54.0876,201.5451],[27.8023,54.0822,208.4506],[27.8023,54.0794,222.6554],[27.8258,54.0712,237.5026],[27.8305,54.0657,215.7646],[27.8305,54.0603,233.2448],[27.8118,54.0495,234.7823],[27.8118,54.044,248.5996],[27.8259,54.0358,231.1227],[27.8352,54.0385,238.3746],[27.8352,54.0467,217.3289],[27.8539,54.052,194.2447],[27.8632,54.052,186.5465],[27.8679,54.0493,183.9676],[27.8679,54.0465,218.8959],[27.8539,54.033,199.3985],[27.8539,54.0275,224.1041],[27.8586,54.0221,224.5368],[27.8586,54.0166,222.3184],[27.8493,54.0139,219.0461],[27.8493,54.0085,224.8941],[27.8633,54.0003,211.5079],[27.8634,53.9894,228.9426],[27.868,53.9866,226.0939],[27.8727,53.9839,218.4882],[27.8867,53.9838,245.6244],[27.8961,53.9811,224.0189],[27.8961,53.9756,215.2764],[27.8821,53.9621,197.6885],[27.8821,53.9566,218.6018],[27.8868,53.9539,212.308],[27.8961,53.9538,205.1047],[27.9054,53.9483,198.9102],[27.9101,53.9429,204.9923],[27.9148,53.932,199.2651],[27.9148,53.9238,195.0226],[27.9195,53.9211,206.7292],[27.9288,53.902,213.4941],[27.9055,53.8993,188.7573],[27.8962,53.8967,187.955],[27.8962,53.8912,198.7925],[27.9008,53.8803,197.6048],[27.9008,53.8749,197.222],[27.8915,53.8694,227.4398],[27.8822,53.8695,241.6538],[27.8729,53.8641,250.8796],[27.8729,53.8586,230.9695],[27.8962,53.8476,194.625],[27.9009,53.8422,198.8056],[27.9009,53.8367,192.0119],[27.8916,53.8313,183.5728],[27.8916,53.8177,180.2794],[27.9056,53.8177,179.5457],[27.9242,53.8203,177.2254],[27.9474,53.8148,175.6996],[27.9661,53.8038,173.8593],[27.9754,53.8037,173.594],[27.9847,53.7928,177.7675],[27.994,53.79,183.3207],[28.0033,53.7927,175.8206],[27.9986,53.8009,176.8157],[27.994,53.8145,178.5594],[28.0033,53.8145,178.9614],[28.0079,53.8117,180.2845],[28.0173,53.8117,178.7505],[28.0172,53.7926,174.2979],[28.0358,53.7925,175.0407],[28.0451,53.7871,183.1766],[28.0312,53.7817,181.0634],[28.0312,53.779,179.2986],[28.0358,53.7789,182.019],[28.0358,53.7762,181.433],[28.0405,53.7735,192.3631],[28.0498,53.7789,191.8044],[28.0544,53.7788,189.022],[28.0591,53.7761,196.8323],[28.0684,53.776,197.4982],[28.0684,53.7733,197.5052],[28.0637,53.7679,192.6862],[28.0637,53.7652,199.5028],[28.0777,53.7706,198.6344],[28.0916,53.7705,186.9031],[28.0962,53.7677,195.7524],[28.1055,53.7677,194.4502],[28.1148,53.7649,205.2252],[28.1195,53.7594,202.7202],[28.1288,53.7594,193.6404],[28.1474,53.7811,195.2101],[28.1614,53.781,187.872],[28.166,53.7782,182.1471],[28.1707,53.7809,192.1316],[28.1753,53.7809,192.9462],[28.1754,53.7972,191.2107],[28.1708,53.8054,192.9301],[28.1615,53.8109,193.089],[28.1615,53.8164,193.2925],[28.1662,53.8218,185.8834],[28.1664,53.8545,205.6043],[28.171,53.8572,217.6497],[28.185,53.8598,219.8985],[28.1897,53.8625,220.7332],[28.1898,53.8789,212.942],[28.1945,53.8897,212.9607],[28.1945,53.8952,197.6405],[28.1992,53.8979,197.9235],[28.2038,53.8979,208.9145],[28.2131,53.8896,224.0195],[28.2317,53.8786,223.4024],[28.2363,53.8732,222.9236],[28.2363,53.8704,216.4832],[28.241,53.8731,217.2738],[28.2504,53.8894,216.6871],[28.2551,53.8948,195.522],[28.2598,53.8975,185.0351],[28.2737,53.9002,186.6415],[28.2971,53.9082,184.3736],[28.2971,53.9109,190.8856],[28.3112,53.919,187.6438],[28.3251,53.9162,182.7812],[28.3345,53.9216,190.7699],[28.3345,53.9271,192.3093],[28.3578,53.9269,190.1749],[28.3625,53.9242,191.7431],[28.3625,53.9214,192.9312],[28.3717,53.9105,187.868],[28.381,53.9104,195.239],[28.3857,53.9131,185.8392],[28.3904,53.9131,188.2522],[28.3996,53.9076,181.1639],[28.4182,53.9047,183.0631],[28.4415,53.9046,189.5115],[28.4508,53.9018,192.7859],[28.4834,53.9015,196.2194],[28.4974,53.9042,185.6828],[28.5068,53.9096,193.6549],[28.5256,53.9285,179.7137],[28.5257,53.9367,193.2458],[28.5118,53.9422,177.0001],[28.5025,53.9423,175.1364],[28.4979,53.9451,176.3613],[28.4933,53.9506,178.8221],[28.4933,53.9533,181.2488],[28.498,53.9587,182.1396],[28.5074,53.9614,185.5625],[28.5167,53.9668,191.0841],[28.5262,53.983,167.9866],[28.517,53.9858,169.0077],[28.5076,53.9859,173.6188],[28.503,53.9887,173.6583],[28.4984,53.9942,190.9312],[28.4984,53.9996,181.6608],[28.5031,54.0023,182.6153],[28.5033,54.0132,173.4138],[28.4986,54.016,183.8655],[28.4799,54.0161,178.7005],[28.4752,54.0134,180.4614],[28.4752,54.0107,175.8913],[28.4706,54.0134,176.2667],[28.4706,54.0162,174.6905],[28.452,54.0272,185.0968],[28.4568,54.0353,192.1761],[28.4521,54.0381,196.706],[28.4475,54.0381,183.3032],[28.4334,54.03,187.6417],[28.4287,54.0301,192.5518],[28.4335,54.0409,172.0248],[28.4382,54.0464,177.2251],[28.4383,54.0518,169.6785],[28.4336,54.0546,178.3956],[28.4196,54.0574,170.1209],[28.415,54.0629,167.7323],[28.415,54.0656,173.734],[28.4197,54.0683,174.2419],[28.4385,54.0736,172.1501],[28.4385,54.0764,167.8746],[28.4245,54.0819,172.2414],[28.4246,54.0901,164.5585],[28.4293,54.0928,166.5274],[28.4293,54.0955,170.7155],[28.4153,54.1011,163.9219],[28.392,54.1067,174.3244],[28.4107,54.1093,175.1366],[28.4108,54.112,166.805],[28.4061,54.1148,186.4953],[28.3874,54.1149,170.4023],[28.3733,54.1122,175.7555],[28.3593,54.115,182.715],[28.3594,54.1205,175.5261],[28.3734,54.1231,176.6951],[28.3829,54.134,172.3744],[28.3876,54.134,173.1722],[28.397,54.1421,173.8781],[28.397,54.1475,175.4208],[28.3924,54.1503,170.7896],[28.3783,54.1504,177.8583],[28.369,54.1559,202.3345],[28.3643,54.1532,187.8376],[28.3503,54.1533,174.2154],[28.3456,54.156,190.3173],[28.3457,54.1697,188.5663],[28.3552,54.1833,175.1227],[28.3505,54.1887,174.0571],[28.3506,54.1915,180.7504],[28.3365,54.1943,173.2489],[28.3271,54.1943,168.7461],[28.313,54.1889,175.2237],[28.2943,54.1945,175.1084],[28.2991,54.2054,166.8624],[28.3038,54.2108,166.9125],[28.3085,54.2135,167.2146],[28.3273,54.2161,169.1207],[28.3273,54.2216,164.3197],[28.3227,54.2244,162.7677],[28.3133,54.2244,167.2262],[28.2945,54.2191,167.0836],[28.2757,54.2164,160.5658],[28.2617,54.2192,166.7767],[28.2523,54.2193,165.599],[28.2195,54.2276,165.6697]]]]}
,"properties": {"GID_2": "BLR.5.17_1","GID_0": "BLR","country": "Belarus","GID_1": "BLR.5_1","province": "Minsk","NL_NAME_1": "Мінская","county": "Smalyavichy","VARNAME_2": "Smolevichi","NL_NAME_2": "Смалявіцкіраён","TYPE_2": "Raion","ENGTYPE_2": "District","CC_2": "NA","HASC_2": "BY.MI.SM","name": "Smalyavichy.county","area_km2": 1421.587,"hist_schema_id": "Elevation0-9000","hist_area_km2": {"150": 3.871,"175": 700.724,"200": 474.58,"225": 215.768,"250": 25.835,"275": 0.808}}}