{"type": "Feature","bbox": [26.2123,53.328,26.9543,53.9058],"geometry": {"type": "MultiPolygon","coordinates": [[[[26.2123,53.8303,147.0292],[26.2263,53.8278,150.4591],[26.231,53.8251,150.3894],[26.2311,53.8224,153.8939],[26.2221,53.8168,136.9711],[26.2223,53.8113,137.462],[26.2269,53.8114,138.5082],[26.2317,53.8087,152.4948],[26.2499,53.8145,148.3464],[26.2592,53.8146,152.5761],[26.2733,53.8066,148.0664],[26.278199999999998,53.8011,145.7016],[26.26,53.7955,135.4248],[26.2603,53.7873,138.6205],[26.2699,53.7792,150.9185],[26.27,53.7765,141.7729],[26.2655,53.7737,143.088],[26.2611,53.7681,152.9566],[26.2806,53.7438,154.7473],[26.2998,53.7249,155.0509],[26.305,53.7113,156.3568],[26.3098,53.7086,139.5248],[26.3655,53.7036,140.6929],[26.3702,53.7009,143.461],[26.366,53.6899,148.6804],[26.3662,53.6845,144.8427],[26.3618,53.6817,157.0604],[26.3622,53.6708,156.3141],[26.3992,53.6629,158.2343],[26.4041,53.6548,161.5109],[26.4369,53.6304,143.8373],[26.4606,53.6061,163.3603],[26.4887,53.5818,142.8243],[26.5071,53.5765,141.5989],[26.5119,53.5683,141.3371],[26.5301,53.5685,151.5657],[26.5347,53.5658,148.0269],[26.5395,53.5604,149.6918],[26.5397,53.5522,142.3757],[26.5444,53.5468,142.2054],[26.5446,53.5414,153.2341],[26.5221,53.533,165.4882],[26.4909,53.511,175.8473],[26.4956,53.5083,173.6956],[26.5137,53.5084,163.1277],[26.5181,53.5139,158.3425],[26.5226,53.5167,152.571],[26.5362,53.5168,167.5381],[26.5364,53.5113,176.1988],[26.5319,53.5086,167.4839],[26.5503,53.5006,169.976],[26.5551,53.4924,169.6286],[26.5509,53.4788,193.2703],[26.5466,53.4733,193.5015],[26.5466,53.4706,194.7367],[26.5423,53.4624,209.3974],[26.5426,53.4515,208.7406],[26.5523,53.4298,201.9415],[26.5662,53.4218,198.0874],[26.571,53.4137,190.7051],[26.5713,53.4028,183.4589],[26.5668,53.4,185.03],[26.5532,53.3999,182.3358],[26.5217,53.3915,187.6151],[26.5082,53.3913,184.4318],[26.5176,53.3805,181.8333],[26.504,53.3804,195.9239],[26.4861,53.3748,208.4794],[26.4817,53.372,210.3265],[26.4823,53.353,183.2299],[26.5003,53.3532,192.9603],[26.523,53.3507,177.5541],[26.5364,53.3562,171.9516],[26.5499,53.3564,172.5692],[26.5591,53.3537,175.0576],[26.5592,53.3483,186.875],[26.5729,53.3457,183.1676],[26.591,53.3459,184.287],[26.6,53.3514,188.3947],[26.6089,53.3542,188.7115],[26.618,53.3542,188.2736],[26.6408,53.3517,188.5446],[26.6546,53.3464,183.2635],[26.6502,53.3409,188.6331],[26.6413,53.3354,185.7184],[26.6459,53.3327,183.5616],[26.6686,53.3329,184.9645],[26.6822,53.3357,179.5995],[26.6914,53.3303,172.226],[26.6959,53.3331,180.7584],[26.7003,53.3386,181.7372],[26.7186,53.3387,185.5008],[26.746,53.3335,187.5619],[26.7507,53.3308,187.9888],[26.7507,53.328,185.9388],[26.7871,53.3364,180.871],[26.7916,53.3392,182.5359],[26.7868,53.3473,164.0698],[26.7913,53.3501,162.5082],[26.7959,53.3501,169.7517],[26.8098,53.3447,179.5097],[26.8101,53.3312,191.1452],[26.8193,53.3285,189.9123],[26.8467,53.3287,207.6232],[26.8649,53.3342,204.0612],[26.8695,53.3342,205.3225],[26.8696,53.3315,202.607],[26.8742,53.3288,199.6748],[26.8879,53.3289,196.6844],[26.8832,53.337,200.9143],[26.8828,53.356,208.6248],[26.8873,53.3588,209.7946],[26.8826,53.3669,186.677],[26.887,53.3751,220.5946],[26.8867,53.3886,191.325],[26.8774,53.394,156.1562],[26.8544,53.3994,169.5284],[26.8543,53.4021,178.4468],[26.8588,53.4075,153.4681],[26.8634,53.4076,152.4042],[26.8724,53.413,174.6514],[26.8723,53.4185,175.9559],[26.8768,53.4267,159.2693],[26.895,53.4349,164.6214],[26.904,53.4431,172.6665],[26.9224,53.4432,153.4162],[26.9454,53.4405,153.6538],[26.9452,53.4514,153.5281],[26.9543,53.4569,165.4045],[26.9542,53.4596,154.2387],[26.9449,53.465,175.6568],[26.9355,53.4786,207.532],[26.9353,53.4867,206.3047],[26.9396,53.503,209.4984],[26.9487,53.5112,207.5457],[26.9483,53.5303,204.7738],[26.9528,53.5384,203.0353],[26.9527,53.5411,204.5649],[26.948,53.5438,201.5963],[26.934,53.5574,197.3706],[26.9291,53.571,198.4827],[26.9289,53.5791,202.8834],[26.9059,53.579,183.2745],[26.8966,53.5844,188.883],[26.8964,53.5926,197.4222],[26.9056,53.5953,205.1575],[26.9098,53.6144,209.8393],[26.9144,53.6171,219.4655],[26.9095,53.628,200.4041],[26.9093,53.6416,189.0558],[26.9045,53.647,195.4924],[26.8952,53.6524,208.2598],[26.895,53.6606,200.561],[26.8903,53.666,218.4676],[26.8902,53.6687,223.7644],[26.8948,53.6742,221.8902],[26.8946,53.6796,213.5728],[26.8854,53.6796,200.271],[26.8852,53.6877,194.1704],[26.8944,53.6905,200.1926],[26.9126,53.7042,209.3311],[26.9126,53.7069,198.0876],[26.903199999999998,53.7123,226.0292],[26.8939,53.715,221.3833],[26.8751,53.7285,229.6232],[26.8704,53.7339,211.4961],[26.8841,53.7421,235.4913],[26.8886,53.7476,229.8116],[26.8885,53.753,245.3551],[26.893,53.7558,247.416],[26.8974,53.7694,272.2834],[26.9112,53.7749,291.1566],[26.9157,53.7803,293.5932],[26.9203,53.7831,289.4625],[26.9201,53.7912,280.3076],[26.9292,53.7967,296.6199],[26.9289,53.813,323.2617],[26.938,53.8212,304.4045],[26.9379,53.8267,308.0766],[26.9239,53.8321,303.6199],[26.9146,53.832,330.8618],[26.8959,53.8401,291.0066],[26.8956,53.8537,251.517],[26.8862,53.8591,242.3264],[26.8723,53.8591,254.1774],[26.8585,53.8536,241.1809],[26.8399,53.8535,257.5233],[26.8354,53.848,223.5799],[26.8214,53.8507,236.2083],[26.8122,53.8479,222.2743],[26.8124,53.8398,222.115],[26.8218,53.8344,230.604],[26.8219,53.8317,244.0274],[26.8082,53.8234,234.2269],[26.7989,53.8234,228.5022],[26.7988,53.8261,235.4404],[26.7941,53.8288,227.47],[26.7941,53.8315,222.5628],[26.7803,53.8287,237.1797],[26.7756,53.8314,225.0557],[26.7617,53.8286,205.9689],[26.757,53.8313,212.8504],[26.7568,53.8422,220.1518],[26.7521,53.8449,217.2807],[26.7474,53.8449,219.0099],[26.7337,53.8394,226.2689],[26.7244,53.8393,221.8394],[26.7151,53.842,223.5459],[26.7012,53.8419,213.5021],[26.7014,53.8365,219.3128],[26.6921,53.8364,221.7135],[26.6828,53.8418,221.1236],[26.6502,53.8498,216.1925],[26.6224,53.8524,211.3738],[26.6131,53.855,199.1052],[26.6128,53.8632,183.8188],[26.6034,53.8686,179.7038],[26.5619,53.8684,179.7161],[26.5525,53.8738,177.1986],[26.5386,53.8737,171.4224],[26.5294,53.8737,170.2768],[26.5204,53.8682,165.0856],[26.5111,53.8681,165.4211],[26.4879,53.8734,167.4513],[26.4692,53.8788,158.6081],[26.4505,53.8868,171.0337],[26.4365,53.8895,162.8043],[26.4271,53.8949,155.2628],[26.427,53.8976,164.0856],[26.4314,53.9031,163.2374],[26.4267,53.9058,157.5611],[26.4174,53.9057,146.0487],[26.4129,53.903,165.1006],[26.4037,53.9029,145.2353],[26.3804,53.9055,146.8269],[26.3807,53.9001,143.8102],[26.3761,53.8973,156.6715],[26.3437,53.8972,154.0857],[26.3346,53.8944,151.3251],[26.3255,53.8889,150.6395],[26.3256,53.8861,152.0724],[26.3165,53.8834,149.2279],[26.3076,53.8724,145.5259],[26.2985,53.8669,147.2442],[26.2892,53.8695,142.057],[26.2888,53.8777,145.8841],[26.2841,53.8804,153.3777],[26.2748,53.8803,150.418],[26.2658,53.8748,153.3463],[26.2661,53.8693,146.6263],[26.2616,53.8665,145.2095],[26.2477,53.8664,146.5058],[26.2429,53.8718,150.5197],[26.2383,53.8717,155.6947],[26.2338,53.868899999999996,152.1385],[26.234,53.8635,141.2749],[26.2534,53.8418,152.9731],[26.2535,53.8391,154.2238],[26.2444,53.8363,149.6137],[26.2213,53.8359,147.0815],[26.2123,53.8303,147.0292]]]]}
,"properties": {"GID_2": "BLR.5.19_1","GID_0": "BLR","country": "Belarus","GID_1": "BLR.5_1","province": "Minsk","NL_NAME_1": "Мінская","county": "Stowbtsy","VARNAME_2": "Stolbtsu","NL_NAME_2": "Стаўбцоўскіраён","TYPE_2": "Raion","ENGTYPE_2": "District","CC_2": "NA","HASC_2": "BY.MI.SB","name": "Stowbtsy.county","area_km2": 1868.485,"hist_schema_id": "Elevation0-9000","hist_area_km2": {"125": 8.181,"150": 399.218,"175": 741.574,"200": 513.351,"225": 137.32,"250": 31.712,"275": 18.417,"300": 13.481,"325": 5.069,"350": 0.163}}}