{"type":"Feature","properties":{"GID_2":"BLR.4.21_1","GID_0":"BLR","country":"Belarus","GID_1":"BLR.4_1","province":"Mogilev","NL_NAME_1":"Магілёўская","county":"Slawharad","VARNAME_2":"Slavgorod","NL_NAME_2":"Слаўгарадскіраён","TYPE_2":"Raion","ENGTYPE_2":"District","CC_2":"NA","HASC_2":"BY.MA.SG","name":"Slawharad.county"},
"geometry":{"type": "MultiPolygon","coordinates": [[[[31.0362,53.2897,156.498],[31.0406,53.2895,156.0008],[31.0497,53.2945,149.523],[31.0542,53.2943,158.7146],[31.0534,53.2809,154.5867],[31.0577,53.278,155.6216],[31.0621,53.2778,159.9149],[31.0668,53.283,162.7511],[31.0675,53.2964,178.6086],[31.0766,53.3014,185.2029],[31.09,53.3035,174.3424],[31.1083,53.3161,174.7099],[31.1172,53.3184,172.4207],[31.1215,53.3155,176.2235],[31.1388,53.3093,166.1393],[31.1519,53.3061,165.8372],[31.1563,53.3059,166.2207],[31.1656,53.311,165.2408],[31.1664,53.3219,157.3586],[31.1713,53.3273,179.9991],[31.1759,53.3272,179.8522],[31.19,53.3324,173.1109],[31.1902,53.3351,176.4022],[31.1813,53.3381,172.5609],[31.1772,53.3437,174.0174],[31.2006,53.3514,179.2988],[31.2052,53.3513,166.0101],[31.21,53.354,174.2352],[31.2102,53.3567,173.8903],[31.2019,53.3679,171.8291],[31.2032,53.3844,149.0157],[31.1989,53.3872,151.2996],[31.1897,53.3874,168.1938],[31.1856,53.393,149.5929],[31.186,53.3985,147.1303],[31.1915,53.4094,167.0619],[31.1919,53.4149,168.8329],[31.1793,53.4289,166.0328],[31.1795,53.4316,158.5816],[31.1751,53.4344,167.0184],[31.1801,53.4399,164.6066],[31.2356,53.4444,168.0553],[31.2361,53.4499,173.304],[31.2414,53.4581,155.9427],[31.2279,53.4638,163.4711],[31.2001,53.4615,141.7893],[31.196,53.4671,133.1513],[31.197,53.4808,134.4633],[31.2123,53.4999,149.7215],[31.213,53.5081,142.5329],[31.2086,53.511,160.0365],[31.1682,53.5227,176.5639],[31.1506,53.5312,176.2162],[31.1158,53.5539,156.5027],[31.089,53.5599,164.4493],[31.0894,53.5654,164.7932],[31.1034,53.5706,160.8069],[31.1133,53.5815,155.1037],[31.1137,53.587,159.8183],[31.1369,53.592,183.0038],[31.1373,53.5975,180.7251],[31.1327,53.5976,178.3653],[31.1195,53.6034,177.2856],[31.1108,53.609,181.983],[31.0993,53.6395,193.3588],[31.1088,53.6448,176.5197],[31.1225,53.6446,180.9845],[31.1345,53.6224,166.7133],[31.1437,53.6222,173.2406],[31.1439,53.625,170.8964],[31.1536,53.6331,170.166],[31.154,53.6386,173.1655],[31.1366,53.6499,179.9751],[31.1374,53.6609,174.1884],[31.1428,53.6718,182.618],[31.1432,53.6773,196.6382],[31.1112,53.6778,184.7804],[31.1015,53.6697,171.4657],[31.0924,53.6699,171.0111],[31.0792,53.6757,190.8357],[31.0474,53.6763,147.8097],[31.0427,53.6736,145.198],[31.0458,53.6543,156.7334],[31.0543,53.6459,177.6613],[31.0541,53.6431,173.526],[31.0494,53.6405,170.5261],[31.004,53.6414,163.7785],[30.9775,53.6529,169.4659],[30.9684,53.6531,174.4981],[30.9635,53.6477,163.3524],[30.9631,53.6422,167.3798],[30.9718,53.6366,160.0983],[30.9715,53.6311,156.2084],[30.9431,53.6152,171.9722],[30.9382,53.6099,160.5617],[30.9289,53.6047,135.5625],[30.9244,53.6048,135.8264],[30.9113,53.6134,150.8894],[30.8759,53.6254,152.8892],[30.8629,53.6367,149.7825],[30.8539,53.6369,173.4333],[30.8401,53.6319,150.5149],[30.8304,53.6187,156.2369],[30.8301,53.6132,148.3569],[30.8345,53.6104,143.1846],[30.8342,53.605,146.1391],[30.8384,53.5994,151.8739],[30.8381,53.594,171.0935],[30.8333,53.5887,170.4759],[30.8194,53.5811,158.519],[30.8187,53.5675,165.7283],[30.8048,53.5599,183.5106],[30.7913,53.5603,176.8701],[30.7739,53.5717,184.1075],[30.7696,53.5773,176.9107],[30.7653,53.5801,172.7892],[30.7421,53.5673,164.62],[30.6963,53.5552,180.2884],[30.6874,53.5582,182.1938],[30.6826,53.5529,173.8127],[30.6824,53.5501,158.9741],[30.6867,53.5446,157.1405],[30.7048,53.5441,181.6601],[30.7137,53.5411,175.8052],[30.7178,53.5329,171.8643],[30.7308,53.5216,176.598],[30.7305,53.5162,158.0229],[30.6652,53.4825,181.8608],[30.6606,53.4826,161.5466],[30.6736,53.4714,160.9589],[30.6915,53.4655,180.1988],[30.691,53.4573,171.8242],[30.6769,53.4494,156.2621],[30.6721,53.4441,161.0808],[30.6763,53.4385,161.7013],[30.676,53.4331,159.509],[30.6668,53.4306,154.3972],[30.6574,53.4253,153.3002],[30.6616,53.4198,151.5389],[30.6615,53.417,151.0324],[30.6476,53.4119,154.3118],[30.643,53.412,157.9957],[30.6299,53.4205,163.941],[30.598,53.4184,152.7536],[30.5846,53.4215,152.2484],[30.571,53.4217,163.2675],[30.5622,53.4274,170.2757],[30.5575,53.4248,168.5629],[30.5786,53.397,154.1172],[30.578,53.386,147.4246],[30.5682,53.3726,151.1053],[30.5665,53.3425,152.4145],[30.5747,53.3286,163.3924],[30.5786,53.3176,157.5944],[30.5883,53.3284,157.6457],[30.5935,53.3392,154.8616],[30.5981,53.3418,157.4045],[30.6072,53.3416,155.6634],[30.6161,53.3387,155.7717],[30.6159,53.336,159.6567],[30.6019,53.3281,155.8692],[30.6015,53.3226,157.0308],[30.6059,53.3198,157.7268],[30.6149,53.3196,156.4213],[30.6191,53.314,162.3149],[30.6051,53.3061,162.2852],[30.5959,53.3035,160.3436],[30.591,53.2982,160.561],[30.5909,53.2954,156.2448],[30.6043,53.2924,157.0519],[30.6316,53.2946,158.6506],[30.654,53.2913,154.5361],[30.6858,53.2934,151.8432],[30.6901,53.2905,150.7828],[30.6851,53.2824,150.2908],[30.6804,53.2798,155.6625],[30.6799,53.2716,154.8156],[30.6926,53.2576,159.4601],[30.7013,53.252,153.2323],[30.7242,53.2569,157.6073],[30.7422,53.2565,155.8557],[30.7429,53.2675,158.4376],[30.748,53.2756,158.9571],[30.7795,53.2749,150.5049],[30.7978,53.2772,150.1917],[30.8116,53.2824,148.6054],[30.8567,53.2814,159.1623],[30.8704,53.2838,159.2993],[30.8713,53.2974,155.5304],[30.876,53.3,157.2777],[30.8895,53.2997,156.9858],[30.9169,53.3072,161.5957],[30.9214,53.3071,163.0712],[30.9256,53.3015,164.3431],[30.9299,53.2987,160.9836],[30.9435,53.301,168.4735],[30.9881,53.2996,158.5811],[31.0242,53.3117,128.644],[31.0327,53.3059,135.4408],[31.0362,53.2897,156.498]]]]}}