{"type":"Feature","properties":{"GID_2":"BLR.6.6_1","GID_0":"BLR","country":"Belarus","GID_1":"BLR.6_1","province":"Vitebsk","NL_NAME_1":"Вiцебская","county":"Dubrowna","VARNAME_2":"Dubrovno","NL_NAME_2":"Дубровенскіраён","TYPE_2":"Raion","ENGTYPE_2":"District","CC_2":"NA","HASC_2":"BY.VI.DU","name":"Dubrowna.county"},
"geometry":{"type": "MultiPolygon","coordinates": [[[[31.2192,54.4752,219.9278],[31.2104,54.4832,226.8442],[31.2012,54.4837,230.5103],[31.187,54.4768,217.2632],[31.1685,54.4776,209.6635],[31.1316,54.4909,187.284],[31.1226,54.4987,193.9963],[31.0989,54.5034,183.3197],[31.0851,54.5112,191.68],[31.0856,54.5167,192.1604],[31.0959,54.5225,181.3494],[31.0973,54.5364,186.4638],[31.1026,54.5418,189.7108],[31.1316,54.5512,185.9025],[31.1333,54.5697,186.8257],[31.1386,54.5773,183.8265],[31.1388,54.58,186.9352],[31.168,54.5918,178.5905],[31.1782,54.602,171.3615],[31.1787,54.6072,187.2872],[31.1938,54.6197,171.9691],[31.1995,54.6301,172.8544],[31.2007,54.6433,166.2073],[31.214,54.6504,170.3327],[31.2096,54.656,188.3915],[31.1877,54.671,164.8133],[31.1637,54.672,168.8609],[31.149,54.6672,160.708],[31.1061,54.6691,160.956],[31.0917,54.667,164.5579],[31.0869,54.6672,163.1293],[31.0684,54.676,169.2673],[31.0636,54.6762,166.5313],[31.0635,54.6735,164.9655],[31.0679,54.668,163.778],[31.0584,54.6683,162.4865],[31.0351,54.6746,165.1135],[30.9973,54.6759,183.6624],[30.9927,54.6788,180.877],[30.9929,54.681399999999996,180.9257],[30.9976,54.6813,178.7479],[30.9977,54.684,186.4573],[31.0122,54.6888,175.6189],[31.0134,54.7105,174.0792],[31.0043,54.7162,177.7451],[30.9996,54.7163,177.7236],[30.9898,54.7112,189.0891],[30.9757,54.7116,169.5142],[30.9665,54.7173,208.9179],[30.967,54.7254,208.3804],[30.9486,54.7341,211.3417],[30.9397,54.7425,195.0516],[30.9215,54.7539,207.5574],[30.9123,54.7568,212.6133],[30.8748,54.7604,207.4152],[30.8656,54.7633,206.8935],[30.8611,54.7661,214.0132],[30.8568,54.7744,210.3801],[30.8523,54.7772,202.3979],[30.8526,54.7827,193.3398],[30.8436,54.7884,204.6058],[30.8296,54.7914,209.4998],[30.7876,54.7948,203.1484],[30.76,54.8033,196.0198],[30.7606,54.8118,203.2619],[30.7268,54.8072,186.2291],[30.7072,54.7996,185.0676],[30.6831,54.795,171.4748],[30.6723,54.7761,184.0219],[30.6379,54.7553,181.0868],[30.6181,54.7394,187.6806],[30.6077,54.7233,169.6266],[30.6074,54.7178,168.7373],[30.6163,54.7094,166.4511],[30.6156,54.6985,182.3502],[30.6242,54.6845,180.4241],[30.6239,54.6791,172.0049],[30.6042,54.6632,178.2615],[30.5942,54.6525,175.4958],[30.5893,54.6499,178.3414],[30.5706,54.6504,176.1881],[30.5567,54.6535,170.56],[30.5518,54.6509,169.9925],[30.5514,54.6427,178.7135],[30.5703,54.645,175.0921],[30.5793,54.6393,178.2355],[30.5792,54.6365,184.5445],[30.5742,54.6312,191.8212],[30.5645,54.626,197.2132],[30.5361,54.6212,195.0886],[30.5307,54.6077,206.3856],[30.5346,54.5939,202.327],[30.5443,54.5991,193.61],[30.5536,54.5989,197.8735],[30.5529,54.5852,204.6833],[30.5611,54.5632,205.9364],[30.5703,54.5602,203.7955],[30.589,54.5598,194.5714],[30.5938,54.5624,183.4487],[30.6125,54.5619,170.0987],[30.6171,54.5591,160.6557],[30.6213,54.5508,186.0166],[30.6163,54.5455,187.2944],[30.6296,54.5315,190.8327],[30.6343,54.5314,189.0785],[30.6388,54.5286,186.0607],[30.6386,54.5258,187.0663],[30.6474,54.5147,190.7448],[30.6516,54.5064,195.0861],[30.6607,54.5007,201.9948],[30.6463,54.4956,197.7997],[30.646,54.4902,199.5988],[30.6504,54.4846,203.3292],[30.6731,54.4731,203.3038],[30.678,54.4758,209.023],[30.6873,54.4755,211.031],[30.7012,54.4725,209.0396],[30.7144,54.4585,220.0064],[30.7457,54.4332,214.8474],[30.7553,54.4384,214.9088],[30.7645,54.4355,214.8741],[30.7685,54.4245,209.781],[30.7682,54.419,209.0557],[30.7725,54.4135,227.0018],[30.7772,54.4133,227.433],[30.7765,54.4024,222.985],[30.781,54.3996,218.1151],[30.7857,54.3995,202.6453],[30.8095,54.4072,209.6639],[30.8235,54.4068,214.0733],[30.851,54.398,212.3077],[30.8603,54.3978,201.2741],[30.8839,54.4028,216.4299],[30.8984,54.4106,217.2405],[30.9039,54.4241,214.1392],[30.9003,54.4405,232.717],[30.9098,54.443,237.018],[30.9191,54.4428,216.9217],[30.9371,54.4342,221.065],[30.9507,54.4312,215.0153],[30.9646,54.4309,218.7668],[30.9782,54.4253,222.308],[30.9923,54.4251,223.3986],[31.0067,54.4278,221.817],[31.0205,54.4225,245.6895],[31.0286,54.4034,240.5155],[31.0331,54.4008,243.0591],[31.0379,54.4009,233.8944],[31.048,54.4065,223.3718],[31.0642,54.4285,226.9174],[31.0796,54.4395,219.9289],[31.124,54.4533,219.1227],[31.1435,54.4565,229.1806],[31.1485,54.4593,214.5591],[31.149,54.4673,217.678],[31.1541,54.4726,211.7179],[31.1683,54.4725,213.0446],[31.191,54.464,221.5969],[31.2049,54.4658,218.8909],[31.2144,54.4704,220.0331],[31.2192,54.4752,219.9278]]]]}}