{"type": "Feature","bbox": [29.7796,54.8946,30.9592,55.6396],"geometry": {"type": "MultiPolygon","coordinates": [[[[30.0126,55.0274,162.1231],[30.0264,55.0189,158.2971],[30.0404,55.016,157.9541],[30.045,55.0132,159.8207],[30.0396,54.9994,166.3558],[30.0392,54.9912,165.6895],[30.0438,54.9883,157.0912],[30.0863,54.9905,153.8454],[30.1042,54.9709,156.3888],[30.1182,54.9679,156.3259],[30.1556,54.9646,160.6404],[30.1602,54.9618,154.2012],[30.1454,54.9482,150.4265],[30.1451,54.9427,151.3701],[30.159,54.9369,150.8917],[30.1684,54.9368,148.857],[30.1779,54.9394,163.8136],[30.1871,54.9365,146.9126],[30.1867,54.9282,150.7929],[30.1814,54.9145,156.5241],[30.1859,54.9117,164.5384],[30.1954,54.9143,162.2805],[30.2149,54.9277,162.3865],[30.2751,54.9128,157.8758],[30.3121,54.9011,154.6123],[30.3446,54.8949,160.2097],[30.3539,54.8946,159.5218],[30.3825,54.9023,154.0041],[30.3828,54.9078,164.1982],[30.3783,54.9106,171.5277],[30.3501,54.9113,159.3156],[30.3409,54.9142,149.0514],[30.3319,54.9227,151.9021],[30.332,54.9254,148.2842],[30.3372,54.9336,150.5761],[30.3801,54.9437,167.0417],[30.3849,54.9463,152.8741],[30.39,54.9517,154.4785],[30.3901,54.9545,157.205],[30.3808,54.9575,154.0078],[30.3579,54.9691,157.4129],[30.358,54.9718,153.669],[30.3631,54.9772,154.3954],[30.3825,54.9878,151.3145],[30.3778,54.9879,153.0861],[30.3687,54.9937,158.3887],[30.3691,55.0019,167.3244],[30.4135,55.0342,174.6204],[30.4187,55.0424,177.3313],[30.4146,55.0536,184.8204],[30.4196,55.0591,194.3437],[30.444,55.0697,220.5017],[30.4642,55.0862,227.8664],[30.4702,55.1029,235.2931],[30.4658,55.1086,235.0985],[30.466,55.1114,244.0012],[30.4805,55.1113,243.3324],[30.4946,55.1055,235.5149],[30.5184,55.0998,244.7781],[30.5187,55.1027,247.0195],[30.5245,55.1113,259.1938],[30.5298,55.1142,242.7204],[30.5393,55.1114,246.7587],[30.5446,55.1144,244.4636],[30.5504,55.123,244.2885],[30.5508,55.1259,248.7602],[30.5421,55.1373,237.3824],[30.5448,55.1631,207.688],[30.5504,55.1689,191.4209],[30.5707,55.1749,217.4186],[30.5806,55.1751,213.8204],[30.5948,55.1697,226.4695],[30.5985,55.1583,248.2213],[30.6124,55.1499,244.5218],[30.6459,55.142,263.406],[30.6475,55.1565,243.1562],[30.6782,55.1689,245.688],[30.6837,55.1748,254.8099],[30.6885,55.175,238.9281],[30.6989,55.181,213.8135],[30.6992,55.184,233.4203],[30.6903,55.1924,239.8433],[30.6914,55.204,243.3909],[30.6966,55.207,242.3893],[30.6971,55.2128,213.4225],[30.703,55.2245,192.9049],[30.7182,55.2336,186.2786],[30.723,55.2337,189.3155],[30.7225,55.228,202.1015],[30.727,55.2252,211.2852],[30.7318,55.2253,205.7999],[30.7512,55.2316,201.9459],[30.7616,55.2434,173.6416],[30.7726,55.2667,162.7112],[30.7774,55.2697,164.9647],[30.8006,55.2729,169.4418],[30.8095,55.27,168.4757],[30.8136,55.2641,168.1429],[30.8317,55.2639,165.6918],[30.8556,55.268,162.8018],[30.888,55.2704,176.4018],[30.8771,55.2751,164.8338],[30.8825,55.2756,163.9893],[30.8658,55.2785,170.5963],[30.8426,55.2864,174.6997],[30.8336,55.293,171.5295],[30.8295,55.302,172.7828],[30.8323,55.3306,178.9396],[30.8279,55.3335,165.0107],[30.8329,55.339,163.431],[30.8331,55.3418,164.8097],[30.8426,55.3471,162.331],[30.8754,55.3616,174.6336],[30.8942,55.3656,167.9494],[30.9232,55.3802,180.441],[30.9281,55.3855,174.2807],[30.9386,55.4048,165.7542],[30.939,55.4134,180.7153],[30.9347,55.4196,180.6357],[30.9306,55.4316,173.4655],[30.9176,55.4473,167.0262],[30.9138,55.4592,163.0011],[30.9057,55.4715,159.5673],[30.9065,55.483,158.7281],[30.9113,55.4883,158.4611],[30.9159,55.4908,169.219],[30.9537,55.4961,172.5581],[30.9589,55.5016,171.7916],[30.9592,55.5075,162.0746],[30.9498,55.5139,161.2149],[30.9449,55.5143,165.3402],[30.9358,55.5209,159.0239],[30.9408,55.5263,169.2317],[30.9317,55.5299,172.4524],[30.923,55.5307,178.2769],[30.9147,55.5371,180.7658],[30.9197,55.5453,184.5027],[30.9242,55.5479,186.2314],[30.933,55.5501,185.3012],[30.9328,55.5472,182.9915],[30.9374,55.5468,182.8623],[30.9572,55.5574,174.2554],[30.9577,55.5663,166.9846],[30.9536,55.575,168.8484],[30.954,55.581,169.0544],[30.9463,55.6115,175.7678],[30.9467,55.6198,178.7937],[30.9424,55.6227,178.2862],[30.9427,55.6255,177.7828],[30.9338,55.6341,174.172],[30.9249,55.6341,166.2831],[30.9203,55.6287,167.983],[30.9249,55.6286,164.5257],[30.9201,55.626,168.2583],[30.9064,55.6261,164.5892],[30.8824,55.6395,164.2305],[30.8687,55.6396,164.1218],[30.8646,55.6369,162.7996],[30.8654,55.6263,163.8722],[30.8608,55.6264,174.2851],[30.8364,55.6067,166.362],[30.8076,55.5978,163.4363],[30.7798,55.6028,161.9882],[30.7662,55.611,151.8356],[30.7467,55.5995,177.3799],[30.7277,55.5963,184.1639],[30.7315,55.5825,169.1248],[30.7215,55.5739,177.4715],[30.7213,55.5711,187.2321],[30.7119,55.5682,178.0877],[30.698,55.5681,172.6579],[30.684,55.5625,160.0232],[30.6699,55.5514,163.2567],[30.6561,55.5486,164.5276],[30.6333,55.5485,174.0026],[30.6147,55.5456,174.007],[30.601,55.5482,179.1534],[30.5776,55.5452,181.6137],[30.5591,55.5477,188.4741],[30.5448,55.5447,182.5007],[30.5251,55.5359,183.2724],[30.5244,55.5274,186.241],[30.5331,55.5191,185.2028],[30.5326,55.5134,182.9187],[30.5368,55.5079,182.0579],[30.5403,55.4938,182.3351],[30.5397,55.4881,180.1349],[30.5488,55.4826,180.0459],[30.5581,55.48,166.8638],[30.5576,55.4743,170.2509],[30.5474,55.4684,164.5882],[30.5178,55.462,178.2751],[30.4977,55.4559,174.6439],[30.482,55.4469,173.9995],[30.4666,55.4409,170.8011],[30.4617,55.4408,179.3571],[30.443,55.4489,173.1331],[30.4375,55.4431,183.9113],[30.4371,55.4403,164.1348],[30.4319,55.4373,163.0103],[30.427,55.4372,182.1549],[30.3988,55.4481,173.9456],[30.3841,55.4479,174.1222],[30.3536,55.4391,173.4465],[30.3431,55.4333,168.2351],[30.3316,55.4191,157.7988],[30.3158,55.4105,176.0562],[30.2637,55.3877,169.0513],[30.2488,55.3876,164.2545],[30.2283,55.382,160.7131],[30.2273,55.3735,160.8665],[30.2164,55.3651,173.4362],[30.2154,55.3567,156.505],[30.2053,55.354,156.3841],[30.195,55.3485,174.1929],[30.1755,55.3487,173.078],[30.1611,55.3516,177.2303],[30.1613,55.3544,180.7828],[30.1567,55.3572,180.0899],[30.1526,55.3656,192.3196],[30.1338,55.3741,181.3346],[30.1294,55.3797,178.8094],[30.1199,55.3826,176.4862],[30.095,55.3746,175.6574],[30.0657,55.3722,165.7703],[30.0408,55.3588,170.9591],[30.0168,55.3591,183.021],[30.0026,55.3621,187.692],[29.9935,55.3705,163.5],[29.9837,55.3651,172.9804],[29.9787,55.3596,170.5206],[29.9739,55.3569,184.9749],[29.9692,55.357,181.2527],[29.9693,55.3597,180.4287],[29.9792,55.3707,190.282],[29.9745,55.3735,184.5997],[29.9603,55.3737,164.5542],[29.9362,55.3601,188.0288],[29.9267,55.3574,177.5865],[29.9174,55.3603,168.942],[29.9037,55.3743,180.7218],[29.9038,55.3798,178.8654],[29.8851,55.3856,187.091],[29.885,55.3828,191.9619],[29.8755,55.3801,186.3072],[29.8705,55.3718,179.9931],[29.8562,55.3664,186.5096],[29.8467,55.3665,184.1182],[29.8468,55.3693,186.3175],[29.8279,55.3694,185.6888],[29.8276,55.3611,172.7754],[29.8227,55.3556,167.5436],[29.8081,55.3447,167.5658],[29.8079,55.3391,175.825],[29.8217,55.3279,163.3699],[29.8356,55.3195,158.1833],[29.8212,55.3141,144.4427],[29.8211,55.3113,152.09],[29.8257,55.3058,160.8733],[29.8254,55.2975,154.1175],[29.8205,55.2947,146.0882],[29.8204,55.292,148.337],[29.825,55.2864,152.5591],[29.8246,55.2781,159.3263],[29.8149,55.2699,155.9328],[29.8145,55.2616,166.5798],[29.8238,55.256,170.2569],[29.8333,55.2559,161.3763],[29.8472,55.2475,171.2208],[29.8517,55.2419,151.2505],[29.8515,55.2364,147.7325],[29.842,55.2365,140.1669],[29.8327,55.2421,141.7557],[29.8233,55.2422,143.2861],[29.8136,55.2367,153.427],[29.7944,55.2314,148.4134],[29.7798,55.2232,150.3306],[29.7796,55.2177,160.9984],[29.8259,55.1896,144.4818],[29.8357,55.1978,145.6248],[29.8358,55.2006,142.3346],[29.8407,55.2033,143.2018],[29.8502,55.206,137.8824],[29.8597,55.2059,150.713],[29.8736,55.1975,121.5],[29.8732,55.1892,148.0427],[29.8775,55.1781,148.9593],[29.882,55.1725,147.4717],[29.896,55.1668,134.9991],[29.943,55.1608,138.3842],[29.9619,55.1606,140.3079],[29.9665,55.1578,143.9989],[29.9615,55.1523,147.2476],[29.9471,55.1469,141.7713],[29.9269,55.1168,167.995],[29.9267,55.1113,166.6677],[29.9356,55.1001,161.3303],[29.9355,55.0974,160.7594],[29.9542,55.0916,158.0814],[29.9492,55.0862,161.3403],[29.9488,55.0779,162.0078],[29.9347,55.078,160.9344],[29.9201,55.0699,170.0336],[29.9247,55.0671,169.9786],[29.9245,55.0616,165.6239],[29.9385,55.0587,161.9635],[29.9434,55.0614,159.8627],[29.9528,55.0613,162.7883],[29.9529,55.064,169.0422],[29.9624,55.0639,169.0746],[29.9764,55.061,158.5771],[30.0003,55.0662,157.124],[30.0004,55.069,160.8919],[30.0051,55.0689,168.835],[30.0468,55.0518,160.1458],[30.0459,55.0325,150.5482],[30.041,55.0298,150.1973],[30.0316,55.0299,153.2282],[30.0223,55.0328,155.522],[30.0126,55.0274,162.1231]]]]}
,"properties": {"GID_2": "BLR.6.20_1","GID_0": "BLR","country": "Belarus","GID_1": "BLR.6_1","province": "Vitebsk","NL_NAME_1": "Вiцебская","county": "Vitebsk","VARNAME_2": "Vitsyebsk","NL_NAME_2": "Віцебскіраён","TYPE_2": "Raion","ENGTYPE_2": "District","CC_2": "NA","HASC_2": "BY.VI.VB","name": "Vitebsk.county","area_km2": 2820.76,"hist_schema_id": "Elevation0-9000","hist_area_km2": {"125": 44.247,"150": 956.436,"175": 1334.997,"200": 286.616,"225": 142.629,"250": 53.124,"275": 2.712}}}