{"type":"Feature","properties":{"GID_2":"BLR.2.9_1","GID_0":"BLR","country":"Belarus","GID_1":"BLR.2_1","province":"Gomel","NL_NAME_1":"Гомельская","county":"Khoyniki","VARNAME_2":"Khoiniki","NL_NAME_2":"Хойніцкіраён","TYPE_2":"Raion","ENGTYPE_2":"District","CC_2":"NA","HASC_2":"BY.HO.HN","name":"Khoyniki.county"},
"geometry":{"type": "MultiPolygon","coordinates": [[[[30.3302,52.0251,125.5385],[30.3311,52.0441,127.3304],[30.3232,52.0606,134.7754],[30.3151,52.0743,132.2578],[30.3027,52.0855,149.6885],[30.2987,52.0911,150.0244],[30.2903,52.0968,150.2406],[30.2731,52.0999,147.8488],[30.269,52.1055,143.605],[30.256,52.1058,138.5623],[30.2465,52.0951,144.8965],[30.242,52.0925,138.8133],[30.2116,52.096,146.9938],[30.1766,52.0968,155.0332],[30.1675,52.0916,140.4415],[30.1672,52.0861,142.7335],[30.1625,52.0807,142.213],[30.1623,52.078,136.2915],[30.1535,52.0782,133.3937],[30.154,52.0864,144.4012],[30.151,52.1084,143.4988],[30.1518,52.122,148.3288],[30.1573,52.1411,134.1008],[30.1669,52.1545,130.7142],[30.1673,52.16,130.5527],[30.163,52.1628,130.4978],[30.1322,52.1608,130.5464],[30.1191,52.1639,142.3397],[30.11,52.1586,139.682],[30.1097,52.1531,141.8967],[30.1052,52.1505,149.3222],[30.0925,52.159,129.9019],[30.0793,52.1593,129.7218],[30.0433,52.1465,134.9805],[30.0341,52.1385,137.2583],[30.0162,52.1335,134.5009],[30.0024,52.1229,131.1499],[29.9928,52.1094,130.8423],[29.9839,52.1069,143.5488],[29.9751,52.1071,133.7203],[29.9613,52.0965,146.1832],[29.939,52.0915,129.1073],[29.9214,52.092,130.9801],[29.9124,52.0894,129.3888],[29.9123,52.0867,129.6261],[29.9164,52.0811,130.521],[29.9115,52.073,139.6196],[29.8979,52.0652,131.4726],[29.8977,52.0624,134.7962],[29.8659,52.0441,129.8212],[29.8702,52.0413,130.0471],[29.8701,52.0386,141.102],[29.861,52.0306,127.6255],[29.8212,52.0288,139.511],[29.8126,52.0344,138.6828],[29.8038,52.0346,145.8199],[29.7636,52.0219,124.1948],[29.7501,52.0141,128.8277],[29.7323,52.0118,125.0288],[29.7189,52.0066,132.457],[29.7184,51.9931,135.1993],[29.7137,51.9851,135.9337],[29.7,51.9745,144.5211],[29.6999,51.9718,148.7937],[29.7041,51.9663,129.1365],[29.6905,51.9558,124.4859],[29.6773,51.9561,121.0954],[29.6728,51.9535,122.954],[29.6636,51.9455,119.4734],[29.6589,51.9375,124.9667],[29.6632,51.9347,127.5564],[29.6631,51.932,124.3471],[29.6406,51.9189,118.0893],[29.6405,51.9162,124.6819],[29.6446,51.9107,130.1948],[29.6489,51.908,133.9405],[29.6533,51.9079,131.7819],[29.6442,51.8999,116.8107],[29.6485,51.8971,117.191],[29.6574,51.8997,117.1566],[29.6572,51.8943,117.1436],[29.6744,51.8831,116.8178],[29.6698,51.8805,116.9024],[29.6524,51.8836,124.4496],[29.6392,51.8838,130.0178],[29.6258,51.8814,131.5764],[29.6215,51.8842,127.0129],[29.6175,51.8924,116.9948],[29.6176,51.8951,117.2438],[29.6043,51.8926,131.159],[29.5998,51.89,128.3018],[29.5997,51.8873,127.9016],[29.6038,51.8818,131.2238],[29.6037,51.8791,132.3421],[29.599,51.8711,122.9317],[29.5987,51.863,118.5319],[29.5938,51.8523,116.4421],[29.5936,51.8469,116.8992],[29.5757,51.8391,115.6249],[29.5626,51.8421,116.5899],[29.5536,51.8368,114.764],[29.5534,51.8314,114.0198],[29.5664,51.8258,113.6716],[29.5661,51.8204,113.7604],[29.5704,51.8176,113.0797],[29.5921,51.8091,112.4433],[29.5914,51.7929,112.5034],[29.5955,51.7875,112.704],[29.5953,51.7821,113.9087],[29.5768,51.7609,115.3815],[29.5896,51.7526,112.6565],[29.6115,51.7522,111.2221],[29.6338,51.7598,111.8796],[29.6381,51.7598,113.4617],[29.6424,51.757,111.6735],[29.6465,51.7515,111.8179],[29.6508,51.7488,112.387],[29.6551,51.7487,111.8282],[29.6687,51.7565,111.3921],[29.6774,51.7563,111.3994],[29.6817,51.7536,112.1698],[29.6813,51.7455,111.5907],[29.6896,51.7373,111.0911],[29.7025,51.7344,112.5696],[29.7068,51.7317,112.2823],[29.7065,51.7263,112.5839],[29.702,51.7237,112.9433],[29.6932,51.7239,112.6114],[29.6752,51.7135,112.7633],[29.6749,51.7082,109.9016],[29.6913,51.6892,110.8525],[29.6944,51.6679,113.6799],[29.6983,51.6599,113.8053],[29.7106,51.6464,123.3727],[29.7359,51.6327,112.5078],[29.7445,51.6299,111.6263],[29.7575,51.6296,109.6791],[29.7664,51.6321,111.8306],[29.7706,51.6293,110.3729],[29.7656,51.618899999999996,110.4674],[29.765,51.611,110.464],[29.7734,51.6055,110.2564],[29.7864,51.6053,111.0678],[29.7949,51.6025,110.7592],[29.8033,51.597,109.9885],[29.8031,51.5944,109.5036],[29.8286,51.5859,109.7407],[29.8369,51.5805,109.1289],[29.8233,51.573,106.8417],[29.8231,51.5704,106.0],[29.8354,51.5596,107.9268],[29.8433,51.5489,110.3664],[29.8513,51.5409,108.6446],[29.8679,51.53,108.8339],[29.8722,51.5299,109.656],[29.8768,51.5324,106.7136],[29.8809,51.5297,105.0],[29.8888,51.519,106.1275],[29.9179,51.4998,109.0653],[29.9266,51.4995,109.0556],[29.9404,51.5069,107.57],[29.9492,51.5066,106.8984],[29.9617,51.4981,106.6317],[29.9613,51.4929,103.5],[29.9509,51.4807,108.6546],[29.9561,51.4778,114.4427],[29.974,51.4836,103.0],[29.9931,51.4834,109.475],[30.0193,51.5172,112.1758],[30.0388,51.5177,119.7022],[30.0394,51.5123,115.9963],[30.0492,51.5124,111.4236],[30.0885,51.5072,124.4333],[30.108,51.5075,111.7222],[30.1177,51.5014,116.1461],[30.1273,51.5076,116.8872],[30.1271,51.5201,117.6789],[30.1367,51.5202,114.0367],[30.1651,51.5075,117.6344],[30.1742,51.5073,109.9161],[30.172,51.5248,124.4158],[30.1731,51.5247,124.4158],[30.1712,51.5277,128.7921],[30.1668,51.526,127.4627],[30.158,51.5324,119.2532],[30.132,51.5391,117.7534],[30.1236,51.5449,127.7441],[30.1509,51.5573,116.2737],[30.1647,51.5675,110.5904],[30.1649,51.5702,110.8672],[30.1607,51.5731,120.9484],[30.1563,51.5732,120.5783],[30.1437,51.5818,111.4414],[30.1483,51.5843,113.4919],[30.1486,51.5897,115.5581],[30.1446,51.5952,112.8601],[30.1101,51.6044,111.1342],[30.1013,51.6047,114.0682],[30.0929,51.6103,111.426],[30.0938,51.6237,118.3727],[30.0637,51.6326,112.1563],[30.0643,51.6406,113.3305],[30.0693,51.6511,113.5513],[30.079,51.6642,122.135],[30.0928,51.6746,112.3466],[30.054,51.6837,112.6647],[30.0282,51.6924,112.5285],[30.0284,51.6951,112.9313],[30.0198,51.698,112.4819],[30.0008,51.6744,112.94],[29.9875,51.672,113.2309],[29.9788,51.6723,118.0325],[29.9699,51.6698,118.2229],[29.965699999999998,51.6726,116.6889],[29.966,51.6779,117.3454],[29.9618,51.6807,118.2922],[29.9484,51.6757,120.6386],[29.9396,51.6759,121.1148],[29.9398,51.6786,119.8675],[29.9584,51.6968,120.6996],[29.9635,51.7074,126.0091],[29.9766,51.7071,118.4352],[29.9892,51.6987,117.9345],[29.9981,51.7012,112.9748],[30.0082,51.7224,113.5134],[30.0126,51.7223,113.41],[30.0171,51.7248,113.3588],[30.0178,51.7356,113.8196],[30.0268,51.7407,135.6856],[30.0272,51.7461,133.0696],[30.0319,51.7514,138.5095],[30.0408,51.7538,121.2537],[30.045,51.751,138.043],[30.0586,51.7588,120.0466],[30.0588,51.7615,119.5825],[30.0547,51.7669,120.9677],[30.0595,51.7749,125.2437],[30.086,51.7769,122.6675],[30.0953,51.7875,127.4377],[30.0958,51.7956,126.9856],[30.1004,51.8009,128.7458],[30.1009,51.8089,128.7886],[30.0966,51.8117,128.7983],[30.0969,51.8171,128.1571],[30.1104,51.8222,128.7216],[30.1191,51.822,127.2035],[30.128,51.8245,126.5536],[30.1466,51.8456,127.5586],[30.1429,51.8592,130.2007],[30.1473,51.8591,129.28],[30.1563,51.8643,128.5288],[30.161,51.8696,128.1427],[30.1616,51.8831,127.6162],[30.1667,51.8965,136.46],[30.141,51.9079,124.0385],[30.1501,51.9158,122.8726],[30.1373,51.9215,123.4928],[30.1378,51.9323,123.2039],[30.1423,51.9349,124.0195],[30.1467,51.9348,123.2173],[30.164,51.9317,123.5138],[30.1775,51.9395,137.8838],[30.1823,51.9475,132.6508],[30.1957,51.9526,124.2937],[30.2003,51.9579,129.1206],[30.2135,51.9603,136.4991],[30.2222,51.9574,132.3796],[30.2311,51.9626,131.0461],[30.2314,51.968,133.833],[30.2273,51.9735,128.4987],[30.2274,51.9762,138.4852],[30.2629,51.9862,130.8894],[30.272,51.9941,129.5657],[30.2808,51.9966,138.7075],[30.2898,52.0018,144.642],[30.2905,52.0153,146.7357],[30.3037,52.0177,125.8843],[30.3127,52.0229,125.25],[30.3214,52.0227,139.5775],[30.3302,52.0251,125.5385]]]]}}