{"type": "Feature","bbox": [28.385,52.684,29.0011,53.1707],"geometry": {"type": "MultiPolygon","coordinates": [[[[28.9967,52.8618,172.4841],[28.9649,52.8622,157.6239],[28.9511,52.8569,160.782],[28.9374,52.857,147.3916],[28.9329,52.8598,147.9292],[28.9376,52.8652,159.0595],[28.938,52.8842,165.3773],[28.9336,52.8952,153.0645],[28.9428,52.9005,151.3916],[28.9566,52.9031,153.6082],[28.9612,52.9057,159.6096],[28.9658,52.9111,149.7269],[28.9615,52.9221,162.5501],[28.9616,52.9275,148.2963],[28.9571,52.933,158.9134],[28.9573,52.9412,148.2003],[28.9711,52.9464,161.9463],[28.9757,52.9464,164.9073],[28.9849,52.9545,162.5155],[28.9805,52.9599,161.5336],[28.958,52.9765,147.5749],[28.9489,52.9766,146.1417],[28.9443,52.974,142.3888],[28.9396,52.9686,146.3506],[28.9395,52.9631,144.81],[28.9349,52.9605,143.0091],[28.9304,52.9632,145.1508],[28.9304,52.966,145.9286],[28.926,52.9742,153.6184],[28.9306,52.9768,162.7657],[28.9034,52.988,150.6969],[28.908,52.988,154.2606],[28.9219,52.996,159.4177],[28.9129,53.007,150.0893],[28.8993,53.0126,159.035],[28.8902,53.0099,162.7034],[28.8855,53.0045,153.5295],[28.8764,53.0046,150.7075],[28.8765,53.0155,151.1321],[28.8721,53.0237,151.8806],[28.863,53.0266,169.4611],[28.8356,53.0269,145.8475],[28.8264,53.0242,144.5399],[28.8173,53.0243,166.2664],[28.8173,53.027,146.9281],[28.822,53.0324,144.6458],[28.8221,53.0352,144.627],[28.8175,53.0379,145.5748],[28.8084,53.038,164.3824],[28.8084,53.0407,145.6174],[28.8224,53.0542,146.5992],[28.8227,53.0732,158.2145],[28.8091,53.0816,148.9529],[28.7634,53.082,150.9854],[28.7495,53.0767,156.2358],[28.745,53.0795,161.5517],[28.7358,53.0769,172.7466],[28.7359,53.085,162.1062],[28.7406,53.0931,155.3132],[28.7407,53.0986,160.7456],[28.7362,53.1041,165.7611],[28.7226,53.1124,168.9938],[28.7182,53.1233,164.468],[28.7002,53.1425,168.8204],[28.691,53.1453,170.4945],[28.6774,53.1536,162.8402],[28.6682,53.1537,153.3887],[28.6498,53.1457,169.7276],[28.6406,53.1458,159.1593],[28.6361,53.1486,158.3995],[28.6362,53.1595,156.3712],[28.6317,53.1649,161.3892],[28.618,53.1705,163.9797],[28.5997,53.1707,161.1738],[28.5858,53.1626,157.0312],[28.5765,53.1546,158.1438],[28.5765,53.1518,154.9395],[28.5672,53.1438,166.9269],[28.5671,53.1356,166.7612],[28.5625,53.1329,164.476],[28.5487,53.1303,159.1588],[28.5441,53.1276,155.5966],[28.5532,53.1221,155.3555],[28.5715,53.1192,164.9909],[28.5897,53.1082,168.0203],[28.5851,53.1055,160.2909],[28.5714,53.1056,151.5309],[28.5622,53.1084,164.7501],[28.5484,53.1059,170.8377],[28.5254,53.0952,168.456],[28.5254,53.0925,159.9411],[28.5345,53.0869,156.6526],[28.5435,53.0705,157.5661],[28.5434,53.0624,156.2382],[28.5295,53.0489,152.869],[28.5294,53.0435,152.5189],[28.5339,53.038,152.3643],[28.5338,53.0298,153.9118],[28.5475,53.0243,155.8573],[28.5519,53.0106,161.0414],[28.5746,52.9995,167.218],[28.5746,52.9941,160.8438],[28.556,52.9725,181.0922],[28.5423,52.9727,175.588],[28.5332,52.9755,179.1484],[28.5241,52.981,174.6511],[28.5242,52.9837,186.0321],[28.5151,52.9892,165.7023],[28.4968,52.9894,167.6473],[28.4554,52.9653,179.886],[28.4462,52.9572,163.7104],[28.4461,52.9545,175.6737],[28.4507,52.949,169.3099],[28.4643,52.938,171.5104],[28.4642,52.9326,172.9467],[28.4732,52.9216,172.9775],[28.4823,52.9161,174.5724],[28.4868,52.9107,166.8652],[28.4867,52.8998,156.6929],[28.4912,52.8889,158.2698],[28.4866,52.8835,158.3519],[28.4728,52.8755,152.0747],[28.4225,52.8623,144.0926],[28.4179,52.8597,154.3182],[28.4224,52.8569,159.2258],[28.4269,52.8514,165.1931],[28.4361,52.8513,163.3465],[28.4451,52.8431,156.6748],[28.4633,52.8375,159.7034],[28.4678,52.8347,162.0139],[28.4677,52.8184,153.7545],[28.4629,52.8022,160.9458],[28.4629,52.7968,142.0493],[28.4583,52.7914,154.7981],[28.4262,52.7699,140.7982],[28.4034,52.7647,163.1579],[28.3897,52.7594,140.3378],[28.3896,52.7567,152.1964],[28.385,52.7486,160.6266],[28.3894,52.7295,141.3521],[28.3939,52.7268,144.5461],[28.4258,52.7238,153.5358],[28.4575,52.7099,153.928],[28.4937,52.6878,135.124],[28.5073,52.685,135.9506],[28.5073,52.6877,135.1809],[28.521,52.6957,135.7613],[28.5256,52.6957,146.1977],[28.5391,52.6874,154.978],[28.5528,52.6927,155.318],[28.5756,52.6951,145.528],[28.6027,52.6867,141.5582],[28.6072,52.684,147.632],[28.6209,52.6865,137.4676],[28.6255,52.6892,137.8681],[28.621,52.692,154.146],[28.6255,52.6946,149.9591],[28.6391,52.6918,139.5629],[28.6437,52.6944,140.0474],[28.6438,52.6999,161.807],[28.6529,52.7025,164.1386],[28.6665,52.7024,142.9585],[28.6892,52.6994,140.1323],[28.7028,52.6938,132.4717],[28.7073,52.6938,149.0269],[28.7256,52.7044,131.6198],[28.7392,52.7043,132.0333],[28.7483,52.7015,131.7974],[28.7618,52.6959,132.2552],[28.7618,52.6932,131.9528],[28.7708,52.6876,143.5971],[28.7799,52.693,136.8052],[28.78,52.6984,143.5961],[28.7847,52.7038,148.4935],[28.7984,52.7091,144.9347],[28.803,52.7145,149.1379],[28.8076,52.7171,152.2297],[28.8167,52.7197,148.2863],[28.8439,52.7194,136.6653],[28.8484,52.7167,144.6835],[28.853,52.7193,156.7647],[28.8531,52.722,154.4398],[28.8395,52.7276,143.6273],[28.8396,52.7304,141.7523],[28.8488,52.7357,145.3513],[28.8488,52.7384,151.0005],[28.8307,52.7413,152.9652],[28.8262,52.7441,155.2974],[28.8173,52.7578,150.9753],[28.822,52.7659,148.6205],[28.8221,52.7686,137.6669],[28.8267,52.7713,148.5545],[28.8358,52.7712,149.3058],[28.8583,52.7628,148.6827],[28.872,52.7626,142.579],[28.8812,52.7679,156.5976],[28.8812,52.7707,149.1125],[28.8904,52.7733,147.8326],[28.904,52.7758,153.3673],[28.9177,52.7757,141.0059],[28.9269,52.781,147.3358],[28.9315,52.7864,144.5212],[28.9545,52.7997,141.316],[28.9684,52.8104,141.9195],[28.9685,52.8159,142.0862],[28.9731,52.8213,153.0052],[28.9869,52.8265,150.7626],[29.0009,52.8427,172.6617],[29.0011,52.8536,183.4192],[28.9967,52.8618,172.4841]]]]}
,"properties": {"GID_2": "BLR.4.8_1","GID_0": "BLR","country": "Belarus","GID_1": "BLR.4_1","province": "Mogilev","NL_NAME_1": "Магілёўская","county": "Hlusk","VARNAME_2": "Glusk","NL_NAME_2": "Глускіраён","TYPE_2": "Raion","ENGTYPE_2": "District","CC_2": "NA","HASC_2": "BY.MA.GL","name": "Hlusk.county","area_km2": 1331.618,"hist_schema_id": "Elevation0-9000","hist_area_km2": {"125": 100.216,"150": 953.311,"175": 267.162,"200": 10.928}}}