{"type": "Feature","bbox": [29.6363,52.8638,30.7228,53.3494],"geometry": {"type": "MultiPolygon","coordinates": [[[[30.5604,53.0194,159.9555],[30.5608,53.0249,158.4007],[30.5572,53.0387,175.2236],[30.5711,53.0466,158.1847],[30.5842,53.0408,152.7068],[30.5932,53.0406,151.7208],[30.5896,53.0544,159.1781],[30.5765,53.0602,157.1836],[30.5768,53.0656,155.4569],[30.5868,53.0818,162.6293],[30.5877,53.0955,154.325],[30.5972,53.1035,160.5907],[30.5974,53.1063,165.2977],[30.5885,53.1092,173.5122],[30.5481,53.1101,148.2363],[30.5448,53.1293,157.5987],[30.5499,53.1402,158.4745],[30.5593,53.1455,160.6021],[30.6054,53.1636,159.7897],[30.6148,53.1689,158.6234],[30.6283,53.1686,158.2031],[30.6503,53.1599,158.0347],[30.6636,53.1569,163.5899],[30.6771,53.1566,163.1913],[30.6818,53.1593,164.5086],[30.6821,53.1647,159.9086],[30.678,53.1703,158.9379],[30.6652,53.1815,156.7253],[30.6655,53.187,155.8287],[30.6794,53.1922,152.2356],[30.6837,53.1893,160.8124],[30.6882,53.1892,161.7134],[30.6931,53.1946,159.6104],[30.7082,53.2189,153.9633],[30.7224,53.2296,157.9176],[30.7228,53.2351,158.46],[30.7011,53.2492,152.8533],[30.7013,53.252,153.2323],[30.6926,53.2576,159.4601],[30.6799,53.2716,154.8156],[30.6804,53.2798,155.6625],[30.6851,53.2824,150.2908],[30.6901,53.2905,150.7828],[30.6858,53.2934,151.8432],[30.654,53.2913,154.5361],[30.6316,53.2946,158.6506],[30.6043,53.2924,157.0519],[30.5909,53.2954,156.2448],[30.591,53.2982,160.561],[30.5959,53.3035,160.3436],[30.6051,53.3061,162.2852],[30.6191,53.314,162.3149],[30.6149,53.3196,156.4213],[30.6059,53.3198,157.7268],[30.6015,53.3226,157.0308],[30.6019,53.3281,155.8692],[30.6159,53.336,159.6567],[30.6161,53.3387,155.7717],[30.6072,53.3416,155.6634],[30.5981,53.3418,157.4045],[30.5935,53.3392,154.8616],[30.5883,53.3284,157.6457],[30.5594,53.2988,161.2923],[30.5549,53.2989,161.7924],[30.5507,53.3045,168.9155],[30.5461,53.3046,160.2199],[30.5273,53.2913,157.517],[30.4908,53.2866,158.6275],[30.4861,53.2839,165.9821],[30.4858,53.2785,162.7781],[30.4811,53.2758,150.2156],[30.4407,53.2821,165.6728],[30.4226,53.2825,138.1808],[30.4132,53.2772,158.396],[30.4125,53.2635,154.5628],[30.4075,53.2554,142.1325],[30.4028,53.2527,138.7267],[30.3938,53.2529,133.3309],[30.3852,53.2613,132.6472],[30.3621,53.2535,135.1461],[30.3483,53.251,132.9143],[30.3435,53.2457,134.7084],[30.3477,53.2401,133.2559],[30.3431,53.2374,155.4974],[30.2887,53.2385,132.7507],[30.27,53.2279,132.6183],[30.2518,53.2282,132.659],[30.2425,53.2229,131.6343],[30.2151,53.2206,157.1116],[30.2018,53.2263,165.7968],[30.1971,53.2237,158.7688],[30.179,53.224,164.1388],[30.1572,53.2435,167.8916],[30.1495,53.2737,147.6944],[30.1497,53.2792,147.1906],[30.1409,53.2848,147.8717],[30.1052,53.3018,157.9422],[30.0965,53.3102,166.7853],[30.0693,53.3161,155.8959],[30.0555,53.3136,154.9019],[30.0327,53.3139,163.2673],[30.0104,53.3252,165.1025],[30.0014,53.3281,161.9113],[29.974,53.3285,155.1779],[29.9693,53.3258,158.7626],[29.9644,53.3177,163.4562],[29.9642,53.3123,161.9717],[29.9499,53.2988,146.5992],[29.9407,53.2962,132.4842],[29.9362,53.299,132.5415],[29.9317,53.2991,144.6605],[29.9228,53.3047,175.3884],[29.9091,53.3049,163.5681],[29.9046,53.3077,172.1116],[29.9003,53.3132,161.722],[29.9049,53.3159,154.7325],[29.905,53.3186,149.075],[29.9187,53.3184,139.1862],[29.9235,53.3238,142.8967],[29.9236,53.3265,143.7869],[29.9104,53.3377,151.8134],[29.9105,53.3404,151.7493],[29.9059,53.3405,155.8823],[29.8919,53.3325,169.8432],[29.8918,53.3298,173.9432],[29.8962,53.327,175.016],[29.8961,53.3242,168.1823],[29.8776,53.319,163.2321],[29.8685,53.3192,155.7871],[29.864,53.322,169.8621],[29.8605,53.3493,147.8278],[29.8559,53.3494,154.5494],[29.8142,53.3336,151.9373],[29.8141,53.3309,149.7939],[29.8092,53.3228,167.7548],[29.809,53.3173,167.5348],[29.7905,53.3121,161.202],[29.7722,53.3124,164.6158],[29.7721,53.3097,164.7699],[29.7626,53.3016,165.5599],[29.7624,53.2961,164.4474],[29.7758,53.2878,171.1983],[29.775,53.2659,165.7206],[29.7793,53.2577,152.8837],[29.7837,53.2521,163.1993],[29.797,53.2438,171.2879],[29.8011,53.23,151.3039],[29.7963,53.2247,147.4718],[29.7961,53.2192,145.6613],[29.8047,53.2054,144.4695],[29.7954,53.2001,143.0124],[29.7863,53.2002,143.4316],[29.786,53.192,146.5514],[29.7584,53.187,146.8824],[29.7537,53.1843,147.6983],[29.7761,53.1731,145.972],[29.7759,53.1676,144.6401],[29.7803,53.1621,142.5651],[29.7893,53.1592,148.0372],[29.7892,53.1565,145.1256],[29.7708,53.1513,142.5037],[29.7661,53.1487,143.6198],[29.766,53.1459,148.1297],[29.7794,53.1403,163.8488],[29.7792,53.1348,159.5491],[29.7424,53.1244,145.6171],[29.7286,53.1219,138.7797],[29.7195,53.122,144.5634],[29.7106,53.1276,139.0163],[29.7064,53.1359,139.9098],[29.7066,53.1413,141.8433],[29.7021,53.1441,139.8535],[29.6746,53.1391,147.3454],[29.6699,53.1364,146.0509],[29.6744,53.1336,145.8915],[29.6652,53.131,148.4368],[29.6603,53.1229,145.4305],[29.6602,53.1202,145.342],[29.6647,53.1174,148.0746],[29.6645,53.1119,149.2236],[29.6688,53.1064,148.5394],[29.6547,53.093,149.1602],[29.641,53.0932,148.3122],[29.6364,53.0905,144.9589],[29.6363,53.0878,145.1404],[29.6495,53.074,142.1014],[29.6629,53.0656,148.7181],[29.6765,53.0654,147.9645],[29.6948,53.0678,147.2943],[29.6988,53.0514,144.0728],[29.6705,53.0245,144.4027],[29.688,53.0052,141.2994],[29.6969,52.9996,140.3377],[29.7104,52.9967,143.906],[29.7327,52.9854,145.9297],[29.7418,52.9853,143.3113],[29.7507,52.9797,142.8865],[29.7554,52.9851,140.1951],[29.7691,52.9876,162.1789],[29.7918,52.9872,136.6039],[29.8057,52.9952,136.6999],[29.8103,52.9951,139.9026],[29.8595,52.978,146.7191],[29.8639,52.9752,144.8548],[29.8818,52.9694,149.1932],[29.8863,52.9693,145.9986],[29.8909,52.972,140.267],[29.8958,52.9801,146.6619],[29.8915,52.9856,143.9628],[29.8917,52.9911,142.6133],[29.8873,52.993899999999996,143.5901],[29.8782,52.994,142.134],[29.8693,52.9969,141.1043],[29.8605,53.0025,142.0819],[29.8561,53.008,143.4326],[29.8567,53.0217,144.4622],[29.8614,53.0271,145.1702],[29.8705,53.0269,144.3853],[29.8749,53.0241,143.5552],[29.8842,53.0294,143.3835],[29.8888,53.0294,143.6127],[29.8973,53.0156,140.1822],[29.9149,53.0044,143.6168],[29.9146,52.9962,143.491],[29.919,52.9934,145.5484],[29.9281,52.9932,138.6002],[29.9375,53.0013,139.5485],[29.9466,53.0038,145.7357],[29.9603,53.0063,132.5418],[29.9694,53.0062,133.7525],[29.9738,53.0034,142.6477],[29.9736,52.9979,142.0198],[29.9913,52.9894,140.9321],[30.0139,52.989,127.3893],[30.0276,52.9915,126.2282],[30.0365,52.9887,125.7342],[30.077,52.9852,142.5256],[30.0859,52.9823,156.1655],[30.1175,52.9818,169.2381],[30.172,52.989,145.6233],[30.1861,52.9996,142.2882],[30.2223,53.0017,162.202],[30.2447,52.9985,147.3967],[30.2577,52.9901,139.0218],[30.2663,52.9817,142.1338],[30.2744,52.9651,133.2981],[30.274,52.9569,134.5607],[30.2515,52.9574,132.5089],[30.2423,52.9521,140.7821],[30.242,52.9466,145.3292],[30.2597,52.9408,149.7787],[30.2776,52.9404,138.1693],[30.3047,52.9426,139.8551],[30.3444,52.9309,143.7993],[30.3489,52.9308,145.8506],[30.3719,52.9413,145.9293],[30.3764,52.9412,142.3781],[30.3807,52.9383,142.282],[30.3795,52.9165,150.4092],[30.3868,52.8889,145.2349],[30.395,52.875,143.6422],[30.4077,52.8638,142.3995],[30.4264,52.8771,147.4875],[30.4621,52.8763,148.521],[30.4796,52.8704,146.0923],[30.5069,52.8781,153.0687],[30.5026,52.8809,160.9512],[30.4953,52.9085,165.5067],[30.4869,52.9169,137.4145],[30.4308,52.951,139.301],[30.4309,52.9537,138.0368],[30.4499,52.9725,146.728],[30.4592,52.9778,147.7877],[30.4818,52.98,150.4075],[30.4954,52.9825,148.0981],[30.5,52.9851,149.2442],[30.5005,52.9933,148.7838],[30.5053,52.9987,149.7641],[30.5191,53.0039,156.0154],[30.5241,53.012,156.2377],[30.5287,53.0146,155.6873],[30.5558,53.0168,160.6761],[30.5604,53.0194,159.9555]]]]}
,"properties": {"GID_2": "BLR.2.15_1","GID_0": "BLR","country": "Belarus","GID_1": "BLR.2_1","province": "Gomel","NL_NAME_1": "Гомельская","county": "Rahachow","VARNAME_2": "Rogachev","NL_NAME_2": "Рагачоўскіраён","TYPE_2": "Raion","ENGTYPE_2": "District","CC_2": "NA","HASC_2": "BY.HO.RE","name": "Rahachow.county","area_km2": 2070.923,"hist_schema_id": "Elevation0-9000","hist_area_km2": {"125": 236.554,"150": 1404.076,"175": 427.841,"200": 2.453}}}