{"type":"Feature","properties":{"GID_2":"BLR.6.4_1","GID_0":"BLR","country":"Belarus","GID_1":"BLR.6_1","province":"Vitebsk","NL_NAME_1":"Вiцебская","county":"Chashniki","VARNAME_2":"NA","NL_NAME_2":"Чашніцкіраён","TYPE_2":"Raion","ENGTYPE_2":"District","CC_2":"NA","HASC_2":"BY.VI.CN","name":"Chashniki.county"},
"geometry":{"type": "MultiPolygon","coordinates": [[[[28.8867,54.5645,201.8006],[28.9009,54.5698,204.0865],[28.9058,54.5779,202.2871],[28.8966,54.589,199.0214],[28.8872,54.5918,203.6418],[28.878,54.6028,192.0963],[28.8922,54.6054,194.588],[28.9157,54.6052,170.7397],[28.9485,54.594,172.9854],[28.9579,54.5939,170.1818],[28.9907,54.5854,168.4711],[29.0,54.5771,168.1026],[29.0141,54.5742,169.6845],[29.0235,54.5741,189.022],[29.0283,54.5795,195.7931],[29.0284,54.585,185.4841],[29.0333,54.5932,175.8552],[29.0478,54.6094,184.7122],[29.062,54.612,184.301],[29.0761,54.6119,181.7779],[29.0952,54.6199,168.9812],[29.1143,54.6306,169.2094],[29.1189,54.6279,170.1375],[29.1377,54.6222,186.6919],[29.1611,54.6165,169.6103],[29.1659,54.6192,167.1622],[29.1848,54.6217,178.4155],[29.1944,54.6298,187.002],[29.2086,54.6297,175.9576],[29.2085,54.6269,183.4803],[29.213,54.6214,174.9551],[29.2177,54.6186,168.3907],[29.2365,54.6184,173.3295],[29.2458,54.6129,173.6766],[29.2457,54.6101,179.9513],[29.2315,54.6048,205.4758],[29.2309,54.5857,186.4444],[29.2261,54.5803,184.8171],[29.2213,54.5776,188.9707],[29.2118,54.5749,196.0508],[29.2117,54.5695,191.4764],[29.2446,54.5691,193.8851],[29.2726,54.5579,186.7064],[29.2773,54.5606,182.1734],[29.2822,54.566,176.5],[29.2914,54.5604,191.338],[29.2867,54.5577,195.926],[29.2818,54.5523,182.9979],[29.2817,54.5496,185.1821],[29.2864,54.5468,197.2656],[29.2958,54.5467,199.0497],[29.3006,54.5521,195.8513],[29.3008,54.5576,190.7263],[29.3057,54.5657,202.3318],[29.32,54.5737,191.8889],[29.3483,54.5762,192.5438],[29.3529,54.5706,185.5131],[29.3577,54.5733,182.1765],[29.3624,54.5733,183.4307],[29.3673,54.5814,200.0775],[29.3674,54.5841,203.0934],[29.3817,54.5895,193.2952],[29.3818,54.5922,189.0992],[29.3916,54.6058,187.7344],[29.401,54.6056,192.5701],[29.4008,54.6002,189.8157],[29.3814,54.5812,206.1776],[29.3813,54.5758,194.4257],[29.4143,54.5781,200.0142],[29.4237,54.5808,203.3776],[29.4287,54.5889,201.3954],[29.4384,54.597,210.0505],[29.4388,54.6107,197.213],[29.4436,54.6134,196.1739],[29.4671,54.6131,202.6308],[29.4811,54.6102,204.6599],[29.4857,54.6074,200.4723],[29.4857,54.6047,200.5378],[29.481,54.6047,198.3296],[29.4807,54.5965,199.9492],[29.4947,54.5936,214.7263],[29.4993,54.5908,216.2284],[29.5038,54.5853,204.9199],[29.5037,54.5825,203.626],[29.4989,54.5771,204.1294],[29.5034,54.5716,201.5852],[29.5081,54.5715,195.6163],[29.5083,54.5798,205.9042],[29.5131,54.5824,211.9059],[29.5134,54.5906,220.1779],[29.5089,54.5962,210.4134],[29.4997,54.6018,217.3675],[29.4998,54.6045,211.1244],[29.5046,54.6072,208.563],[29.5095,54.6153,195.3466],[29.5143,54.618,201.5601],[29.5144,54.6207,201.326],[29.5288,54.6288,188.77],[29.543,54.6314,186.9312],[29.5432,54.6369,182.8974],[29.548,54.6395,183.1622],[29.5527,54.6395,183.0225],[29.5575,54.6422,182.9266],[29.5624,54.6476,182.3698],[29.5578,54.6504,186.0561],[29.5533,54.6559,188.6461],[29.5534,54.6587,187.0369],[29.5583,54.6641,187.6404],[29.5399,54.6753,193.8027],[29.5403,54.6862,181.4612],[29.5453,54.6944,201.7635],[29.5407,54.6972,192.8871],[29.5266,54.6974,179.0622],[29.522,54.7029,172.5773],[29.5225,54.7139,175.878],[29.5273,54.7166,187.5403],[29.5274,54.7193,186.3394],[29.5181,54.7249,175.4109],[29.4993,54.7251,174.3034],[29.4944,54.7224,172.2511],[29.4803,54.7226,174.6685],[29.4662,54.7255,173.0465],[29.4526,54.7421,177.1559],[29.4433,54.745,163.6623],[29.4102,54.7453,165.2512],[29.4012,54.7564,155.4467],[29.406,54.7591,158.0504],[29.4064,54.7728,152.0352],[29.402,54.7811,156.9519],[29.4119,54.7947,145.8456],[29.4121,54.8002,144.8652],[29.417,54.8057,150.1467],[29.4177,54.8249,145.2368],[29.4132,54.8332,149.9741],[29.4039,54.836,153.1429],[29.4042,54.847,146.52],[29.4186,54.8496,137.8566],[29.4378,54.8577,156.6139],[29.438,54.8631,156.2934],[29.4332,54.8632,155.6953],[29.4288,54.8715,146.3269],[29.4241,54.8743,150.9278],[29.4099,54.8744,136.5],[29.3959,54.8801,151.0379],[29.3864,54.8802,137.7243],[29.3815,54.8747,138.0011],[29.3813,54.8692,136.6572],[29.3765,54.8665,137.7026],[29.3717,54.8666,137.3867],[29.3487,54.8861,142.7171],[29.3488,54.8888,140.1064],[29.3586,54.8997,140.7473],[29.373,54.9051,142.1433],[29.378,54.9105,142.224],[29.3735,54.9188,143.0399],[29.3688,54.9216,140.9636],[29.3641,54.9216,141.6688],[29.3497,54.9163,141.6214],[29.3447,54.9109,140.412],[29.3446,54.9054,142.165],[29.3397,54.9027,143.7066],[29.335,54.9027,142.3471],[29.3303,54.9055,141.8752],[29.3308,54.9192,156.6183],[29.3356,54.9219,155.5274],[29.3405,54.9274,156.8825],[29.340699999999998,54.9329,157.4541],[29.336,54.9357,154.2701],[29.3362,54.9412,150.1129],[29.3364,54.9467,146.8266],[29.3412,54.9466,145.244],[29.3415,54.9576,141.8203],[29.3324,54.9714,139.4765],[29.3278,54.9742,142.5922],[29.3134,54.9716,160.0613],[29.2993,54.9773,138.4152],[29.2946,54.9773,138.4374],[29.2849,54.9719,139.2714],[29.2563,54.9695,149.0441],[29.2515,54.9668,139.9831],[29.2324,54.9669,140.8726],[29.2279,54.9725,145.0194],[29.2183,54.9726,140.9918],[29.2087,54.9672,152.1003],[29.1944,54.9673,139.9748],[29.1897,54.9701,139.4273],[29.19,54.9811,137.5186],[29.1614,54.9786,141.0074],[29.1518,54.9732,136.9692],[29.147,54.9733,135.4821],[29.1423,54.9761,125.4186],[29.128,54.9734,142.412],[29.1138,54.9763,142.8093],[29.0998,54.9874,139.7082],[29.0951,54.9875,136.4773],[29.0807,54.9849,141.9492],[29.0566,54.9741,150.9139],[29.0566,54.9713,156.9617],[29.0518,54.9686,162.1884],[29.0515,54.9576,150.2617],[29.0418,54.9522,157.3199],[29.0417,54.9467,141.4084],[29.0369,54.944,140.02],[29.0321,54.944,141.3036],[29.0322,54.9468,147.0425],[29.0227,54.9469,152.0069],[29.0224,54.9331,142.0061],[29.0174,54.9249,157.1461],[29.0172,54.9167,141.8833],[29.0266,54.9111,145.2895],[29.0217,54.9057,144.2969],[28.9928,54.8894,169.0277],[28.9833,54.8895,160.4015],[28.9737,54.8841,171.5405],[28.969,54.8869,163.105],[28.9499,54.8815,170.6676],[28.9499,54.8788,179.9728],[28.9545,54.876,168.7554],[28.9687,54.8731,168.6439],[28.9686,54.8704,171.6154],[28.9496,54.8678,172.8742],[28.94,54.8624,199.2762],[28.9398,54.8542,210.1807],[28.9254,54.8461,240.4164],[28.9253,54.8406,211.29],[28.9393,54.8322,221.999],[28.9439,54.824,220.9221],[28.9483,54.8102,241.5592],[28.9577,54.8046,250.486],[28.9671,54.8046,250.368],[28.9815,54.8099,218.1463],[28.9957,54.8098,212.6168],[29.01,54.8152,197.547],[29.0242,54.815,197.6489],[29.0382,54.8067,200.0933],[29.0381,54.8012,200.3669],[29.0285,54.7958,192.4811],[29.0284,54.7903,194.9119],[29.0329,54.7821,196.8298],[29.0328,54.7766,191.0089],[29.0185,54.7712,203.5588],[29.0184,54.7685,186.7159],[29.0277,54.7602,189.308],[29.0276,54.7574,189.9033],[29.0227,54.752,200.0193],[29.0227,54.7493,200.622],[29.0179,54.7466,194.9717],[28.999,54.7467,209.1604],[28.9893,54.7359,226.6868],[28.9892,54.7331,237.136],[28.9561,54.7334,216.1717],[28.9418,54.7281,230.6032],[28.937,54.7226,240.5713],[28.9322,54.7199,260.6143],[28.9133,54.7201,261.3677],[28.8797,54.6957,234.5093],[28.8702,54.6903,208.5265],[28.8512,54.685,193.7435],[28.8275,54.6797,195.2905],[28.8133,54.6799,192.097],[28.7942,54.6718,190.2852],[28.7895,54.6718,191.3829],[28.7754,54.6774,188.156],[28.766,54.6775,186.5497],[28.7565,54.6748,185.2667],[28.7564,54.6666,175.8021],[28.7611,54.6666,178.8456],[28.761,54.6611,170.7901],[28.7515,54.6585,165.5075],[28.7515,54.6557,165.2816],[28.7608,54.6502,186.7352],[28.756,54.6475,184.6856],[28.7371,54.6449,177.5852],[28.7229,54.645,165.2585],[28.7183,54.6505,181.711],[28.7184,54.6587,182.5543],[28.7138,54.6669,178.6237],[28.7044,54.6697,168.3521],[28.6902,54.6698,175.2094],[28.6808,54.6672,187.7957],[28.6713,54.6672,212.9195],[28.6714,54.6727,212.6566],[28.6762,54.6781,176.7634],[28.6715,54.6809,169.655],[28.6242,54.6785,184.7616],[28.6241,54.6757,180.086],[28.6288,54.673,180.1215],[28.6381,54.662,200.7216],[28.6522,54.6564,215.3136],[28.6568,54.6427,198.5782],[28.6614,54.6372,211.8602],[28.6708,54.6317,191.4226],[28.694,54.6042,184.7109],[28.6939,54.5988,195.9974],[28.6796,54.5907,196.2784],[28.6795,54.5852,215.9541],[28.6935,54.5742,228.3608],[28.6935,54.5715,214.0317],[28.7028,54.5659,198.3735],[28.7217,54.5658,213.5369],[28.7406,54.5711,185.6745],[28.7642,54.5709,190.7986],[28.769,54.5736,197.1637],[28.7691,54.5791,208.215],[28.7738,54.5818,217.4659],[28.7785,54.5817,216.7155],[28.7879,54.5762,214.194],[28.8067,54.576,226.6251],[28.8159,54.5623,207.9734],[28.8253,54.5595,203.1045],[28.8536,54.5593,196.819],[28.8678,54.5619,209.7667],[28.8725,54.5646,200.7378],[28.8867,54.5645,201.8006]]]]}}