{"type":"Feature","properties":{"GID_2":"BLR.5.7_1","GID_0":"BLR","country":"Belarus","GID_1":"BLR.5_1","province":"Minsk","NL_NAME_1":"Мінская","county":"Krupki","VARNAME_2":"NA","NL_NAME_2":"Крупскіраён","TYPE_2":"Raion","ENGTYPE_2":"District","CC_2":"NA","HASC_2":"BY.MI.KK","name":"Krupki.county"},
"geometry":{"type": "MultiPolygon","coordinates": [[[[29.0126,54.0609,175.8934],[29.0358,54.0553,181.6064],[29.0638,54.0577,170.4536],[29.0918,54.0575,171.1672],[29.0965,54.0602,178.9269],[29.1058,54.0601,191.745],[29.1151,54.0572,184.9793],[29.1148,54.0463,168.0075],[29.1194,54.0435,169.6284],[29.1287,54.0435,159.8566],[29.1522,54.0514,163.935],[29.1709,54.054,175.8562],[29.2082,54.0536,201.2678],[29.2174,54.048,195.717],[29.222,54.048,188.9728],[29.2266,54.0452,186.1523],[29.2265,54.0425,185.1467],[29.217,54.0317,204.2741],[29.2169,54.0289,203.5974],[29.2215,54.0262,199.3766],[29.2354,54.026,206.8709],[29.2542,54.0313,192.8382],[29.2682,54.0311,182.9863],[29.2773,54.0256,190.6411],[29.2771,54.0174,191.2586],[29.2863,54.0118,199.4808],[29.3002,54.0117,188.4781],[29.3232,54.0005,194.4347],[29.3418,54.0003,189.6344],[29.3419,54.0058,196.0683],[29.3467,54.0112,198.2672],[29.3468,54.0139,190.8163],[29.361,54.0219,184.3845],[29.375,54.0245,184.9869],[29.3798,54.0299,187.9892],[29.3986,54.0352,185.3994],[29.4406,54.0402,197.9702],[29.4407,54.0429,193.3145],[29.4269,54.0485,199.4023],[29.427,54.0512,186.3987],[29.4364,54.0566,206.3223],[29.4369,54.073,204.1326],[29.4327,54.0867,194.6046],[29.4374,54.0893,199.2679],[29.4421,54.0893,199.0146],[29.4469,54.0947,180.4609],[29.4474,54.1138,198.2387],[29.4336,54.1194,194.1854],[29.4339,54.1276,184.966],[29.4532,54.1519,188.5294],[29.4534,54.1574,209.1302],[29.4488,54.1602,196.3428],[29.4443,54.1657,187.1872],[29.4399,54.1739,206.3614],[29.4446,54.1766,206.6693],[29.4447,54.1793,200.6394],[29.4542,54.1847,205.8875],[29.4544,54.1929,209.4046],[29.4688,54.2063,195.9548],[29.4642,54.2091,192.1614],[29.4502,54.2093,190.6424],[29.441,54.2121,193.3015],[29.4412,54.2203,215.1407],[29.4366,54.2231,202.2203],[29.4133,54.2233,194.4787],[29.4088,54.2289,207.4857],[29.4089,54.2316,214.1934],[29.4043,54.2344,196.6766],[29.3949,54.2345,194.1175],[29.3807,54.2264,194.9146],[29.3714,54.2265,195.1773],[29.3621,54.2294,214.2152],[29.3483,54.2377,192.4551],[29.3485,54.2432,199.411],[29.3533,54.2486,198.174],[29.3675,54.2539,213.4918],[29.3584,54.2649,196.8823],[29.3679,54.2702,191.4071],[29.3819,54.2674,190.0558],[29.3912,54.2673,203.5615],[29.3959,54.2699,206.6966],[29.3915,54.2782,205.0355],[29.3917,54.2836,194.2263],[29.4013,54.2944,193.3968],[29.4063,54.3053,189.1481],[29.4205,54.3105,183.3643],[29.4206,54.3133,182.9051],[29.416,54.3161,183.5869],[29.3973,54.3163,189.7505],[29.3925,54.3136,197.181],[29.3878,54.3137,192.4489],[29.3832,54.3164,193.218],[29.3841,54.3464,205.0172],[29.3795,54.3492,217.1176],[29.3514,54.3495,212.1883],[29.3469,54.355,201.8113],[29.3703,54.3575,199.2267],[29.3984,54.3572,208.2332],[29.4079,54.3625,220.0977],[29.4177,54.3787,214.1006],[29.4225,54.3814,212.4872],[29.4319,54.3813,210.1347],[29.4365,54.3785,213.2059],[29.4552,54.381,205.6151],[29.4555,54.3892,203.613],[29.4462,54.392,216.1588],[29.4369,54.3921,202.4524],[29.4323,54.3976,198.8148],[29.4371,54.4003,201.8839],[29.4372,54.403,190.5404],[29.428,54.4086,191.3534],[29.4327,54.4113,196.8781],[29.433,54.4222,212.3895],[29.4472,54.4247,203.3382],[29.4519,54.4274,193.4231],[29.452,54.4301,191.1469],[29.4428,54.4357,204.8843],[29.4288,54.4386,214.3293],[29.4242,54.4414,211.6534],[29.4385,54.4467,214.3061],[29.4385,54.4494,196.6363],[29.4198,54.4496,214.8207],[29.4152,54.4524,211.7203],[29.4153,54.4552,220.6166],[29.4296,54.4632,181.8228],[29.4344,54.4686,192.0782],[29.4345,54.4713,199.3559],[29.4488,54.4793,204.7123],[29.4489,54.4821,204.749],[29.4585,54.4901,206.2967],[29.4588,54.4983,215.0544],[29.445,54.5094,226.9593],[29.4451,54.5121,233.4771],[29.4548,54.523,213.3981],[29.455,54.5284,197.3987],[29.4599,54.5338,194.6327],[29.474,54.5364,205.4917],[29.4788,54.5391,204.332],[29.479,54.5445,197.0987],[29.4654,54.5611,199.0492],[29.465699999999998,54.5693,199.6448],[29.4753,54.5747,204.4489],[29.4989,54.5771,204.1294],[29.5037,54.5825,203.626],[29.5038,54.5853,204.9199],[29.4993,54.5908,216.2284],[29.4947,54.5936,214.7263],[29.4807,54.5965,199.9492],[29.481,54.6047,198.3296],[29.4857,54.6047,200.5378],[29.4857,54.6074,200.4723],[29.4811,54.6102,204.6599],[29.4671,54.6131,202.6308],[29.4436,54.6134,196.1739],[29.4388,54.6107,197.213],[29.4384,54.597,210.0505],[29.4287,54.5889,201.3954],[29.4237,54.5808,203.3776],[29.4143,54.5781,200.0142],[29.3813,54.5758,194.4257],[29.3814,54.5812,206.1776],[29.4008,54.6002,189.8157],[29.401,54.6056,192.5701],[29.3916,54.6058,187.7344],[29.3818,54.5922,189.0992],[29.3817,54.5895,193.2952],[29.3674,54.5841,203.0934],[29.3673,54.5814,200.0775],[29.3624,54.5733,183.4307],[29.3577,54.5733,182.1765],[29.3529,54.5706,185.5131],[29.3483,54.5762,192.5438],[29.32,54.5737,191.8889],[29.3057,54.5657,202.3318],[29.3008,54.5576,190.7263],[29.3006,54.5521,195.8513],[29.2958,54.5467,199.0497],[29.2864,54.5468,197.2656],[29.2817,54.5496,185.1821],[29.2818,54.5523,182.9979],[29.2867,54.5577,195.926],[29.2914,54.5604,191.338],[29.2822,54.566,176.5],[29.2773,54.5606,182.1734],[29.2726,54.5579,186.7064],[29.2446,54.5691,193.8851],[29.2117,54.5695,191.4764],[29.2118,54.5749,196.0508],[29.2213,54.5776,188.9707],[29.2261,54.5803,184.8171],[29.2309,54.5857,186.4444],[29.2315,54.6048,205.4758],[29.2457,54.6101,179.9513],[29.2458,54.6129,173.6766],[29.2365,54.6184,173.3295],[29.2177,54.6186,168.3907],[29.213,54.6214,174.9551],[29.2085,54.6269,183.4803],[29.2086,54.6297,175.9576],[29.1944,54.6298,187.002],[29.1848,54.6217,178.4155],[29.1659,54.6192,167.1622],[29.1611,54.6165,169.6103],[29.1377,54.6222,186.6919],[29.1189,54.6279,170.1375],[29.1143,54.6306,169.2094],[29.0952,54.6199,168.9812],[29.0761,54.6119,181.7779],[29.062,54.612,184.301],[29.0478,54.6094,184.7122],[29.0333,54.5932,175.8552],[29.0284,54.585,185.4841],[29.0283,54.5795,195.7931],[29.0235,54.5741,189.022],[29.0141,54.5742,169.6845],[29.0,54.5771,168.1026],[28.9907,54.5854,168.4711],[28.9579,54.5939,170.1818],[28.9485,54.594,172.9854],[28.9157,54.6052,170.7397],[28.8922,54.6054,194.588],[28.878,54.6028,192.0963],[28.8872,54.5918,203.6418],[28.8966,54.589,199.0214],[28.9058,54.5779,202.2871],[28.9009,54.5698,204.0865],[28.8867,54.5645,201.8006],[28.8866,54.559,192.1671],[28.8769,54.5482,188.9377],[28.8721,54.54,189.7569],[28.8483,54.5293,188.6188],[28.8529,54.5238,194.0686],[28.8624,54.5237,194.4644],[28.8857,54.5153,195.0926],[28.8951,54.5098,192.5949],[28.8807,54.4963,200.2568],[28.8804,54.4826,183.0027],[28.8708,54.4718,185.1306],[28.8472,54.4665,192.5835],[28.8424,54.4638,195.1631],[28.8284,54.4667,194.4469],[28.8191,54.4722,218.4412],[28.7767,54.4725,189.0216],[28.7719,54.4671,194.1864],[28.7717,54.4562,216.6171],[28.7764,54.4507,214.7614],[28.7952,54.4505,210.8334],[28.8045,54.4477,228.2936],[28.7998,54.445,222.5511],[28.7856,54.4424,199.4864],[28.7902,54.4342,200.6741],[28.7853,54.4233,197.118],[28.7805,54.4179,199.2861],[28.7805,54.4152,203.1149],[28.7851,54.4124,215.5625],[28.7898,54.4124,205.0276],[28.7993,54.4177,195.1624],[28.8088,54.4204,204.6788],[28.8417,54.4201,189.4222],[28.8416,54.4174,191.2973],[28.8369,54.4147,196.6789],[28.8132,54.404,195.6142],[28.8272,54.3984,201.6743],[28.846,54.3982,219.7679],[28.8648,54.4008,193.8594],[28.8694,54.3953,186.8603],[28.8692,54.3844,192.5107],[28.8739,54.3816,204.9926],[28.8737,54.3707,184.9696],[28.8688,54.3626,181.8338],[28.8688,54.3598,182.0212],[28.8593,54.3572,181.2295],[28.8592,54.3517,179.7466],[28.8638,54.3462,187.0456],[28.8637,54.338,174.1286],[28.8587,54.3244,184.5706],[28.868,54.3161,184.4654],[28.8772,54.3106,201.1539],[28.882,54.3133,184.376],[28.9007,54.3131,182.3156],[28.9006,54.3049,171.5986],[28.8769,54.2942,207.8019],[28.8767,54.2833,169.8429],[28.8814,54.2805,170.8084],[28.8907,54.2804,189.2451],[28.8954,54.2777,176.7384],[28.8952,54.2695,171.9584],[28.8858,54.2668,169.2825],[28.8858,54.2641,168.8586],[28.8717,54.2642,167.1708],[28.867,54.2615,166.2854],[28.8716,54.256,181.746],[28.8854,54.245,181.1422],[28.8899,54.234,172.8541],[28.8945,54.2313,167.7833],[28.9179,54.2283,158.5135],[28.9272,54.2255,173.3829],[28.9366,54.2282,169.1855],[28.9459,54.2281,165.1922],[28.9457,54.2172,168.3717],[28.9503,54.2144,166.4221],[28.9551,54.2171,176.7563],[28.9597,54.2143,172.7497],[28.9595,54.2061,194.8205],[28.9642,54.2033,182.4454],[28.9594,54.1979,174.8411],[28.95,54.198,191.8868],[28.9453,54.1953,188.5695],[28.9592,54.1897,197.6197],[28.9639,54.1897,190.0612],[28.9592,54.187,192.9788],[28.9638,54.1842,189.8435],[28.9684,54.1842,191.8782],[28.9732,54.1896,205.1215],[28.9779,54.1896,199.883],[28.9825,54.1868,192.354],[28.9818,54.1513,155.5732],[28.9677,54.146,170.9186],[28.9676,54.1405,176.2437],[28.9816,54.1431,158.7844],[28.9956,54.143,165.1364],[28.9862,54.1376,162.5274],[28.9674,54.1351,156.8961],[28.9627,54.1296,167.2949],[28.9626,54.1269,170.0287],[28.9719,54.1268,171.9244],[28.9813,54.1295,167.1987],[28.9953,54.1266,182.1774],[28.9952,54.1239,185.5004],[28.9905,54.1212,189.3159],[28.995,54.113,171.3415],[28.9947,54.0993,181.1623],[29.0036,54.0774,167.7694],[29.0034,54.0692,173.2944],[29.0126,54.0609,175.8934]]]]}}