{"type":"Feature","properties":{"featurecla":"River","scalerank":8,"rivernum":732,"dissolve":"732River","name":"Bug3","name_alt":null,"note":null,"min_zoom":7.0,"strokeweig":0.25,"name_en":"Bug","min_label":8.0},
"geometry":{"type": "LineString","coordinates": [[23.686767578125,51.29266998905662,164.801],[23.669677734375,51.29962799686912,172.8723],[23.650390625,51.299920965619116,165.1678],[23.634521484375,51.304950262494117,165.2308],[23.628076171875023,51.32623932499412,172.888],[23.633544921875,51.339618231244117,164.8125],[23.647216796875,51.35431549686912,164.6592],[23.6650390625,51.366083074994116,164.0087],[23.683349609375,51.37055084843162,164.681],[23.677148437500023,51.38410065311912,163.3586],[23.678369140625023,51.39435455936912,163.33],[23.685546875,51.40131256718162,163.9597],[23.697021484375,51.40473053593162,162.5027],[23.688867187500023,51.41669342655662,162.7803],[23.648193359375,51.454217840619116,161.1842],[23.646484375,51.460467840619117,171.0658],[23.662255859375023,51.48041412968162,159.253],[23.648095703125023,51.48651764530662,161.3789],[23.6298828125,51.490741278119117,158.9654],[23.6142578125,51.49750397343162,158.273],[23.607568359375023,51.511493231244117,179.4683],[23.601806640625,51.53107330936912,161.9393],[23.588037109375023,51.536151434369117,156.7126],[23.572265625,51.539911199994116,155.6311],[23.559814453125,51.555536199994116,172.067],[23.566650390625,51.555194403119117,156.019],[23.573486328125,51.555536199994116,154.504],[23.551513671875,51.57904694218162,155.1859],[23.542724609375,51.593036199994117,154.3947],[23.539306640625,51.60736725468162,153.0993],[23.544677734375,51.63434479374412,153.8874],[23.543359375000023,51.64411041874412,151.2451],[23.531884765625023,51.651727606244116,151.2196],[23.531884765625023,51.65924713749412,150.6321],[23.540917968750023,51.65997955936912,151.9808],[23.547119140625,51.66229889530662,150.8371],[23.559814453125,51.672235418744116,153.6398],[23.554833984375023,51.676532293744117,151.603],[23.548828125,51.68353912968162,149.5743],[23.545556640625023,51.68988678593162,149.2482],[23.549560546875,51.69269440311912,149.4733],[23.558740234375023,51.695428778119116,156.8592],[23.556396484375,51.70172760624412,152.0812],[23.549707031250023,51.70868561405662,149.3703],[23.546142578125,51.71381256718162,150.3614],[23.5517578125,51.73688385624412,147.2232],[23.555810546875023,51.74762604374412,146.4958],[23.559814453125,51.754754949994116,147.9346],[23.57666015625,51.766961981244116,148.213],[23.597900390625,51.77496979374412,146.3043],[23.616943359375,51.786737371869116,145.3806],[23.628076171875023,51.81000397343162,143.9667],[23.609765625000023,51.825458074994117,143.5343],[23.593994140625,51.84357330936912,155.5005],[23.605224609375,51.85187409061912,142.9235],[23.609375,51.873553778119117,144.5685],[23.621240234375023,51.877704168744117,139.8699],[23.620849609375,51.88226959843162,142.4218],[23.6201171875,51.883417059369116,142.4218],[23.618310546875023,51.88349030155662,142.0757],[23.614404296875023,51.884540106244117,142.0142],[23.620849609375,51.89581940311912,140.7878],[23.62158203125,51.92816803593162,139.9218],[23.628076171875023,51.94660065311912,140.0763],[23.64697265625,51.97431061405662,138.0145],[23.66015625,51.98712799686912,136.7614],[23.675927734375023,51.994403387494117,138.0779],[23.664453125000023,52.01141998905662,135.3368],[23.650292968750023,52.04926178593162,133.4183],[23.641992187500023,52.06171295780662,133.3951],[23.640869140625,52.07318756718162,136.318],[23.636962890625,52.084735418744117,134.221],[23.624658203125023,52.089960028119116,135.1849],[23.615234375,52.09259674686912,131.2701],[23.609375,52.09894440311912,133.0528],[23.604248046875,52.107049871869116,131.6642],[23.59765625,52.11481354374412,132.768],[23.578857421875,52.121844793744117,132.4378],[23.531396484375023,52.12091705936912,129.4639],[23.511962890625,52.12470123905662,132.1627],[23.484130859375,52.15888092655662,129.6883],[23.488037109375,52.16242096561912,130.5323],[23.491113281250023,52.17438385624412,129.0348],[23.487060546875,52.181903387494117,129.6927],[23.470458984375,52.17194244999412,130.0294],[23.463769531250023,52.176629949994116,129.5958],[23.453857421875,52.181756903119116,127.9976],[23.449951171875,52.186151434369116,134.3364],[23.436181640625023,52.17597077030662,127.0027],[23.426660156250023,52.17706940311912,132.6971],[23.417626953125023,52.182733465619116,131.6426],[23.4052734375,52.186151434369116,135.0069],[23.390869140625,52.182733465619116,130.0318],[23.387939453125,52.18439362186912,128.551],[23.395263671875,52.193622137494117,132.749],[23.395263671875,52.19977448124412,129.5118],[23.374267578125,52.20123932499412,130.8099],[23.312158203125023,52.215594793744117,124.5397],[23.299072265625,52.22370026249412,131.9992],[23.28369140625,52.22003815311912,142.488],[23.211669921875,52.231952215619117,124.3459],[23.189208984375,52.24079010624412,150.6415],[23.197167968750023,52.258563543744117,124.7216],[23.19384765625,52.271747137494117,125.6727],[23.183007812500023,52.281610418744116,124.9982],[23.168115234375023,52.289178778119116,135.4315]]}}