{"type":"Feature","properties":{"featurecla":"River","scalerank":7,"rivernum":429,"dissolve":"429River","name":"Pripyat2","name_alt":null,"note":null,"min_zoom":6.0,"strokeweig":0.2,"name_en":"Pripyat","min_label":7.0},
"geometry":{"type": "LineString","coordinates": [[25.911230468750006,52.072137762494116,135.6301],[25.998242187500011,52.100458074994116,134.0471],[26.026464843750006,52.104266668744117,135.1756],[26.037109375,52.102899481244116,133.9741],[26.056054687500023,52.09772369999412,134.2411],[26.0673828125,52.097430731244117,135.9427],[26.094628906250023,52.10956452030662,141.589],[26.162109375,52.118280340619116,134.1905],[26.18408203125,52.117938543744117,132.9425],[26.224853515625,52.11054108280662,134.6801],[26.250683593750011,52.10907623905662,133.9647],[26.285058593750023,52.118524481244116,135.0552],[26.341699218750023,52.097430731244117,133.7213],[26.36083984375,52.09589264530662,137.8037],[26.3818359375,52.09747955936912,133.7036],[26.402587890625,52.103387762494116,133.7455],[26.4208984375,52.11481354374412,135.7281],[26.436914062500023,52.12238190311912,133.8962],[26.456152343750006,52.12311432499412,133.3308],[26.491943359375,52.117938543744117,133.23],[26.659765625,52.124872137494116,133.7979],[26.72900390625,52.117938543744117,131.6428],[26.7470703125,52.12177155155662,131.7455],[26.781494140625,52.13983795780662,130.2797],[26.801025390625,52.14520905155662,134.016],[26.82177734375,52.144061590619117,130.247],[26.86474609375,52.13349030155662,132.468],[26.886621093750023,52.13092682499412,130.2176],[26.90087890625,52.134637762494116,130.4156],[26.93896484375,52.15253327030662,130.2751],[26.958740234375,52.15888092655662,130.0701],[26.979394531250023,52.160907293744117,130.1823],[27.044335937500023,52.15888092655662,128.7737],[27.05234375,52.15668366093162,130.2283],[27.065527343750006,52.147333074994116,128.6515],[27.0712890625,52.14520905155662,128.3381],[27.116308593750006,52.15204498905662,128.7354],[27.180761718750006,52.150409246869117,127.145],[27.190820312500023,52.15546295780662,128.2751],[27.201269531250006,52.165399481244116,127.4602],[27.224853515625,52.16058991093162,128.3774],[27.2666015625,52.14520905155662,127.3557],[27.276757812500023,52.146112371869116,126.6089],[27.292382812500023,52.15058014530662,125.999],[27.300683593750023,52.15204498905662,127.2404],[27.338476562500006,52.15204498905662,128.3071],[27.35546875,52.155536199994117,127.7771],[27.36083984375,52.153094793744117,127.0902],[27.36279296875,52.14179108280662,126.6334],[27.367919921875,52.13947174686912,129.3988],[27.404296875,52.14520905155662,125.8308],[27.428466796875,52.13385651249412,130.5917],[27.4384765625,52.13092682499412,126.5028],[27.52197265625,52.130389715619117,125.6469],[27.56201171875,52.12470123905662,127.2402],[27.6083984375,52.10687897343162,126.5225],[27.6265625,52.104266668744117,124.2002],[27.6689453125,52.10431549686912,123.1447],[27.684960937500023,52.100360418744117,123.8199],[27.724707031250006,52.08173248905662,124.9981],[27.741796875,52.080438543744116,123.9734],[27.7841796875,52.083758856244117,124.2284],[27.795166015625,52.082635809369116,123.8042],[27.8140625,52.077997137494116,120.5],[27.838134765625,52.075067449994116,123.9877],[27.845703125,52.070672918744116,121.7985],[27.8505859375,52.065936590619117,121.2544],[27.856201171875,52.06268952030662,123.0464],[27.86669921875,52.06000397343162,123.2072],[27.873437500000023,52.059198309369116,125.3766],[27.890234375,52.06268952030662,122.8088],[27.89990234375,52.066180731244117,124.6655],[27.92138671875,52.076922918744117,123.6071],[28.000097656250006,52.076922918744117,123.1804]]}}