{"type":"Feature","properties":{"featurecla":"River","scalerank":8,"rivernum":779,"dissolve":"779River","name":"Mukhavyets1","name_alt":null,"note":"Version 1.2 edit in N. America and Europe","min_zoom":7.0,"strokeweig":0.15,"name_en":"Mukhavyets","min_label":8.0},
"geometry":{"type": "LineString","coordinates": [[23.749755859375,51.48480866093162,166.6963],[23.75341796875,51.498065496869117,165.7794],[23.753808593750023,51.50946686405662,164.3531],[23.747216796875023,51.525262762494116,161.0],[23.753564453125023,51.532489324994117,161.0],[23.7724609375,51.539178778119116,175.5574],[23.80078125,51.544696356244117,168.6832],[23.828857421875,51.557879949994117,163.2213],[23.847412109375,51.58283112186912,174.6238],[23.865136718750023,51.61188385624412,161.1612],[23.891357421875,51.634784246869117,174.3032],[23.953125,51.66596100468162,168.0625]]}}