{"type":"Feature","properties":{"featurecla":"River","scalerank":7,"rivernum":429,"dissolve":"429River","name":"Pripyat1","name_alt":null,"note":null,"min_zoom":6.0,"strokeweig":0.2,"name_en":"Pripyat","min_label":7.0},
"geometry":{"type": "LineString","coordinates": [[25.546630859375,52.02850983280662,140.4901],[25.546630859375,52.02850983280662,140.4901],[25.546630859375,52.02850983280662,140.4901],[25.546630859375,52.02850983280662,140.4901],[25.546630859375,52.02850983280662,140.4901],[25.59228515625,52.03400299686912,147.3121],[25.662011718750023,52.06049225468162,137.2217],[25.704345703125,52.069452215619116,143.7375],[25.890625,52.06928131718162,136.4779],[25.911230468750006,52.072137762494116,135.6301]]}}