{"type":"Feature","properties":{"featurecla":"River","scalerank":8,"rivernum":779,"dissolve":"779River","name":"Mukhavyets","name_alt":null,"note":"Version 1.2 edit in N. America and Europe","min_zoom":7.0,"strokeweig":0.2,"name_en":"Mukhavyets","min_label":8.0},
"geometry":{"type": "LineString","coordinates": [[23.953125,51.66596100468162,168.0625],[23.9775390625,51.678241278119117,157.884],[23.995849609375,51.69464752811912,158.1331],[24.01318359375,51.699969793744117,158.4914],[24.033837890625023,51.701922918744117,165.4199],[24.06982421875,51.700702215619117,157.743],[24.10009765625,51.706317449994117,157.556],[24.132080078125,51.71759674686912,157.0871],[24.204980468750023,51.761102606244116,154.6882],[24.206787109375,51.773700262494117,155.1172],[24.205957031250023,51.789667059369116,154.6559],[24.21484375,51.823260809369117,154.0475],[24.202294921875023,51.852655340619116,152.4073],[24.2041015625,51.864862371869116,152.0316],[24.220458984375,51.877069403119116,152.5331],[24.24853515625,51.89081452030662,151.4825],[24.283935546875,51.902850653119117,150.7121],[24.3447265625,51.917499090619117,154.2355],[24.36474609375,51.925799871869117,162.3667],[24.38125,51.92987702030662,150.5712],[24.400146484375,51.926288153119117,161.331],[24.42138671875,51.928485418744117,160.383],[24.443115234375,51.946405340619116,158.2137],[24.46044921875,51.97186920780662,146.9402],[24.470703125,51.992059637494116,145.8546],[24.469628906250023,52.010028387494117,145.2],[24.45947265625,52.03021881718162,144.8849],[24.443115234375,52.047967840619116,145.2649],[24.418115234375023,52.06818268436912,144.5391],[24.42041015625,52.076922918744117,144.6439],[24.418603515625023,52.08698151249412,144.6831],[24.379052734375023,52.110858465619117,144.3147],[24.37060546875,52.122430731244116,142.7382],[24.377832031250023,52.13275787968162,141.6171],[24.394433593750023,52.14203522343162,143.9484],[24.404296875,52.152362371869117,142.5782],[24.3955078125,52.16535065311912,144.5552],[24.3740234375,52.172235418744116,140.9368],[24.353515625,52.167987371869117,140.7455],[24.326904296875,52.158465887494117,140.8868],[24.25625,52.148211981244117,149.2864],[24.22265625,52.137567449994116,142.1342],[24.200927734375,52.13727448124412,141.288],[24.1806640625,52.140887762494117,140.9382],[24.170166015625,52.145770574994117,141.9988],[24.1625,52.146991278119117,140.6163],[24.14892578125,52.14154694218162,141.6614],[24.126220703125,52.13812897343162,140.6261],[24.055419921875,52.15253327030662,139.6106],[24.007958984375023,52.154803778119117,150.2258],[23.9912109375,52.15888092655662,138.9749],[23.975732421875023,52.15204498905662,137.4375],[23.95703125,52.14520905155662,138.4113],[23.929589843750023,52.121454168744116,139.2271],[23.919189453125,52.117938543744117,138.2036],[23.913720703125023,52.11469147343162,139.1438],[23.906494140625,52.107684637494117,138.9502],[23.89697265625,52.100604559369117,139.9133],[23.885009765625,52.097430731244117,145.0606],[23.635498046875,52.083758856244117,134.7432]]}}