{"type":"Feature","properties":{"GID_2":"BLR.5.14_1","GID_0":"BLR","country":"Belarus","GID_1":"BLR.5_1","province":"Minsk","NL_NAME_1":"Мінская","county":"Pukhavichy","VARNAME_2":"Puhovichi","NL_NAME_2":"Пухавіцкіраён","TYPE_2":"Raion","ENGTYPE_2":"District","CC_2":"NA","HASC_2":"BY.MI.PU","name":"Pukhavichy.county"},
"geometry":{"type": "MultiPolygon","coordinates": [[[[27.8963,53.7524,176.404],[27.887,53.7524,174.75],[27.8731,53.7498,174.7234],[27.8591,53.7525,175.578],[27.8266,53.7499,192.3754],[27.8033,53.7528,183.3685],[27.7847,53.7528,179.6423],[27.7708,53.7501,185.4871],[27.7615,53.7447,189.5676],[27.7569,53.7393,175.1171],[27.729,53.734,180.68],[27.7104,53.7259,181.3087],[27.7104,53.7231,182.4461],[27.7151,53.715,194.7204],[27.7244,53.7095,208.6394],[27.7244,53.7068,225.271],[27.7198,53.7041,226.3934],[27.7245,53.6932,188.7955],[27.7199,53.6877,204.2206],[27.7152,53.685,200.1644],[27.7013,53.6796,208.2865],[27.6689,53.6743,184.7621],[27.6596,53.6689,188.2699],[27.6318,53.6581,179.6649],[27.6272,53.6527,179.2846],[27.6319,53.6472,176.6628],[27.6134,53.6391,184.1395],[27.5994,53.6391,185.6196],[27.5948,53.6364,182.425],[27.567,53.6311,176.64],[27.5346,53.6284,184.1146],[27.53,53.623,183.0689],[27.5207,53.6176,183.1416],[27.5022,53.6176,182.9486],[27.4929,53.6203,186.2366],[27.4836,53.6149,186.4948],[27.4837,53.6095,185.2007],[27.4977,53.6013,183.6055],[27.5255,53.604,185.4128],[27.5348,53.6012,203.324],[27.5348,53.5958,183.867],[27.5395,53.5931,176.6542],[27.5441,53.593,186.5196],[27.5487,53.5903,183.7337],[27.5488,53.5876,184.3536],[27.5581,53.5849,188.1283],[27.5673,53.5876,181.0795],[27.5719,53.5903,180.5402],[27.5719,53.593,179.5348],[27.5858,53.6011,180.0915],[27.5904,53.5984,177.7698],[27.5812,53.5902,175.6897],[27.5812,53.5875,175.5851],[27.5859,53.5848,175.1999],[27.5998,53.5875,184.0738],[27.6044,53.5847,184.0485],[27.5905,53.5793,174.8224],[27.5906,53.5739,182.7441],[27.5952,53.5739,173.8974],[27.6138,53.5684,176.7337],[27.6138,53.5657,178.5662],[27.6092,53.563,179.5778],[27.5953,53.563,186.3393],[27.5768,53.5522,204.3197],[27.5722,53.5468,180.5377],[27.5724,53.5196,183.0103],[27.5632,53.5142,190.9323],[27.5402,53.4897,181.3339],[27.5356,53.487,189.407],[27.5356,53.4816,174.5124],[27.5541,53.487,182.2662],[27.5587,53.4897,176.1921],[27.5772,53.4897,178.9337],[27.5818,53.4869,181.2504],[27.5773,53.4815,185.5139],[27.5726,53.4788,179.7657],[27.5634,53.4788,182.7629],[27.5588,53.4761,195.0696],[27.5588,53.4734,188.9506],[27.5681,53.4707,193.363],[27.5865,53.476,187.901],[27.605,53.4869,205.3862],[27.6142,53.4896,200.1733],[27.6235,53.4895,191.3278],[27.6327,53.4868,198.9311],[27.642,53.4813,198.3842],[27.6467,53.4759,176.8026],[27.6374,53.4732,181.8388],[27.6421,53.4704,181.6372],[27.6513,53.4704,183.483],[27.6606,53.4758,176.1266],[27.6698,53.4758,179.5953],[27.6744,53.4731,171.6121],[27.6745,53.454,203.1352],[27.6792,53.4486,192.2229],[27.6838,53.4486,179.2046],[27.693,53.454,178.9824],[27.693,53.4621,176.4843],[27.7022,53.4675,168.4479],[27.7115,53.4675,165.0795],[27.7161,53.4648,165.431],[27.73,53.4674,164.0612],[27.7346,53.462,167.6815],[27.7254,53.4511,195.9104],[27.7254,53.4403,178.3547],[27.7208,53.4376,185.0113],[27.7116,53.4376,183.4982],[27.7023,53.4403,180.239],[27.6885,53.4404,169.8655],[27.6746,53.4377,171.4882],[27.6654,53.4378,177.2786],[27.6607,53.4405,177.6637],[27.6607,53.4459,171.7569],[27.6653,53.4541,182.0554],[27.6653,53.4568,187.601],[27.656,53.4568,181.3725],[27.6422,53.4541,185.4833],[27.6376,53.4514,182.9396],[27.6283,53.4515,181.9624],[27.6237,53.4488,180.4423],[27.6469,53.4297,187.6709],[27.6516,53.4242,169.7917],[27.6516,53.4215,173.5771],[27.647,53.4188,173.5029],[27.6285,53.4188,170.4949],[27.6285,53.4134,184.4756],[27.6331,53.408,174.237],[27.647,53.4079,174.8113],[27.6609,53.3997,172.1802],[27.6563,53.3943,171.4598],[27.6517,53.3916,170.8402],[27.6378,53.3916,175.9201],[27.624,53.3944,173.1538],[27.6101,53.389,170.3233],[27.6102,53.3781,175.9801],[27.6149,53.37,173.1156],[27.6149,53.3564,173.6612],[27.5965,53.3456,170.8262],[27.5966,53.3429,173.1963],[27.6058,53.3401,170.5324],[27.6104,53.3347,170.7965],[27.6058,53.332,170.0536],[27.5967,53.3211,170.281],[27.6013,53.3184,170.5408],[27.6059,53.3211,170.2928],[27.6105,53.3265,170.3158],[27.6197,53.3292,169.9138],[27.6243,53.3292,170.012],[27.6289,53.3265,169.1746],[27.6382,53.3264,169.0768],[27.6381,53.3291,169.9492],[27.6473,53.34,170.4619],[27.6335,53.3455,173.7059],[27.6334,53.3482,172.7201],[27.6519,53.3481,172.9368],[27.6842,53.3426,180.9794],[27.6889,53.3398,170.4444],[27.6889,53.3344,179.9772],[27.6981,53.3289,179.658],[27.6797,53.329,169.398],[27.6705,53.3236,168.9964],[27.6751,53.3209,169.2095],[27.7166,53.3234,181.0741],[27.7489,53.3097,186.9147],[27.7674,53.3096,170.0157],[27.7858,53.3204,179.04],[27.795,53.3204,183.5207],[27.8043,53.3176,180.7276],[27.8089,53.3149,175.7685],[27.8089,53.3095,173.3564],[27.7951,53.3068,163.9662],[27.7905,53.3041,163.9608],[27.8043,53.2932,164.8982],[27.8043,53.2877,168.8119],[27.8089,53.285,163.7039],[27.8089,53.2823,163.6612],[27.7997,53.2823,164.7241],[27.7951,53.2851,164.8324],[27.7905,53.2851,165.8338],[27.7859,53.2824,165.8333],[27.7859,53.2797,165.4646],[27.7905,53.2742,167.167],[27.7905,53.2688,173.9868],[27.7951,53.266,187.8767],[27.7952,53.2579,181.0279],[27.8044,53.247,180.8212],[27.7998,53.2443,177.0329],[27.8044,53.2361,183.4154],[27.7998,53.228,167.1398],[27.7998,53.2226,167.0479],[27.7906,53.2172,169.0458],[27.7953,53.2144,166.6868],[27.8091,53.2144,182.7461],[27.8091,53.2116,169.5882],[27.8045,53.209,181.6203],[27.8091,53.2062,181.4388],[27.8183,53.2089,175.2483],[27.8275,53.2143,186.667],[27.8413,53.2169,186.0293],[27.8597,53.2168,180.3828],[27.8597,53.2304,177.7056],[27.938,53.23,186.4267],[27.9426,53.2327,168.6226],[27.9426,53.2354,165.8008],[27.9334,53.2409,179.9982],[27.9196,53.241,185.2514],[27.915,53.2464,177.1933],[27.915,53.2546,181.3926],[27.9242,53.2572,178.699],[27.9334,53.2572,172.1485],[27.9426,53.249,189.4766],[27.9472,53.249,185.4122],[27.9565,53.2543,183.5436],[27.9565,53.2598,164.0794],[27.9519,53.2625,162.873],[27.9519,53.2707,175.2434],[27.9565,53.2734,178.142],[27.9795,53.2732,163.1721],[27.9841,53.2759,171.6053],[27.9795,53.2841,172.5427],[27.9795,53.2923,163.5973],[27.9842,53.2977,166.5289],[27.9888,53.2977,174.9633],[27.9934,53.3003,177.195],[27.9934,53.3031,174.143],[27.9888,53.3058,169.8296],[27.9888,53.3085,164.8781],[27.998,53.3139,163.3815],[28.0118,53.3138,163.2705],[28.0211,53.3111,167.4942],[28.0303,53.311,168.3216],[28.0395,53.3028,166.4634],[28.0671,53.289,160.7253],[28.0948,53.278,176.5447],[28.104,53.2725,175.1969],[28.1178,53.2724,178.4762],[28.1224,53.2778,175.7193],[28.1362,53.2804,158.8771],[28.1455,53.2804,160.4933],[28.1547,53.2776,159.1962],[28.15,53.2722,161.2586],[28.1546,53.2694,159.8915],[28.1777,53.2693,157.9328],[28.2789,53.2549,172.3453],[28.2973,53.2548,177.2213],[28.3341,53.26,160.2559],[28.3342,53.2736,160.8369],[28.3388,53.2762,159.7669],[28.394,53.2704,163.5864],[28.4124,53.2702,174.6857],[28.4309,53.2755,168.7061],[28.4355,53.2755,170.8761],[28.4401,53.2782,166.0199],[28.4356,53.2864,160.7789],[28.4358,53.3081,169.2708],[28.4267,53.3191,161.3004],[28.4268,53.3327,162.4874],[28.4176,53.3382,157.2661],[28.4038,53.341,175.8522],[28.3946,53.3411,169.3377],[28.3579,53.355,176.3825],[28.358,53.3659,167.0201],[28.3534,53.3714,153.1051],[28.3535,53.385,152.0039],[28.3628,53.3876,159.931],[28.3812,53.3875,162.3535],[28.3997,53.3928,179.0282],[28.409,53.4009,160.5374],[28.4091,53.409,186.1206],[28.4185,53.4362,178.052],[28.4186,53.4416,163.2166],[28.414,53.4471,178.5303],[28.4003,53.4581,178.6487],[28.391,53.4555,174.5239],[28.3818,53.4555,173.6349],[28.3588,53.4666,180.4229],[28.3357,53.4667,181.1859],[28.3357,53.4722,160.6947],[28.3496,53.4748,179.2006],[28.3542,53.4775,173.3951],[28.3588,53.4747,172.04],[28.3681,53.4801,167.586],[28.3636,53.4883,161.2835],[28.3775,53.4937,177.1002],[28.3867,53.4936,161.1027],[28.3913,53.4908,179.7693],[28.3959,53.4826,164.6193],[28.3958,53.4799,161.7741],[28.4143,53.4825,170.0914],[28.4144,53.4852,181.3451],[28.419,53.4906,176.2071],[28.4329,53.4905,177.3633],[28.4422,53.4932,174.8296],[28.4515,53.504,179.1577],[28.4608,53.5094,174.6456],[28.4701,53.512,174.3729],[28.4839,53.5119,185.6352],[28.4887,53.5255,169.1072],[28.4933,53.5255,175.3006],[28.4979,53.5227,166.6864],[28.4979,53.52,167.3174],[28.507,53.5117,176.2175],[28.5116,53.509,174.3635],[28.5162,53.5089,170.9286],[28.5255,53.5143,169.6772],[28.5487,53.5196,166.8968],[28.5626,53.5195,164.8393],[28.5811,53.5247,180.193],[28.5811,53.5275,169.3327],[28.5766,53.5302,172.1451],[28.5673,53.5303,173.0371],[28.5488,53.5277,176.5356],[28.5303,53.5224,166.0722],[28.5118,53.5253,168.378],[28.5072,53.5281,175.2418],[28.5026,53.5336,173.1148],[28.5027,53.5417,178.055],[28.5259,53.5497,165.0297],[28.5353,53.5551,174.0107],[28.5307,53.5606,165.9966],[28.5123,53.5716,168.8459],[28.4985,53.5744,175.2933],[28.4753,53.5746,172.1652],[28.4754,53.5773,179.1653],[28.4801,53.5828,169.3139],[28.4755,53.5855,159.5737],[28.4384,53.5858,177.9806],[28.4338,53.5831,168.7728],[28.4245,53.5832,176.8486],[28.4199,53.5887,181.0207],[28.42,53.5968,172.3298],[28.4154,53.5996,165.9118],[28.4247,53.605,167.5354],[28.4386,53.6076,169.0692],[28.448,53.613,162.8159],[28.4202,53.6159,173.8391],[28.4156,53.6186,174.9691],[28.4017,53.616,164.1905],[28.3971,53.6188,166.6322],[28.3971,53.6215,163.1684],[28.4018,53.6269,181.8488],[28.4018,53.6296,180.6873],[28.388,53.6379,173.9191],[28.3787,53.6407,179.1876],[28.3787,53.6434,178.6102],[28.3741,53.6462,182.3191],[28.3695,53.6462,179.8931],[28.3648,53.6435,181.8244],[28.3648,53.6408,183.7447],[28.3601,53.6354,168.5749],[28.3508,53.63,181.8342],[28.3509,53.6327,176.7171],[28.3462,53.6355,181.5179],[28.3463,53.6409,178.3508],[28.3417,53.6437,184.3218],[28.337,53.6383,181.612],[28.337,53.6355,180.2196],[28.3416,53.6328,180.6866],[28.3323,53.6247,166.1999],[28.3276,53.6165,172.4169],[28.3229,53.6138,184.502],[28.309,53.6167,181.6825],[28.2951,53.6168,179.4397],[28.2858,53.6141,180.99],[28.2858,53.6114,178.0012],[28.2812,53.6087,158.1821],[28.2673,53.6088,182.7533],[28.2488,53.6116,162.4272],[28.2441,53.6144,161.1286],[28.2581,53.6252,182.0206],[28.2581,53.6279,179.8155],[28.2535,53.6306,177.4255],[28.2396,53.6335,161.5302],[28.2303,53.6335,175.893],[28.2257,53.6308,174.2417],[28.2303,53.6226,162.6801],[28.221,53.62,160.6589],[28.2117,53.62,173.2364],[28.1978,53.6147,173.8022],[28.1515,53.6231,163.8189],[28.1515,53.6286,176.5479],[28.1561,53.6313,184.6298],[28.17,53.6312,183.9998],[28.1747,53.6366,177.826],[28.1748,53.6529,175.5435],[28.1701,53.6557,178.5106],[28.1609,53.6557,171.8465],[28.1562,53.653,181.429],[28.1562,53.6476,164.6011],[28.1608,53.6421,169.5902],[28.1562,53.6394,164.6825],[28.133,53.6505,182.3096],[28.1144,53.6451,163.7404],[28.0912,53.6452,168.8158],[28.082,53.648,187.4385],[28.0727,53.6481,184.1558],[28.0541,53.64,169.9561],[28.0495,53.64,170.7416],[28.0402,53.6455,163.3944],[28.0402,53.651,175.3576],[28.0449,53.6537,178.003],[28.0449,53.6836,184.2672],[28.0356,53.6864,174.6007],[28.0264,53.6919,176.1353],[27.9985,53.692,184.7725],[27.9939,53.6948,181.0048],[28.0032,53.7002,177.1818],[27.9985,53.7029,175.233],[27.9939,53.7029,174.597],[27.9939,53.7056,172.3186],[27.9985,53.7083,178.9095],[27.9939,53.7111,175.7481],[27.9799,53.7139,172.2706],[27.966,53.714,175.3569],[27.966,53.7167,176.0741],[27.9707,53.7221,176.7824],[27.9474,53.7276,196.4758],[27.9428,53.7277,195.4641],[27.9381,53.725,194.8828],[27.9242,53.725,171.9252],[27.9149,53.7278,172.827],[27.9149,53.7305,172.0614],[27.9195,53.7332,170.8658],[27.9056,53.7387,173.0281],[27.8963,53.7524,176.404]]]]}}