{"type":"Feature","properties":{"GID_2":"BLR.5.9_1","GID_0":"BLR","country":"Belarus","GID_1":"BLR.5_1","province":"Minsk","NL_NAME_1":"Мінская","county":"Lyuban","VARNAME_2":"Lyuban","NL_NAME_2":"Любанскіраён","TYPE_2":"Raion","ENGTYPE_2":"District","CC_2":"NA","HASC_2":"BY.MI.LB","name":"Lyuban.county"},
"geometry":{"type": "MultiPolygon","coordinates": [[[[28.5073,52.685,135.9506],[28.4937,52.6878,135.124],[28.4575,52.7099,153.928],[28.4258,52.7238,153.5358],[28.3939,52.7268,144.5461],[28.3894,52.7295,141.3521],[28.385,52.7486,160.6266],[28.3896,52.7567,152.1964],[28.3897,52.7594,140.3378],[28.4034,52.7647,163.1579],[28.4262,52.7699,140.7982],[28.4583,52.7914,154.7981],[28.4447,52.7969,150.7798],[28.4264,52.7971,139.3947],[28.4083,52.8027,158.9828],[28.3991,52.8028,139.6066],[28.39,52.8056,140.9912],[28.3809,52.8057,141.9166],[28.3536,52.8113,141.6629],[28.3399,52.8115,140.4898],[28.3308,52.8143,141.3285],[28.3354,52.8196,142.0915],[28.3309,52.8224,141.3311],[28.3309,52.8278,142.6828],[28.3448,52.8494,164.2698],[28.3448,52.8603,160.2374],[28.3312,52.8686,167.2458],[28.3221,52.8686,147.3575],[28.2855,52.8635,144.9438],[28.2672,52.8555,158.1284],[28.2626,52.8556,159.8873],[28.258,52.8583,148.5941],[28.2535,52.8665,148.7736],[28.2491,52.8856,176.853],[28.24,52.8965,173.5272],[28.2354,52.8965,176.7043],[28.2217,52.8912,172.8058],[28.2079,52.8913,179.5796],[28.2034,52.9022,187.5969],[28.1943,52.9023,182.411],[28.1668,52.8971,177.0707],[28.1622,52.8944,174.2966],[28.1164,52.8947,172.9818],[28.1073,52.8975,167.3699],[28.0981,52.8976,155.0176],[28.0844,52.9004,153.8593],[28.0569,52.9006,164.2187],[28.0524,52.9034,157.9548],[28.0432,52.9034,143.8754],[28.0386,52.9007,141.8409],[28.0295,52.9008,140.0],[28.0295,52.9089,140.0],[28.0203,52.928,140.0],[28.0249,52.9307,140.0],[28.0295,52.9388,141.1069],[28.0296,52.9469,142.3746],[28.025,52.9497,154.435],[28.025,52.9578,142.4615],[28.0388,52.9686,159.0889],[28.0342,52.9713,167.6283],[28.0204,52.9714,165.6091],[28.0158,52.9688,162.7801],[28.0158,52.9633,146.1444],[27.9975,52.9526,154.6853],[27.9791,52.9473,158.2525],[27.947,52.9448,153.7689],[27.9425,52.9475,154.4355],[27.947,52.9556,162.8537],[27.947,52.9583,151.5182],[27.9287,52.9585,154.2229],[27.9333,52.9801,149.2545],[27.9287,52.9829,150.8373],[27.9012,52.9831,151.1573],[27.9058,52.9885,151.5176],[27.8599,52.9887,152.8169],[27.8553,52.986,152.7571],[27.8507,52.9806,150.278],[27.8553,52.9806,150.67],[27.8507,52.9752,157.3181],[27.8553,52.967,147.7071],[27.8508,52.9589,148.8154],[27.8462,52.9562,153.5114],[27.8049,52.9483,152.5212],[27.7957,52.9484,161.3954],[27.7866,52.9348,150.9755],[27.7774,52.9322,151.2273],[27.7728,52.9376,150.7391],[27.7683,52.9376,153.5295],[27.7637,52.9349,150.6456],[27.7637,52.9295,151.6564],[27.7683,52.9241,151.9152],[27.7683,52.9214,151.2183],[27.7592,52.9133,150.4612],[27.75,52.9106,150.9606],[27.7454,52.9106,153.461],[27.7408,52.9161,164.0696],[27.7317,52.9134,166.6732],[27.7271,52.9107,161.9034],[27.7271,52.9053,166.846],[27.718,52.8999,157.6064],[27.7226,52.8945,149.756],[27.7272,52.8917,150.3208],[27.7317,52.8944,150.5647],[27.7363,52.8944,150.5938],[27.7363,52.8917,150.8015],[27.7409,52.8862,152.9507],[27.7455,52.8835,163.5725],[27.7455,52.8808,164.5582],[27.7547,52.8645,175.0863],[27.7685,52.8535,192.9765],[27.7685,52.8508,185.6747],[27.7639,52.8454,186.7346],[27.7593,52.8427,189.0811],[27.7685,52.8373,177.1286],[27.7685,52.8291,173.7372],[27.7777,52.8291,172.3577],[27.7868,52.8236,161.5571],[27.7777,52.821,160.5884],[27.7502,52.8184,155.2744],[27.7457,52.8157,155.0429],[27.7549,52.8048,152.7417],[27.7549,52.7885,150.2079],[27.7504,52.7723,145.099],[27.7413,52.7642,143.7836],[27.7184,52.7643,143.0056],[27.7093,52.759,143.9492],[27.7093,52.7562,142.7463],[27.723,52.7453,145.1691],[27.7368,52.7317,143.9451],[27.7368,52.7236,144.0223],[27.7414,52.7181,143.6979],[27.7414,52.7154,142.9253],[27.7551,52.7154,144.1039],[27.7597,52.7126,146.2282],[27.7642,52.7153,144.0791],[27.7688,52.7153,142.9722],[27.7825,52.7098,141.5127],[27.7962,52.6962,143.493],[27.7962,52.6935,141.9341],[27.8008,52.6907,140.5949],[27.8008,52.6826,142.7585],[27.8054,52.6663,156.5625],[27.8145,52.6554,143.9246],[27.8191,52.6527,149.8637],[27.851,52.6552,155.5937],[27.8647,52.647,139.2353],[27.8647,52.6416,139.018],[27.8693,52.6388,138.9342],[27.8739,52.6388,138.8757],[27.8784,52.6442,139.5251],[27.8875,52.6441,138.8739],[27.8921,52.6414,138.8816],[27.8967,52.6305,156.7656],[27.8967,52.6224,142.4815],[27.8875,52.6224,155.8364],[27.8875,52.6197,160.3708],[27.883,52.6171,157.554],[27.8921,52.6062,139.8094],[27.8967,52.5926,137.2857],[27.8967,52.5709,137.6238],[27.9012,52.5655,137.5703],[27.9195,52.5653,137.6261],[27.9286,52.568,137.6833],[27.9468,52.5679,137.3965],[27.9559,52.5651,138.0376],[27.9559,52.5624,138.8171],[27.965,52.5569,141.5182],[27.9696,52.5379,156.1279],[27.9787,52.5324,158.8802],[27.9832,52.5242,163.7261],[27.9923,52.5188,162.127],[28.006,52.5214,164.6985],[28.0105,52.524,152.8887],[28.0287,52.5212,166.6972],[28.0606,52.5236,154.9239],[28.0742,52.5289,164.1723],[28.0788,52.5262,169.088],[28.0924,52.5288,160.1423],[28.1243,52.5312,160.0273],[28.1289,52.5339,169.0172],[28.1425,52.5338,173.4302],[28.1471,52.531,172.3624],[28.147,52.5093,174.2654],[28.1515,52.5039,163.1496],[28.1515,52.4985,154.4101],[28.156,52.4957,157.1107],[28.156,52.493,156.3334],[28.1742,52.4982,160.8328],[28.2106,52.5006,171.6604],[28.2241,52.4897,168.7384],[28.2287,52.4842,168.4856],[28.2286,52.4815,172.6112],[28.2923,52.4917,162.3927],[28.3467,52.493899999999996,139.8172],[28.3649,52.4964,153.6899],[28.3694,52.4991,151.9744],[28.3785,52.499,148.0968],[28.3922,52.5178,148.252],[28.4333,52.5419,132.5493],[28.456,52.547,138.2466],[28.4651,52.5524,131.9383],[28.4607,52.5633,132.5365],[28.4609,52.585,133.0283],[28.4564,52.5959,136.4467],[28.4566,52.6122,147.6311],[28.4522,52.6339,142.0432],[28.4523,52.6421,136.3355],[28.4478,52.6448,134.3479],[28.4479,52.6584,134.6352],[28.4616,52.6664,142.8889],[28.4844,52.6716,134.3416],[28.5073,52.685,135.9506]]]]}}