{"type":"Feature","properties":{"GID_2":"BLR.4.2_1","GID_0":"BLR","country":"Belarus","GID_1":"BLR.4_1","province":"Mogilev","NL_NAME_1":"Магілёўская","county":"Babruysk","VARNAME_2":"Bobruysk","NL_NAME_2":"Бабруйскіраён","TYPE_2":"Raion","ENGTYPE_2":"District","CC_2":"NA","HASC_2":"BY.MA.BB","name":"Babruysk.county"},
"geometry":{"type": "MultiPolygon","coordinates": [[[[29.088,52.8743,143.5878],[29.0972,52.8769,145.4229],[29.1109,52.8768,142.5893],[29.1106,52.8659,145.1482],[29.1151,52.8631,141.1836],[29.1243,52.8657,140.6661],[29.1336,52.8738,141.9215],[29.152,52.8844,146.6057],[29.143,52.89,154.723],[29.1432,52.8954,140.8773],[29.1523,52.898,143.1185],[29.1524,52.9007,156.6746],[29.1434,52.9036,143.4455],[29.1389,52.9091,152.257],[29.1391,52.9145,156.7191],[29.1438,52.9199,157.9856],[29.1576,52.9279,146.5492],[29.1624,52.936,146.4888],[29.1947,52.9547,150.3593],[29.1903,52.9602,156.8929],[29.195,52.9656,156.9646],[29.1951,52.9683,156.2972],[29.2088,52.9708,164.885],[29.2134,52.9735,155.1097],[29.2091,52.9845,156.5623],[29.2228,52.9843,139.0069],[29.227,52.9706,146.6182],[29.2315,52.9678,163.5849],[29.2406,52.9677,155.3326],[29.2544,52.9703,146.9986],[29.2678,52.9592,148.9185],[29.2858,52.9508,160.343],[29.3132,52.9532,150.8398],[29.3451,52.9527,134.3174],[29.3721,52.9442,134.6817],[29.39,52.9304,145.6661],[29.3993,52.9384,148.1243],[29.4132,52.9464,153.0775],[29.4176,52.9436,153.5849],[29.4174,52.9354,140.3355],[29.4219,52.9326,140.5821],[29.4355,52.9325,157.7943],[29.44,52.9297,155.4866],[29.4443,52.9214,149.0234],[29.4488,52.9214,147.748],[29.481,52.9318,146.6376],[29.5088,52.9505,160.4005],[29.5593,52.9634,139.9295],[29.5637,52.9606,140.0009],[29.5638,52.9634,138.9042],[29.5729,52.9632,138.1954],[29.5819,52.9604,141.5932],[29.5908,52.9548,139.1712],[29.5999,52.9547,137.312],[29.6092,52.96,139.2164],[29.6322,52.9678,137.3881],[29.6501,52.9621,137.7157],[29.6682,52.9591,134.5362],[29.6818,52.9589,141.4962],[29.6862,52.9561,141.4679],[29.6861,52.9534,140.8951],[29.6814,52.948,135.7655],[29.6813,52.9453,135.3878],[29.6949,52.9451,136.9009],[29.7133,52.9502,138.4267],[29.7314,52.95,140.2533],[29.7361,52.9553,144.0369],[29.7318,52.9609,142.5778],[29.732,52.9663,144.2736],[29.7459,52.9743,145.9521],[29.746,52.977,145.6524],[29.7507,52.9797,142.8865],[29.7418,52.9853,143.3113],[29.7327,52.9854,145.9297],[29.7104,52.9967,143.906],[29.6969,52.9996,140.3377],[29.688,53.0052,141.2994],[29.6705,53.0245,144.4027],[29.6988,53.0514,144.0728],[29.6948,53.0678,147.2943],[29.6765,53.0654,147.9645],[29.6629,53.0656,148.7181],[29.6495,53.074,142.1014],[29.6363,53.0878,145.1404],[29.6364,53.0905,144.9589],[29.641,53.0932,148.3122],[29.6547,53.093,149.1602],[29.6688,53.1064,148.5394],[29.6645,53.1119,149.2236],[29.6647,53.1174,148.0746],[29.6602,53.1202,145.342],[29.6603,53.1229,145.4305],[29.6652,53.131,148.4368],[29.6744,53.1336,145.8915],[29.6699,53.1364,146.0509],[29.6746,53.1391,147.3454],[29.6702,53.1446,145.8038],[29.666,53.1556,145.0023],[29.6709,53.1637,148.4939],[29.6664,53.1665,150.0737],[29.6527,53.1667,147.0224],[29.6435,53.1641,151.0935],[29.6389,53.1641,152.7748],[29.6345,53.1669,151.7205],[29.6346,53.1724,151.4019],[29.6441,53.1832,147.9913],[29.6442,53.1859,147.945],[29.6168,53.1863,149.7872],[29.6076,53.1837,149.643],[29.6073,53.1755,150.0451],[29.5981,53.1729,151.0632],[29.5844,53.1731,152.521],[29.5751,53.1678,151.951],[29.5748,53.1596,151.8951],[29.5703,53.1596,151.4589],[29.5613,53.1652,154.2423],[29.5568,53.1653,154.0482],[29.5567,53.1625,154.4637],[29.5471,53.149,152.1271],[29.538,53.1492,141.2784],[29.5333,53.1465,140.6407],[29.5378,53.1437,140.949],[29.5331,53.141,139.8063],[29.4966,53.1415,147.2918],[29.4876,53.1444,145.5396],[29.4788,53.1581,150.8477],[29.4655,53.1719,160.1645],[29.466,53.1856,153.0444],[29.4707,53.191,154.2182],[29.4662,53.1938,154.1947],[29.4525,53.1939,171.1192],[29.4385,53.1859,151.2223],[29.4157,53.1862,152.967],[29.3885,53.1975,178.6551],[29.3382,53.1981,184.6172],[29.3291,53.201,183.5202],[29.3199,53.2011,173.72],[29.3107,53.1985,181.517],[29.306,53.1958,161.399],[29.306,53.1931,183.0207],[29.3104,53.1875,160.2626],[29.3333,53.1873,174.2991],[29.3424,53.1844,163.7799],[29.3468,53.1789,163.392],[29.3466,53.1707,160.1024],[29.3372,53.1627,171.5315],[29.328,53.1601,169.5209],[29.3139,53.1493,163.9088],[29.3094,53.1494,150.2513],[29.3094,53.1521,143.9993],[29.3004,53.1577,142.8426],[29.3006,53.1631,149.1424],[29.2916,53.1687,159.02],[29.2872,53.1742,168.8362],[29.2831,53.1933,169.3268],[29.2878,53.1987,173.3729],[29.2879,53.2015,171.0892],[29.2696,53.2017,140.8978],[29.2603,53.1963,136.452],[29.2601,53.1909,136.2832],[29.2509,53.1883,135.6539],[29.2464,53.1911,136.02],[29.2421,53.2047,135.7247],[29.2241,53.2158,136.2037],[29.2242,53.2186,136.0532],[29.2289,53.224,137.0225],[29.229,53.2267,136.7187],[29.1877,53.2272,156.1456],[29.1696,53.2383,136.5925],[29.1696,53.2356,147.0914],[29.1604,53.2357,163.0398],[29.1559,53.2384,138.8808],[29.156,53.2412,137.0862],[29.1606,53.2438,136.9798],[29.1607,53.2466,137.0166],[29.1561,53.2493,137.631],[29.1469,53.2467,137.1607],[29.1377,53.2468,137.5203],[29.1244,53.2661,143.9389],[29.1198,53.2634,140.2693],[29.1014,53.2609,138.3201],[29.0968,53.2636,145.7905],[29.0785,53.2638,142.3256],[29.0601,53.2613,148.0884],[29.0463,53.2615,155.0804],[29.0327,53.2698,151.159],[29.0328,53.2752,148.6054],[29.0283,53.278,150.8477],[28.9961,53.2756,149.9394],[28.9869,53.273,151.0967],[28.973,53.2677,154.7513],[28.9728,53.2595,152.9885],[28.9681,53.2541,150.2819],[28.9726,53.2486,150.7136],[28.9725,53.2432,151.2317],[28.977,53.2404,147.8993],[28.9954,53.2402,148.4124],[28.9998,53.2347,145.5098],[28.9997,53.2293,149.1908],[29.0043,53.2265,148.7743],[29.0042,53.2238,147.5671],[28.9996,53.2211,147.7118],[28.9629,53.2215,150.0725],[28.9491,53.2189,156.0611],[28.9535,53.2134,167.3591],[28.9489,53.208,178.1391],[28.9305,53.2055,169.7468],[28.9213,53.2083,159.2758],[28.9122,53.2084,157.4792],[28.8984,53.2059,158.9871],[28.8937,53.2032,158.7579],[28.8936,53.195,154.679],[28.8889,53.1923,155.0237],[28.8887,53.1787,149.6691],[28.8841,53.176,149.3512],[28.884,53.1733,150.585],[28.8747,53.168,152.3748],[28.8747,53.1653,150.6328],[28.8517,53.16,160.2247],[28.8424,53.1547,159.8512],[28.8423,53.1493,159.3477],[28.8377,53.1466,159.3164],[28.833,53.1412,166.7263],[28.8238,53.1358,159.9398],[28.8054,53.1333,157.6204],[28.8054,53.1306,154.3537],[28.8008,53.1306,152.0621],[28.7869,53.1226,150.7582],[28.7869,53.1199,172.2921],[28.7822,53.1172,150.4964],[28.7777,53.12,151.1385],[28.7779,53.1309,170.8591],[28.7687,53.131,162.5005],[28.7687,53.1282,166.0007],[28.7458,53.1285,159.0191],[28.7457,53.1257,157.0626],[28.7411,53.1258,157.1355],[28.7367,53.1313,162.5784],[28.7413,53.1367,167.3356],[28.7414,53.1448,151.0383],[28.7323,53.1449,150.6822],[28.723,53.1369,149.5684],[28.7092,53.1343,151.0438],[28.7182,53.1233,164.468],[28.7226,53.1124,168.9938],[28.7362,53.1041,165.7611],[28.7407,53.0986,160.7456],[28.7406,53.0931,155.3132],[28.7359,53.085,162.1062],[28.7358,53.0769,172.7466],[28.745,53.0795,161.5517],[28.7495,53.0767,156.2358],[28.7634,53.082,150.9854],[28.8091,53.0816,148.9529],[28.8227,53.0732,158.2145],[28.8224,53.0542,146.5992],[28.8084,53.0407,145.6174],[28.8084,53.038,164.3824],[28.8175,53.0379,145.5748],[28.8221,53.0352,144.627],[28.822,53.0324,144.6458],[28.8173,53.027,146.9281],[28.8173,53.0243,166.2664],[28.8264,53.0242,144.5399],[28.8356,53.0269,145.8475],[28.863,53.0266,169.4611],[28.8721,53.0237,151.8806],[28.8765,53.0155,151.1321],[28.8764,53.0046,150.7075],[28.8855,53.0045,153.5295],[28.8902,53.0099,162.7034],[28.8993,53.0126,159.035],[28.9129,53.007,150.0893],[28.9219,52.996,159.4177],[28.908,52.988,154.2606],[28.9034,52.988,150.6969],[28.9306,52.9768,162.7657],[28.926,52.9742,153.6184],[28.9304,52.966,145.9286],[28.9304,52.9632,145.1508],[28.9349,52.9605,143.0091],[28.9395,52.9631,144.81],[28.9396,52.9686,146.3506],[28.9443,52.974,142.3888],[28.9489,52.9766,146.1417],[28.958,52.9765,147.5749],[28.9805,52.9599,161.5336],[28.9849,52.9545,162.5155],[28.9757,52.9464,164.9073],[28.9711,52.9464,161.9463],[28.9573,52.9412,148.2003],[28.9571,52.933,158.9134],[28.9616,52.9275,148.2963],[28.9615,52.9221,162.5501],[28.9658,52.9111,149.7269],[28.9612,52.9057,159.6096],[28.9566,52.9031,153.6082],[28.9428,52.9005,151.3916],[28.9336,52.8952,153.0645],[28.938,52.8842,165.3773],[28.9376,52.8652,159.0595],[28.9329,52.8598,147.9292],[28.9374,52.857,147.3916],[28.9511,52.8569,160.782],[28.9649,52.8622,157.6239],[28.9967,52.8618,172.4841],[29.0014,52.8672,177.4953],[29.015,52.867,187.3593],[29.0516,52.872,162.9676],[29.0698,52.8718,158.1124],[29.088,52.8743,143.5878]]]]}}