{"type":"Feature","properties":{"GID_2":"BLR.6.21_1","GID_0":"BLR","country":"Belarus","GID_1":"BLR.6_1","province":"Vitebsk","NL_NAME_1":"Вiцебская","county":"Vyerkhnyazdvinsk","VARNAME_2":"Verhnedvinsk","NL_NAME_2":"Верхнядзвінскіраён","TYPE_2":"Raion","ENGTYPE_2":"District","CC_2":"NA","HASC_2":"BY.VI.VH","name":"Vyerkhnyazdvinsk.county"},
"geometry":{"type": "MultiPolygon","coordinates": [[[[28.3187,55.5331,121.9696],[28.3283,55.5414,112.9948],[28.3429,55.5441,106.5],[28.3574,55.5524,143.8426],[28.3427,55.5606,133.8377],[28.3281,55.5634,126.9584],[28.3232,55.5661,122.6201],[28.323,55.5798,129.4837],[28.3278,55.5854,129.375],[28.3472,55.5964,129.7379],[28.3471,55.5991,139.6382],[28.3519,55.6046,144.0512],[28.3715,55.6047,156.1445],[28.3812,55.6074,158.8006],[28.381,55.6184,154.0988],[28.3907,55.6267,161.5309],[28.4005,55.6295,144.5881],[28.4003,55.6377,149.6098],[28.4101,55.6405,150.5536],[28.4101,55.6433,142.5334],[28.3952,55.6515,144.2198],[28.395,55.6653,134.5457],[28.3998,55.6735,130.2129],[28.4143,55.6846,139.5772],[28.4142,55.6873,135.8586],[28.3993,55.6956,133.6462],[28.4138,55.7066,121.3287],[28.4287,55.7039,120.3251],[28.4288,55.6984,130.416],[28.4387,55.6929,127.1921],[28.4485,55.6929,144.4267],[28.4632,55.6985,149.3339],[28.4681,55.6957,153.7995],[28.473,55.6985,135.2644],[28.4729,55.704,140.3951],[28.4581,55.7067,124.1299],[28.4482,55.7122,123.6698],[28.4481,55.715,124.4194],[28.4627,55.7233,139.4735],[28.4824,55.7233,121.9401],[28.4873,55.7261,137.8546],[28.5118,55.7317,135.6459],[28.5168,55.7289,127.6138],[28.5267,55.729,145.3719],[28.5166,55.74,135.3087],[28.5164,55.751,140.2593],[28.5311,55.7594,147.1179],[28.531,55.7649,134.2278],[28.5259,55.7704,140.5856],[28.516,55.7732,140.9453],[28.5009,55.7814,154.9375],[28.4859,55.7869,155.7599],[28.476,55.7869,142.6359],[28.461,55.7924,154.5286],[28.4608,55.8007,151.1322],[28.4457,55.809,153.4236],[28.4604,55.8146,158.8698],[28.4554,55.8174,157.5952],[28.4552,55.8229,150.9553],[28.4302,55.8284,150.084],[28.4301,55.8312,170.5038],[28.44,55.8312,151.4322],[28.4449,55.834,154.8161],[28.4246,55.8451,156.8741],[28.4245,55.8479,155.576],[28.4195,55.8506,147.8276],[28.4047,55.845,146.4421],[28.3895,55.8505,123.6816],[28.3846,55.8505,122.9725],[28.3748,55.8449,125.4958],[28.365,55.8421,138.8923],[28.355,55.842,147.3533],[28.3404,55.8336,121.9826],[28.3353,55.8364,119.688],[28.3351,55.8419,119.2738],[28.33,55.8447,126.8337],[28.32,55.8447,148.0827],[28.3293,55.8586,137.8884],[28.3289,55.867,119.3547],[28.3189,55.867,124.2585],[28.2948,55.8501,129.8806],[28.2898,55.8501,128.8546],[28.2847,55.8529,144.4029],[28.2831,55.8836,135.5474],[28.2928,55.8893,126.5817],[28.2979,55.8865,143.5311],[28.3032,55.8809,147.4046],[28.3185,55.8754,137.0553],[28.3378,55.8895,133.6735],[28.3369,55.9063,137.5854],[28.3417,55.9092,146.5446],[28.3414,55.9148,155.0668],[28.3562,55.9177,149.9904],[28.3662,55.9178,143.9757],[28.3809,55.9235,152.9915],[28.3805,55.9319,149.363],[28.3751,55.9375,135.7225],[28.3748,55.9431,142.8083],[28.4046,55.9489,154.4093],[28.4147,55.9462,156.0489],[28.4196,55.9491,152.4734],[28.4289,55.9631,137.5],[28.4284,55.9713,141.8182],[28.433,55.9796,142.3946],[28.4424,55.9904,125.1254],[28.4418,56.001,142.7999],[28.4215,56.0061,134.6886],[28.4215,56.0115,134.9409],[28.4414,56.0224,125.5755],[28.451,56.0225,129.9788],[28.4509,56.0198,131.4843],[28.4658,56.02,150.023],[28.4817,56.0416,145.9391],[28.4823,56.0442,134.0],[28.4776,56.0443,134.0],[28.4624,56.039,162.9959],[28.4536,56.0417,143.9202],[28.4526,56.0362,148.5402],[28.4475,56.0334,134.3504],[28.4433,56.0362,134.4141],[28.4398,56.0417,146.9361],[28.4554,56.072,149.7339],[28.4563,56.0768,145.8233],[28.4665,56.0791,138.8367],[28.4728,56.0861,141.2637],[28.4739,56.0932,138.5417],[28.4494,56.091,146.5045],[28.4449,56.0934,138.8393],[28.4452,56.0958,161.8068],[28.436,56.1006,145.3167],[28.4167,56.1008,139.2932],[28.4066,56.0961,123.5074],[28.4063,56.0938,122.6461],[28.3967,56.0938,143.5606],[28.3964,56.0914,127.5669],[28.3904,56.0843,130.199],[28.3896,56.0794,128.5932],[28.3983,56.0745,122.5],[28.3979,56.0722,122.5],[28.4019,56.0672,123.1431],[28.4016,56.0647,122.5],[28.3915,56.0596,128.7807],[28.3821,56.0594,143.4001],[28.373,56.0618,126.0055],[28.3736,56.0669,140.5524],[28.3645,56.0693,141.8615],[28.3504,56.0691,132.0187],[28.3404,56.0638,147.9518],[28.3308,56.0611,125.7953],[28.3123,56.0634,145.7494],[28.3079,56.0658,145.0544],[28.309,56.076,149.6939],[28.3052,56.0836,145.7402],[28.3008,56.086,152.0265],[28.2914,56.0859,147.3746],[28.2908,56.0808,144.3868],[28.2858,56.0782,143.2504],[28.2673,56.0804,138.9177],[28.2629,56.0829,131.7353],[28.2634,56.088,132.8101],[28.2828,56.1035,127.0],[28.2828,56.106,127.0],[28.2735,56.111,150.0735],[28.2547,56.1107,151.2018],[28.25,56.1132,146.1642],[28.2453,56.1232,152.0981],[28.2171,56.1355,167.895],[28.1937,56.1377,158.3843],[28.1936,56.1428,150.1719],[28.1841,56.1477,165.9941],[28.1842,56.1502,165.9634],[28.1701,56.1475,156.3283],[28.1606,56.155,140.0451],[28.1843,56.1628,151.9619],[28.1842,56.1684,148.0535],[28.1795,56.1683,158.8885],[28.1795,56.1655,151.3447],[28.1747,56.1683,147.2512],[28.1748,56.1655,142.1278],[28.1655,56.16,150.396],[28.1512,56.1599,127.5704],[28.1512,56.1625,146.5645],[28.1465,56.1625,144.9375],[28.1465,56.1599,151.9983],[28.1418,56.1597,133.8764],[28.1419,56.1573,132.8454],[28.1372,56.157,136.9986],[28.1373,56.1547,134.5411],[28.1325,56.157,134.8634],[28.1232,56.1515,135.2614],[28.1234,56.1494,135.2426],[28.1186,56.1489,145.2673],[28.1187,56.1468,144.0127],[28.1141,56.1442,146.7606],[28.1141,56.1416,143.1086],[28.1047,56.1414,141.9733],[28.1049,56.1288,137.7944],[28.0955,56.1287,138.4862],[28.0955,56.1312,133.9243],[28.0814,56.1309,139.6157],[28.0815,56.1286,142.9356],[28.0767,56.1284,137.3554],[28.0579,56.1204,142.2541],[28.0579,56.1104,137.8034],[28.0391,56.1102,137.7014],[28.0389,56.1145,139.1712],[28.0245,56.1132,143.4477],[28.0245,56.1159,147.2643],[28.0056,56.1158,169.3169],[28.0056,56.1131,149.0052],[28.0008,56.1104,151.3421],[27.9867,56.1104,170.842],[27.9864,56.0995,162.3601],[27.9817,56.0995,163.8007],[27.9816,56.0968,160.6796],[27.9768,56.094,161.0755],[27.9673,56.094,184.5195],[27.9671,56.0889,169.9429],[27.9526,56.0814,181.2424],[27.9516,56.0661,162.0084],[27.9366,56.0583,170.8332],[27.9363,56.0557,166.9898],[27.9316,56.0557,167.8608],[27.9314,56.0531,167.6108],[27.9219,56.0531,155.8661],[27.9214,56.0479,166.2683],[27.9164,56.0453,167.4897],[27.9117,56.0453,138.5035],[27.9073,56.0479,142.1503],[27.8882,56.0468,139.2699],[27.888,56.0446,137.7282],[27.8834,56.0463,144.1449],[27.8832,56.0442,144.0969],[27.8784,56.0438,146.5578],[27.8831,56.0421,147.3538],[27.8783,56.0417,156.2733],[27.8781,56.0395,148.4133],[27.8685,56.0387,154.3932],[27.8537,56.0333,156.0734],[27.8392,56.0317,153.9463],[27.8245,56.0281,152.3755],[27.8292,56.0247,149.6373],[27.834,56.0252,152.2081],[27.848,56.0218,152.5954],[27.8478,56.0192,150.7153],[27.8428,56.0166,154.1287],[27.8425,56.0141,159.9992],[27.8378,56.014,152.3686],[27.8375,56.0115,161.9158],[27.8328,56.0114,174.9981],[27.8278,56.0088,165.4798],[27.8275,56.0063,158.5191],[27.8181,56.0062,153.0402],[27.8226,56.0037,157.4877],[27.822,55.9985,144.7956],[27.8264,55.9959,139.7406],[27.8217,55.9959,138.4593],[27.8209,55.9882,144.3306],[27.8115,55.9881,144.271],[27.8159,55.9856,157.8308],[27.8112,55.9855,152.1015],[27.8109,55.983,171.2342],[27.8153,55.9804,165.4281],[27.8059,55.9804,155.0659],[27.801,55.9778,150.4515],[27.8007,55.9752,145.7483],[27.7819,55.9751,142.9733],[27.7772,55.9751,144.2043],[27.7774,55.9777,142.4303],[27.7821,55.9777,144.7503],[27.773,55.9802,142.233],[27.7727,55.9776,138.1149],[27.768,55.9776,139.8162],[27.7683,55.9802,140.0794],[27.7633,55.9776,156.3664],[27.763,55.975,170.002],[27.7583,55.975,145.6819],[27.7581,55.9724,158.3022],[27.7531,55.9698,166.9567],[27.6891,55.9438,168.7356],[27.6642,55.9308,161.7133],[27.6625,55.9152,161.4196],[27.6322,55.897,162.4507],[27.6304,55.8912,161.5],[27.6307,55.8479,156.099],[27.6289,55.8421,154.2681],[27.5968,55.7938,128.7851],[27.5972,55.7913,117.6696],[27.5926,55.7888,126.799],[27.593,55.7862,101.2191],[27.6227,55.7886,98.5],[27.6584,55.7856,121.9302],[27.6779,55.791,99.0],[27.7126,55.7964,105.0317],[27.7675,55.8018,99.5],[27.8067,55.8128,103.181],[27.8117,55.8128,104.8431],[27.8165,55.8156,101.3352],[27.8316,55.8156,109.4019],[27.8512,55.8211,108.7097],[27.8663,55.8211,106.2465],[27.8766,55.8184,111.9276],[27.8871,55.8128,122.2844],[27.9036,55.7962,125.6563],[27.905,55.7796,137.2083],[27.9007,55.7713,137.8323],[27.9062,55.7658,140.6898],[27.9023,55.752,132.2916],[27.9081,55.741,133.1193],[27.9096,55.7217,132.6582],[27.9048,55.7189,133.2215],[27.905,55.7162,134.7456],[27.9104,55.7107,133.0997],[27.9106,55.7079,129.8224],[27.9208,55.7024,119.6025],[27.9408,55.6997,115.882],[27.9561,55.6915,127.4084],[27.9718,55.6751,127.4525],[27.9769,55.6724,132.7773],[28.0114,55.6724,118.6628],[28.0266,55.6643,111.81],[28.0462,55.6643,111.6436],[28.0612,55.6589,125.1233],[28.0766,55.6452,115.6696],[28.0866,55.6397,115.4296],[28.1123,55.6069,114.698],[28.1173,55.6042,111.0216],[28.1226,55.5905,120.752],[28.1424,55.5796,112.4841],[28.1866,55.5687,116.0752],[28.2013,55.5687,116.9946],[28.2159,55.566,116.9028],[28.2503,55.5523,114.2283],[28.2747,55.5468,114.1841],[28.3041,55.5358,122.9054],[28.3187,55.5331,121.9696]]]]}}