{"type":"Feature","properties":{"GID_2":"BLR.3.9_1","GID_0":"BLR","country":"Belarus","GID_1":"BLR.3_1","province":"Grodno","NL_NAME_1":"Гродзенская","county":"Masty","VARNAME_2":"Mostu","NL_NAME_2":"Мастоўскіраён","TYPE_2":"Raion","ENGTYPE_2":"District","CC_2":"NA","HASC_2":"BY.HR.MO","name":"Masty.county"},
"geometry":{"type": "MultiPolygon","coordinates": [[[[24.1262,53.3562,138.6102],[24.14,53.3567,129.7024],[24.1448,53.3542,135.8562],[24.1494,53.3543,126.8693],[24.1597,53.3411,123.9149],[24.1643,53.3413,123.8192],[24.1731,53.3471,127.6099],[24.1867,53.3503,134.9473],[24.1913,53.3505,134.3997],[24.2009,53.3455,132.8564],[24.2147,53.346,131.8019],[24.2323,53.3576,140.231],[24.2598,53.3587,145.7759],[24.2688,53.3618,147.3535],[24.2862,53.376,156.8409],[24.2954,53.3764,148.7019],[24.305,53.3714,140.1505],[24.3142,53.3717,134.0412],[24.3277,53.375,129.6487],[24.3273,53.3804,130.0777],[24.3033,53.3929,131.7713],[24.3031,53.3956,129.076],[24.3167,53.3989,132.1925],[24.3208,53.4045,127.182],[24.3206,53.4072,116.4501],[24.3158,53.4097,115.8128],[24.3156,53.4124,115.3251],[24.3244,53.4182,114.4622],[24.3428,53.4189,107.4985],[24.3661,53.4143,106.2085],[24.3851,53.407,109.4685],[24.3943,53.4073,120.15],[24.4039,53.4023,121.4814],[24.4095,53.389,128.1221],[24.4373,53.3874,130.0898],[24.442,53.3849,135.3735],[24.4423,53.3822,121.0327],[24.4202,53.3705,137.3435],[24.43,53.3628,135.1628],[24.4481,53.3662,137.3856],[24.4577,53.3612,134.435],[24.4535,53.3557,125.9142],[24.4677,53.3508,123.8075],[24.4694,53.3294,152.4986],[24.479,53.3244,154.0571],[24.4925,53.3276,154.6989],[24.5069,53.3201,148.5936],[24.5298,53.321,132.9608],[24.5345,53.3185,144.9974],[24.5258,53.3128,142.1696],[24.5164,53.3151,146.5573],[24.5077,53.3094,167.3685],[24.5079,53.3067,175.8134],[24.5127,53.3042,168.3718],[24.5313,53.3022,154.2753],[24.5511,53.2841,191.2245],[24.5605,53.2818,195.1064],[24.6109,53.2836,183.445],[24.6205,53.2786,169.7352],[24.621,53.2732,169.0455],[24.6171,53.265,163.4626],[24.6127,53.2622,159.2738],[24.6176,53.2596,153.0762],[24.6313,53.2601,154.2697],[24.6361,53.2576,155.58],[24.6364,53.2549,167.4792],[24.6318,53.2548,163.6077],[24.6322,53.2494,166.3773],[24.6371,53.2469,169.1748],[24.6508,53.2474,163.8837],[24.6596,53.2531,164.412],[24.6779,53.2537,157.8796],[24.696,53.257,144.8437],[24.7055,53.2547,136.7913],[24.7144,53.2577,129.5308],[24.7139,53.263,131.0582],[24.7183,53.2659,123.6677],[24.7325,53.261,128.2923],[24.7458,53.2668,119.9872],[24.755,53.2671,119.0555],[24.7591,53.2726,118.725],[24.7635,53.2755,118.3691],[24.7671,53.2863,117.4628],[24.7621,53.2915,117.0885],[24.7664,53.2944,116.963],[24.7802,53.2948,116.7019],[24.785,53.2923,116.5913],[24.7903,53.2844,117.4644],[24.7913,53.2737,117.9203],[24.7961,53.2712,117.8232],[24.8465,53.2729,138.8959],[24.8514,53.2703,141.3367],[24.8472,53.2648,140.156],[24.8523,53.2596,140.49],[24.8663,53.2574,172.4657],[24.8754,53.2576,158.6347],[24.9064,53.2721,144.2803],[24.9059,53.2775,139.8836],[24.9194,53.2806,133.566],[24.9242,53.278,134.4062],[24.9249,53.27,136.7822],[24.9299,53.2648,137.0332],[24.9393,53.2624,134.1621],[24.9528,53.2655,136.6242],[24.9672,53.2579,139.5326],[24.9855,53.2584,134.9792],[24.9899,53.2613,134.3476],[24.9892,53.2693,131.5007],[24.9979,53.275,128.3023],[25.007,53.2752,126.7665],[25.0157,53.2809,124.1546],[25.0112,53.2807,125.8285],[25.0109,53.2834,125.3497],[25.0148,53.2916,121.5095],[25.024,53.2919,121.4333],[25.0283,53.2947,127.4916],[25.0375,53.295,138.8338],[25.0567,53.2848,121.307],[25.066,53.2824,121.7686],[25.0706,53.2825,121.7744],[25.0749,53.2854,124.919],[25.0747,53.2881,122.4629],[25.0791,53.2909,120.7345],[25.0882,53.2911,120.1231],[25.0832,53.2964,121.4091],[25.0594,53.306399999999996,123.1075],[25.0592,53.3091,119.6076],[25.0633,53.3146,133.0401],[25.0631,53.3173,134.6398],[25.0535,53.3224,128.7445],[25.0489,53.3223,125.0322],[25.0439,53.3275,118.7308],[25.0416,53.3544,116.8768],[25.032,53.3595,118.2262],[25.0316,53.3648,118.4929],[25.0402,53.3705,120.5648],[25.0258,53.3781,120.4632],[25.0302,53.3809,116.0255],[25.0348,53.3811,116.6581],[25.0478,53.3896,127.3294],[25.0519,53.3951,133.0398],[25.0487,53.4327,125.6179],[25.0434,53.4406,137.0814],[25.0526,53.4409,131.3636],[25.0574,53.4383,135.2627],[25.0617,53.4412,132.8714],[25.0663,53.4413,136.006],[25.0661,53.444,123.9297],[25.0567,53.4464,131.4919],[25.0565,53.4491,127.0529],[25.0606,53.4546,133.4385],[25.051,53.4597,139.2118],[25.0326,53.4591,125.0103],[25.0182,53.4668,116.9131],[24.9994,53.4716,115.5976],[24.9992,53.4743,114.9626],[24.9756,53.4816,126.6167],[24.9704,53.4895,118.392],[24.9612,53.4892,131.5093],[24.9569,53.4864,116.6289],[24.939,53.4804,112.6711],[24.9344,53.4803,114.8348],[24.9349,53.4749,113.9543],[24.9305,53.4721,111.965],[24.9168,53.4717,112.8385],[24.9127,53.4661,111.9384],[24.9083,53.4633,124.905],[24.9085,53.4606,123.0042],[24.8763,53.4623,115.7688],[24.8719,53.4594,127.7485],[24.8726,53.4514,125.1504],[24.8595,53.4429,119.4787],[24.832,53.442,127.8891],[24.8279,53.4364,126.3727],[24.8284,53.4311,121.3387],[24.824,53.4282,137.0399],[24.8242,53.4255,133.6236],[24.8151,53.4252,134.5671],[24.8144,53.4333,123.3094],[24.8096,53.4358,116.3668],[24.8005,53.4355,129.9117],[24.792,53.4272,115.057],[24.778199999999998,53.4267,129.047],[24.7689,53.4291,116.1138],[24.7637,53.437,127.6023],[24.7541,53.4421,115.4713],[24.7526,53.4609,113.304],[24.7335,53.4711,112.9456],[24.7061,53.4702,124.623],[24.692,53.4751,117.4741],[24.7051,53.4836,117.7905],[24.7093,53.4892,118.0426],[24.7089,53.4945,121.7418],[24.69,53.502,131.8794],[24.6855,53.5018,130.1554],[24.6813,53.4963,126.2226],[24.6718,53.5013,132.7123],[24.6714,53.5067,133.5916],[24.6666,53.5092,135.126],[24.6482,53.5113,132.8294],[24.6432,53.5165,136.3066],[24.6337,53.5216,137.5897],[24.6331,53.5297,139.8582],[24.6283,53.5322,140.316],[24.6106,53.5235,130.6158],[24.6015,53.5231,127.1874],[24.5876,53.5253,121.4764],[24.5832,53.5225,121.5984],[24.5884,53.5146,119.9153],[24.5886,53.5119,119.1521],[24.5842,53.509,125.3948],[24.584,53.5117,121.2002],[24.5649,53.5218,125.0017],[24.5559,53.5188,125.4592],[24.5516,53.5159,124.1369],[24.5565,53.5107,122.7868],[24.5659,53.5083,122.0143],[24.5665,53.5002,120.111],[24.5571,53.5026,121.3907],[24.5573,53.4999,136.8419],[24.5623,53.4947,127.1999],[24.5717,53.4923,121.6826],[24.5766,53.4871,119.9518],[24.5723,53.4842,118.9442],[24.554,53.4836,133.4053],[24.5444,53.4886,117.4323],[24.5394,53.493899999999996,127.658],[24.5348,53.4937,133.7368],[24.5261,53.488,127.0467],[24.5167,53.4903,119.6492],[24.5024,53.4979,116.265],[24.4884,53.5001,117.5524],[24.4703,53.4967,121.4953],[24.4655,53.4993,135.0012],[24.4653,53.502,130.5668],[24.4693,53.5102,115.2804],[24.4735,53.5158,115.9249],[24.4823,53.5216,127.8359],[24.4819,53.527,128.895],[24.4725,53.5293,137.0909],[24.4587,53.5288,137.0483],[24.454,53.5314,135.4118],[24.4219,53.5302,114.5986],[24.4129,53.5272,120.51],[24.4133,53.5218,133.0184],[24.4181,53.5193,131.8114],[24.4183,53.5165,132.2525],[24.4095,53.5108,126.56],[24.3955,53.513,114.127],[24.3865,53.51,116.0979],[24.3682,53.5093,115.373],[24.368,53.512,117.3346],[24.363,53.5173,115.9611],[24.3492,53.5168,130.9825],[24.3397,53.5219,130.5207],[24.3106,53.5428,114.8873],[24.3012,53.5452,130.0909],[24.2921,53.5449,114.9852],[24.2833,53.5392,117.8424],[24.2837,53.5337,113.7804],[24.3169,53.5184,115.1662],[24.3175,53.5103,114.6403],[24.304,53.5071,114.5038],[24.2757,53.517,134.1234],[24.2613,53.5248,112.9841],[24.2381,53.5296,113.4084],[24.2286,53.5348,113.3018],[24.2099,53.5398,112.338],[24.1954,53.5504,126.752],[24.191,53.5476,113.3176],[24.1912,53.5448,113.2953],[24.1868,53.5419,131.0733],[24.1541,53.5519,112.6133],[24.1358,53.5513,122.3588],[24.1362,53.5458,110.934],[24.1411,53.5405,111.3157],[24.1554,53.5328,114.6018],[24.1558,53.5273,121.8326],[24.1234,53.5317,102.2252],[24.115,53.5205,114.0986],[24.0974,53.5118,112.8015],[24.0975,53.509,112.8085],[24.1076,53.4957,116.3679],[24.1222,53.4824,123.7767],[24.1226,53.4769,123.7518],[24.1421,53.4582,111.959],[24.1425,53.4527,112.3836],[24.1337,53.447,116.6731],[24.1292,53.4468,114.2757],[24.1293,53.4441,115.7535],[24.1248,53.444,114.4617],[24.1251,53.4385,121.5526],[24.1162,53.4355,114.0184],[24.1022,53.4407,112.1775],[24.0887,53.4376,111.7819],[24.0894,53.4266,118.1036],[24.085,53.4237,122.0386],[24.077,53.4071,133.4673],[24.0726,53.4042,144.6978],[24.0728,53.4015,138.8328],[24.0867,53.399,128.13],[24.0868,53.3963,119.4796],[24.0781,53.3905,117.8912],[24.0786,53.3823,120.9958],[24.0741,53.3822,121.13],[24.0746,53.3739,116.6276],[24.0793,53.3713,118.9071],[24.0837,53.3741,117.0712],[24.1016,53.3801,120.1317],[24.1159,53.3723,127.8145],[24.1205,53.3724,129.9863],[24.13,53.3673,140.7661],[24.1304,53.3618,140.9245],[24.1262,53.3562,138.6102]]]]}}