{"type": "Feature","bbox": [25.7033,51.8756,26.7526,52.5649],"geometry": {"type": "MultiPolygon","coordinates": [[[[26.1901,52.5287,149.1745],[26.1998,52.5153,148.9188],[26.2006,52.4991,148.1198],[26.1966,52.4909,155.9726],[26.1929,52.4774,152.1342],[26.1976,52.472,153.8808],[26.1531,52.4713,151.1495],[26.1358,52.4602,157.2036],[26.136,52.4575,158.1481],[26.1233,52.4438,149.0613],[26.1147,52.4382,156.0894],[26.1102,52.4382,154.0897],[26.0964,52.446,155.0394],[26.0915,52.454,145.9663],[26.0869,52.4567,147.3103],[26.02,52.4528,165.2942],[26.0154,52.4554,156.8155],[26.0109,52.4553,157.4466],[26.0108,52.458,154.5612],[26.0018,52.4579,147.955],[25.993,52.455,144.3595],[25.9796,52.4548,143.7077],[25.9622,52.4464,143.5311],[25.9533,52.4462,143.6432],[25.953,52.4516,143.5596],[25.9483,52.4542,143.5647],[25.9038,52.4507,143.778],[25.9031,52.4615,144.0266],[25.8674,52.4609,143.6502],[25.8627,52.4635,143.9578],[25.8582,52.4634,144.1645],[25.8395,52.4765,145.6574],[25.8306,52.4764,147.9531],[25.8263,52.4736,162.4356],[25.8268,52.4655,173.9548],[25.8316,52.4602,172.5821],[25.8369,52.4468,175.6873],[25.8191,52.4438,166.1482],[25.8055,52.4463,165.2485],[25.8054,52.449,166.906],[25.8004,52.4569,163.4828],[25.7866,52.4621,152.4342],[25.7858,52.4755,151.8499],[25.7807,52.4862,162.6615],[25.776,52.4888,164.4386],[25.7671,52.4887,157.4939],[25.7627,52.4859,157.4452],[25.7633,52.4778,148.6653],[25.7681,52.4725,147.4048],[25.7682,52.4698,146.56],[25.7639,52.467,146.6425],[25.7242,52.4582,147.0538],[25.72,52.4528,145.3872],[25.715699999999998,52.45,154.8074],[25.7164,52.4392,148.6294],[25.7078,52.4337,142.7096],[25.7033,52.4336,142.2432],[25.7082,52.4283,142.3751],[25.7089,52.4175,141.6932],[25.7046,52.4148,142.1389],[25.7183,52.4096,144.3879],[25.7226,52.4124,142.9102],[25.7317,52.4099,154.3711],[25.7319,52.4072,161.5716],[25.7365,52.4046,154.2575],[25.741,52.4047,142.4942],[25.7453,52.4074,153.1524],[25.7542,52.4076,162.463],[25.7506,52.3941,155.1764],[25.7553,52.3915,159.9418],[25.7776,52.3919,165.9551],[25.7784,52.3784,154.1866],[25.7741,52.3756,153.818],[25.7801,52.3515,150.3522],[25.7806,52.3434,159.5156],[25.7852,52.3408,157.6938],[25.7854,52.3381,156.5099],[25.7811,52.3353,157.7952],[25.7675,52.3378,158.9084],[25.7586,52.3376,153.4151],[25.7545,52.3322,150.6695],[25.7502,52.3294,150.8605],[25.7504,52.3267,150.01],[25.7732,52.319,139.0108],[25.7692,52.3109,138.2625],[25.7608,52.3026,148.0191],[25.7434,52.2943,162.1252],[25.7436,52.2916,154.4467],[25.7575,52.2837,153.2178],[25.7666,52.2812,145.3271],[25.7888,52.2816,159.1766],[25.8025,52.2764,151.4023],[25.807,52.2765,148.2182],[25.8111,52.2819,146.5556],[25.811,52.2846,139.4644],[25.7971,52.2925,137.5553],[25.8105,52.2927,137.4526],[25.8192,52.2956,137.8089],[25.8326,52.2958,139.155],[25.8331,52.2877,137.6004],[25.8598,52.2882,137.2881],[25.8689,52.2856,137.0643],[25.8872,52.2778,137.823],[25.9056,52.2673,137.5973],[25.8975,52.2537,161.9659],[25.8889,52.2482,162.8268],[25.8757,52.2453,151.3735],[25.8622,52.2477,150.4549],[25.8627,52.2397,155.7367],[25.8587,52.2315,172.7103],[25.8544,52.2287,178.6889],[25.8365,52.2311,153.4803],[25.8099,52.228,154.629],[25.8105,52.2172,166.9636],[25.8064,52.2118,171.2447],[25.8112,52.2065,174.9065],[25.8156,52.2065,173.5902],[25.8158,52.2038,171.7146],[25.8026,52.2009,171.4841],[25.8072,52.1983,171.6308],[25.8082,52.1821,173.318],[25.7815,52.1817,173.8784],[25.7821,52.1709,176.2967],[25.7867,52.1683,182.51],[25.7956,52.1685,182.1423],[25.8091,52.166,175.4982],[25.8183,52.1607,173.2728],[25.8231,52.1554,152.8431],[25.8202,52.1284,147.0905],[25.8028,52.1227,149.0275],[25.7644,52.0952,142.8141],[25.7511,52.0949,142.4361],[25.7468,52.0922,142.5568],[25.7427,52.0867,140.7473],[25.7455,52.0482,148.4937],[25.7585,52.0512,149.4329],[25.7674,52.0514,148.4648],[25.776,52.0543,135.895],[25.7806,52.0516,135.9733],[25.7809,52.0488,136.3257],[25.7682,52.0403,138.5594],[25.7638,52.0402,144.984],[25.7648,52.0263,146.416],[25.7562,52.0233,148.2608],[25.7393,52.0117,151.6102],[25.7355,52.0031,138.3816],[25.7371,51.9775,155.4005],[25.7329,51.9746,155.6719],[25.7334,51.966,153.1662],[25.725,51.96,148.0621],[25.7252,51.9571,146.0647],[25.7299,51.9515,144.5061],[25.7211,51.9513,141.1717],[25.7221,51.9301,148.0179],[25.8068,51.9331,143.8213],[25.8065,51.9387,151.4331],[25.7964,51.9549,152.0474],[25.7963,51.9605,148.8508],[25.825,51.9615,147.5824],[25.8444,51.9567,148.2945],[25.854,51.9571,154.2524],[25.8546,51.9405,139.8602],[25.9029,51.9423,139.1643],[25.9227,51.932,137.3578],[25.9519,51.9275,141.4423],[25.9616,51.9279,137.9624],[25.9804,51.9398,138.9001],[26.0479,51.9423,137.5292],[26.0675,51.9376,137.8522],[26.0969,51.9221,137.9901],[26.1065,51.9225,138.2889],[26.1163,51.9284,140.7318],[26.1448,51.9128,137.5925],[26.1642,51.8967,138.8165],[26.1936,51.881,140.9572],[26.203,51.8813,140.7621],[26.2223,51.8765,141.8124],[26.2886,51.8792,141.9433],[26.3344,51.8756,146.2495],[26.3367,51.8772,145.935],[26.3392,51.8756,143.8095],[26.3666,51.8766,152.4203],[26.3899,51.8816,142.097],[26.3943,51.8846,142.6716],[26.4054,51.8849,141.523],[26.4209,51.8939,137.9353],[26.4253,51.8998,138.1519],[26.425,51.914,150.8975],[26.416,51.9194,137.4233],[26.4071,51.922,138.25],[26.3983,51.9189,138.6557],[26.3894,51.9187,137.871],[26.3849,51.9214,138.4415],[26.3805,51.9213,139.3654],[26.3848,51.9271,137.2089],[26.3803,51.927,137.3699],[26.3758,51.9297,138.2278],[26.3715,51.9268,137.7232],[26.367,51.9267,137.7559],[26.3669,51.9323,158.5253],[26.371,51.9408,139.5708],[26.3709,51.9436,139.6711],[26.3662,51.949,151.8434],[26.366,51.9518,139.788],[26.3698,51.9629,148.9027],[26.3695,51.9684,138.4112],[26.3649,51.971,135.584],[26.3605,51.971,135.5143],[26.3558,51.9764,135.4283],[26.3409,52.0088,135.3504],[26.3451,52.0115,135.4304],[26.3627,52.0145,136.1553],[26.3892,52.0148,136.0902],[26.3983,52.0095,135.2712],[26.4026,52.0123,139.0071],[26.3978,52.0204,134.5993],[26.3976,52.0231,135.2699],[26.4019,52.0258,135.8108],[26.4063,52.0259,136.0222],[26.4158,52.0125,141.0981],[26.4204,52.0098,141.8203],[26.4291,52.0126,144.4602],[26.4376,52.0182,145.5272],[26.4459,52.0291,134.6994],[26.4503,52.0292,134.631],[26.4507,52.021,134.5208],[26.4554,52.0157,135.0808],[26.4556,52.013,137.2283],[26.4817,52.0187,133.9386],[26.4903,52.0242,133.7996],[26.4947,52.0243,133.8053],[26.512,52.0299,133.9665],[26.5471,52.0331,144.5264],[26.556,52.0305,148.249],[26.5955,52.0309,132.8603],[26.6086,52.0338,132.5617],[26.6256,52.0421,135.7528],[26.625,52.0529,132.6319],[26.5984,52.058,132.5873],[26.5721,52.0577,134.1247],[26.5676,52.0604,134.314],[26.566,52.0901,133.3312],[26.5743,52.0983,133.1894],[26.5742,52.101,132.9615],[26.5653,52.1036,132.8177],[26.5651,52.1063,133.0638],[26.5693,52.1091,132.2647],[26.5781,52.1092,132.1175],[26.5872,52.1039,132.3772],[26.5959,52.104,132.7803],[26.6041,52.1149,132.1607],[26.6036,52.123,132.8066],[26.6292,52.1341,132.0261],[26.6375,52.1423,132.001],[26.6854,52.14,131.8977],[26.7031,52.1348,131.5022],[26.7117,52.1349,132.3197],[26.7162,52.1322,132.2832],[26.7205,52.1323,132.0663],[26.7285,52.1431,132.1201],[26.7282,52.1485,131.4856],[26.7322,52.154,131.4133],[26.7405,52.1594,133.2385],[26.7403,52.1621,131.6572],[26.7486,52.1676,132.8721],[26.7526,52.173,132.8499],[26.7523,52.1784,135.4042],[26.7347,52.1837,131.3425],[26.7037,52.1969,131.5719],[26.6906,52.1995,131.5641],[26.6864,52.1968,131.4338],[26.6778,52.1967,131.8571],[26.6653,52.1885,131.4262],[26.6609,52.1885,131.4877],[26.656,52.1992,131.6559],[26.6515,52.2019,131.8033],[26.6254,52.2016,131.9334],[26.6208,52.207,132.8459],[26.6204,52.2124,132.1351],[26.6114,52.2177,132.3801],[26.6112,52.2231,132.4542],[26.6065,52.2285,132.6875],[26.5888,52.2337,135.8829],[26.5798,52.239,137.7732],[26.575,52.2471,133.5026],[26.5526,52.2577,133.5011],[26.551,52.2874,134.1629],[26.5378,52.29,134.4379],[26.5292,52.2872,135.5702],[26.5204,52.2871,136.6207],[26.5114,52.2924,136.1427],[26.5111,52.2978,135.9863],[26.524,52.3033,136.7373],[26.5228,52.325,141.407],[26.4913,52.3436,154.9416],[26.4779,52.3488,150.0324],[26.4776,52.3542,156.0273],[26.4329,52.37,142.4198],[26.4056,52.3886,157.7746],[26.4008,52.3966,161.0473],[26.4006,52.402,154.9535],[26.3962,52.402,159.3107],[26.3957,52.4101,144.2363],[26.4,52.4128,153.5518],[26.4041,52.4183,155.3871],[26.4039,52.4237,151.0252],[26.4081,52.4265,164.5703],[26.4212,52.4293,156.9332],[26.4299,52.4294,161.978],[26.4346,52.4241,160.2445],[26.4475,52.4297,162.6411],[26.5078,52.4466,158.4872],[26.5469,52.4497,152.0254],[26.5688,52.4472,157.2746],[26.5595,52.4579,152.0856],[26.5591,52.466,154.2524],[26.5546,52.4687,157.7606],[26.5544,52.4741,154.739],[26.5584,52.4795,163.6659],[26.5311,52.5036,164.8054],[26.531,52.5063,163.5137],[26.522,52.5116,166.8862],[26.4915,52.5113,146.3776],[26.4785,52.5085,146.1471],[26.474,52.5111,146.0256],[26.4736,52.5192,155.9497],[26.4777,52.5247,148.6973],[26.4774,52.5301,157.8887],[26.4643,52.53,151.3207],[26.4513,52.5271,153.8376],[26.4294,52.5268,152.0023],[26.4325,52.5539,152.1653],[26.441,52.5594,153.6383],[26.4407,52.5649,155.3269],[26.4277,52.562,153.1402],[26.4189,52.5619,152.7004],[26.4144,52.5645,152.5],[26.4012,52.5643,153.6407],[26.3927,52.5588,153.9981],[26.3838,52.5587,164.3149],[26.3705,52.5612,167.7423],[26.3144,52.5334,158.1784],[26.3055,52.5332,156.934],[26.3043,52.5575,150.3244],[26.2997,52.5602,151.0139],[26.2953,52.5601,152.6263],[26.2739,52.5435,166.5052],[26.2564,52.5379,160.217],[26.2385,52.5403,151.2517],[26.2203,52.5481,149.4913],[26.2115,52.5452,149.1376],[26.1901,52.5287,149.1745]]]]}
,"properties": {"GID_2": "BLR.1.13_1","GID_0": "BLR","country": "Belarus","GID_1": "BLR.1_1","province": "Brest","NL_NAME_1": "Брэсцкая","county": "Pinsk","VARNAME_2": "NA","NL_NAME_2": "Пінскіраён","TYPE_2": "Raion","ENGTYPE_2": "District","CC_2": "NA","HASC_2": "BY.BR.PI","name": "Pinsk.county","area_km2": 3294.609,"hist_schema_id": "Elevation0-9000","hist_area_km2": {"125": 1239.431,"150": 1802.878,"175": 251.936,"200": 0.364}}}