{"type": "Feature","bbox": [27.2905,55.3326,28.3236,55.8211],"geometry": {"type": "MultiPolygon","coordinates": [[[[27.3623,55.515,160.8464],[27.3815,55.515,156.0576],[27.3908,55.5205,155.7734],[27.3905,55.526,148.6413],[27.3953,55.526,154.1243],[27.4003,55.5233,159.3081],[27.4054,55.5178,168.8094],[27.4056,55.515,165.0821],[27.4105,55.5123,159.0974],[27.4253,55.5068,160.0577],[27.4301,55.5068,162.097],[27.4355,55.4959,157.4147],[27.4405,55.4931,151.8071],[27.4502,55.4932,150.1857],[27.4599,55.4904,147.5883],[27.4604,55.4822,149.3272],[27.4797,55.4823,150.3551],[27.4843,55.485,152.7962],[27.4987,55.4878,147.5349],[27.5228,55.4879,153.5919],[27.5328,55.4824,151.3087],[27.538,55.4742,155.4291],[27.5381,55.4715,150.1449],[27.5481,55.466,150.9367],[27.5579,55.4633,143.2816],[27.5675,55.4634,141.6274],[27.5822,55.4607,139.7476],[27.6015,55.4607,140.4225],[27.6065,55.458,137.1357],[27.6115,55.4525,146.5035],[27.6164,55.4525,156.8835],[27.6211,55.4553,153.2646],[27.6359,55.4498,141.4447],[27.6407,55.4499,139.1308],[27.6402,55.4608,144.7363],[27.6497,55.4663,152.6788],[27.6546,55.4663,157.544],[27.6592,55.4718,154.1455],[27.6591,55.4745,149.3166],[27.6686,55.4773,141.824],[27.6832,55.4773,157.6773],[27.6974,55.4855,155.5366],[27.7118,55.4883,161.5352],[27.7166,55.491,139.828],[27.7214,55.491,152.736],[27.7264,55.4883,141.8224],[27.7219,55.4801,148.3104],[27.7222,55.4719,153.0462],[27.7271,55.4719,137.7304],[27.7321,55.4692,137.1271],[27.7418,55.4692,138.2614],[27.7465,55.472,137.985],[27.7659,55.472,139.8302],[27.7756,55.4748,140.6589],[27.7898,55.483,141.2816],[27.8139,55.4885,138.6882],[27.8237,55.4885,138.3681],[27.8142,55.4803,135.473],[27.8144,55.4748,134.8669],[27.8193,55.4748,135.0352],[27.8336,55.4831,139.2964],[27.8676,55.4831,139.2998],[27.8917,55.4887,135.1036],[27.9015,55.4887,133.8758],[27.9261,55.4778,134.0302],[27.9262,55.475,133.5688],[27.955,55.486,133.3324],[27.9647,55.4861,133.2669],[27.9745,55.4833,133.5811],[27.9747,55.4779,132.4114],[27.9797,55.4697,120.3008],[27.9701,55.4642,132.737],[27.9556,55.4641,124.2186],[27.9509,55.4559,133.0138],[27.9462,55.4532,133.371],[27.9462,55.4504,133.1843],[27.9317,55.4477,132.9283],[27.9416,55.4422,154.1067],[27.9512,55.445,149.7404],[28.0045,55.445,140.3557],[28.0093,55.4478,135.9188],[27.9898,55.4532,134.1147],[27.9849,55.456,134.1254],[27.9848,55.4614,133.4336],[27.9943,55.4669,136.9736],[28.0137,55.4697,134.5763],[28.0428,55.4697,137.3869],[28.0526,55.467,139.2519],[28.0478,55.4615,140.3343],[28.0143,55.4423,136.0565],[28.0147,55.4204,136.8093],[28.0197,55.4094,143.8086],[28.015,55.4039,138.4621],[28.0247,55.3985,145.1598],[28.02,55.393,148.2358],[28.02,55.3902,151.2484],[28.0298,55.3875,147.0562],[28.0443,55.3875,144.4825],[28.0491,55.3848,141.4425],[28.0589,55.3738,147.4013],[28.059,55.3683,152.9398],[28.0542,55.3656,154.3737],[28.0446,55.3656,153.9118],[28.0398,55.3601,164.9093],[28.0398,55.3574,165.7413],[28.0447,55.3546,165.5904],[28.0495,55.3546,164.9241],[28.0639,55.3601,163.2782],[28.0688,55.3601,160.94],[28.0834,55.3491,151.5913],[28.093,55.3464,147.4804],[28.1171,55.3491,164.8431],[28.1268,55.3491,163.997],[28.1364,55.3464,164.6352],[28.1509,55.3464,183.6474],[28.1557,55.3491,165.7788],[28.175,55.3491,165.9398],[28.1847,55.3464,169.0944],[28.1895,55.3409,148.5171],[28.1943,55.3409,170.6223],[28.2137,55.3326,181.9718],[28.2233,55.3353,180.9881],[28.2281,55.3408,164.083],[28.228,55.3491,159.703],[28.2376,55.3545,155.2933],[28.2521,55.3683,144.3053],[28.252,55.3765,152.9612],[28.2568,55.382,152.3117],[28.2664,55.3875,158.8793],[28.2761,55.3875,158.3381],[28.2857,55.393,153.1282],[28.2857,55.3984,141.6569],[28.2809,55.4039,143.6595],[28.2808,55.4149,137.8064],[28.2759,55.4232,137.4219],[28.2758,55.4342,148.6769],[28.2806,55.4397,143.0344],[28.2805,55.4644,135.6325],[28.2853,55.4699,133.8813],[28.2755,55.4781,127.0828],[28.2754,55.4891,134.4332],[28.2899,55.4946,128.5767],[28.2996,55.5001,127.3951],[28.3236,55.5221,114.328],[28.3236,55.5276,125.1594],[28.3187,55.5331,121.9696],[28.3041,55.5358,122.9054],[28.2747,55.5468,114.1841],[28.2503,55.5523,114.2283],[28.2159,55.566,116.9028],[28.2013,55.5687,116.9946],[28.1866,55.5687,116.0752],[28.1424,55.5796,112.4841],[28.1226,55.5905,120.752],[28.1173,55.6042,111.0216],[28.1123,55.6069,114.698],[28.0866,55.6397,115.4296],[28.0766,55.6452,115.6696],[28.0612,55.6589,125.1233],[28.0462,55.6643,111.6436],[28.0266,55.6643,111.81],[28.0114,55.6724,118.6628],[27.9769,55.6724,132.7773],[27.9718,55.6751,127.4525],[27.9561,55.6915,127.4084],[27.9408,55.6997,115.882],[27.9208,55.7024,119.6025],[27.9106,55.7079,129.8224],[27.9104,55.7107,133.0997],[27.905,55.7162,134.7456],[27.9048,55.7189,133.2215],[27.9096,55.7217,132.6582],[27.9081,55.741,133.1193],[27.9023,55.752,132.2916],[27.9062,55.7658,140.6898],[27.9007,55.7713,137.8323],[27.905,55.7796,137.2083],[27.9036,55.7962,125.6563],[27.8871,55.8128,122.2844],[27.8766,55.8184,111.9276],[27.8663,55.8211,106.2465],[27.8512,55.8211,108.7097],[27.8316,55.8156,109.4019],[27.8165,55.8156,101.3352],[27.8117,55.8128,104.8431],[27.8067,55.8128,103.181],[27.7675,55.8018,99.5],[27.7126,55.7964,105.0317],[27.6779,55.791,99.0],[27.6584,55.7856,121.9302],[27.6227,55.7886,98.5],[27.5928,55.7863,101.2191],[27.592,55.7818,121.0205],[27.5272,55.7838,106.9964],[27.4916,55.7882,100.8374],[27.4903,55.773,127.694],[27.4863,55.7563,155.0805],[27.4823,55.7424,143.9194],[27.4778,55.7397,159.2365],[27.445,55.7398,151.4218],[27.4405,55.7371,149.7018],[27.4266,55.7344,148.8937],[27.4175,55.7289,157.1783],[27.4179,55.7177,169.614],[27.4231,55.7093,178.814],[27.414,55.7038,175.63],[27.3999,55.7039,186.3604],[27.3953,55.7011,190.2978],[27.3858,55.704,191.5148],[27.3721,55.6985,184.0003],[27.3626,55.7013,192.1039],[27.3393,55.7014,180.1909],[27.3348,55.6986,198.8294],[27.3303,55.6931,184.3629],[27.3308,55.682,183.1728],[27.3217,55.6764,179.5706],[27.3169,55.6793,199.6453],[27.3031,55.6738,172.9671],[27.3035,55.6654,171.9724],[27.2905,55.6404,156.3172],[27.3047,55.6403,162.9922],[27.3096,55.6375,161.4682],[27.31,55.6319,155.6873],[27.3156,55.6207,168.0555],[27.3209,55.6151,164.2559],[27.3321,55.5955,137.0],[27.3473,55.587,137.7211],[27.3475,55.5843,150.4284],[27.3285,55.5816,138.6634],[27.3287,55.5788,155.5649],[27.3383,55.5787,163.4736],[27.3434,55.5759,150.8047],[27.3439,55.5704,157.347],[27.3296,55.5676,154.9326],[27.3349,55.5621,154.8964],[27.3397,55.562,146.778],[27.3448,55.5592,169.0869],[27.3452,55.5537,149.2442],[27.3362,55.5454,153.8141],[27.3469,55.5316,145.7985],[27.3568,55.526,144.0997],[27.3623,55.515,160.8464]]]]}
,"properties": {"GID_2": "BLR.6.11_1","GID_0": "BLR","country": "Belarus","GID_1": "BLR.6_1","province": "Vitebsk","NL_NAME_1": "Вiцебская","county": "Myory","VARNAME_2": "Mioru","NL_NAME_2": "Міёрскіраён","TYPE_2": "Raion","ENGTYPE_2": "District","CC_2": "NA","HASC_2": "BY.VI.MR","name": "Myory.county","area_km2": 1793.985,"hist_schema_id": "Elevation0-9000","hist_area_km2": {"100": 17.324,"125": 609.863,"150": 1040.261,"175": 110.852,"200": 14.705,"225": 0.98}}}