{"type": "Feature","bbox": [28.9509,53.2609,29.8423,53.7606],"geometry": {"type": "MultiPolygon","coordinates": [[[[28.9644,53.5267,142.3992],[28.9689,53.5239,141.8454],[28.9595,53.5131,142.4239],[28.9593,53.5022,144.704],[28.973,53.4966,146.314],[28.9729,53.4912,143.2276],[28.959,53.4886,143.4581],[28.9543,53.4832,147.1066],[28.9541,53.475,140.9751],[28.9632,53.4695,144.1238],[28.9632,53.4667,142.3024],[28.9539,53.4614,141.44],[28.9538,53.4586,140.8181],[28.9629,53.4531,141.5556],[28.9767,53.4502,140.6172],[28.9903,53.4419,142.0653],[28.9903,53.4392,142.319],[28.981,53.4366,140.3578],[28.9763,53.4339,146.0585],[28.9763,53.4312,143.1494],[28.99,53.4256,140.5052],[29.0084,53.4227,142.9164],[29.0129,53.4199,142.556],[29.0082,53.4172,140.8209],[28.9944,53.4174,141.049],[29.0035,53.4118,146.2575],[29.0173,53.4089,140.9748],[29.0262,53.3952,140.5325],[29.0214,53.3871,140.5023],[29.0259,53.3816,148.7477],[29.035,53.376,144.2638],[29.0349,53.3733,147.1553],[29.0257,53.3707,147.1671],[29.0254,53.3598,141.353],[29.0299,53.3543,142.2455],[29.0299,53.3516,144.7421],[29.0252,53.3489,140.4855],[29.0251,53.3434,153.075],[29.0387,53.3351,151.3963],[29.0479,53.335,139.2515],[29.0616,53.3294,138.3862],[29.0752,53.3211,140.8955],[29.0751,53.3184,145.8219],[29.0658,53.313,141.2152],[29.0612,53.3131,141.4189],[29.0657,53.3076,141.1012],[29.0794,53.3047,142.7452],[29.0839,53.3019,139.4915],[29.0701,53.2994,140.6464],[29.0608,53.294,141.0156],[29.0697,53.283,141.4658],[29.097,53.2691,144.815],[29.0968,53.2636,145.7905],[29.1014,53.2609,138.3201],[29.1198,53.2634,140.2693],[29.1244,53.2661,143.9389],[29.1201,53.277,140.8768],[29.111,53.2826,138.2209],[29.1158,53.288,155.7715],[29.1249,53.2878,142.4078],[29.143,53.274,154.7804],[29.1476,53.2767,149.2341],[29.1432,53.2849,152.2964],[29.1617,53.2902,155.1129],[29.1664,53.2928,156.2864],[29.1664,53.2956,158.7168],[29.1712,53.301,151.323],[29.1758,53.3036,162.5658],[29.1806,53.3118,165.8129],[29.1899,53.3171,157.01],[29.213,53.3223,154.6545],[29.2314,53.3221,155.4902],[29.2451,53.3192,158.4484],[29.2589,53.3218,160.442],[29.2868,53.3323,149.8935],[29.287,53.3432,153.4398],[29.3008,53.3431,164.2921],[29.3145,53.3375,161.5381],[29.3236,53.3373,176.7292],[29.3237,53.3401,178.2693],[29.3379,53.3535,169.5403],[29.3475,53.3698,171.057],[29.357,53.3806,162.5474],[29.3617,53.3833,167.8111],[29.3708,53.3831,170.6071],[29.398,53.3692,154.5222],[29.4025,53.3637,153.7797],[29.4162,53.3635,170.0807],[29.4256,53.3688,153.7982],[29.4533,53.374,172.3716],[29.4534,53.3794,153.6682],[29.4397,53.3796,175.6604],[29.4398,53.385,162.4278],[29.4538,53.3903,171.4604],[29.4629,53.3875,176.2693],[29.4676,53.3901,184.3391],[29.4723,53.3955,163.7037],[29.4817,53.4009,161.6659],[29.4911,53.409,159.6209],[29.4912,53.4117,161.3416],[29.5286,53.433,159.4239],[29.5424,53.4329,175.4887],[29.5517,53.4355,173.63],[29.5564,53.4409,171.2196],[29.5566,53.4463,173.1007],[29.5763,53.487,168.905],[29.5998,53.5004,179.6851],[29.6046,53.5085,161.3572],[29.6188,53.5192,171.4128],[29.6189,53.522,167.9043],[29.6283,53.53,181.7668],[29.6424,53.538,184.3497],[29.6426,53.5435,178.7573],[29.6518,53.5434,180.8852],[29.6517,53.5407,171.7767],[29.6609,53.5405,181.5264],[29.6703,53.5459,170.5446],[29.6749,53.5458,170.6114],[29.6839,53.5402,168.7104],[29.6976,53.5373,178.1832],[29.7078,53.5645,169.498],[29.7264,53.5697,164.5681],[29.731,53.5697,168.4541],[29.7311,53.5724,163.0881],[29.7449,53.5722,161.6894],[29.7585,53.5666,182.3408],[29.7591,53.5829,178.0953],[29.7639,53.5883,176.7998],[29.7869,53.588,182.9395],[29.7959,53.5824,182.2132],[29.7958,53.5797,175.8255],[29.8003,53.5769,173.5837],[29.8187,53.5767,150.14],[29.8278,53.5738,143.5353],[29.8275,53.5656,148.0385],[29.8367,53.5655,158.1244],[29.8414,53.5681,160.8875],[29.8416,53.5736,156.3972],[29.8372,53.5791,151.4384],[29.8327,53.5819,149.1284],[29.8421,53.5873,163.8766],[29.8423,53.5927,167.3662],[29.8333,53.5983,154.6225],[29.8242,53.6012,149.6227],[29.8247,53.6148,144.9255],[29.8296,53.6229,167.81],[29.8343,53.6256,173.2732],[29.821,53.6395,145.0121],[29.8212,53.6449,166.8298],[29.8306,53.6502,157.7616],[29.8307,53.653,170.579],[29.8217,53.6586,145.1595],[29.8265,53.664,148.0729],[29.8312,53.6666,153.5173],[29.8316,53.6775,145.9117],[29.8181,53.6859,146.3622],[29.8183,53.6914,146.1458],[29.814,53.6996,146.985],[29.791,53.7,160.7318],[29.7676,53.6921,173.7186],[29.7488,53.681399999999996,182.2298],[29.7394,53.6788,184.4453],[29.73,53.6735,176.7377],[29.7256,53.679,185.3416],[29.7265,53.7035,182.6508],[29.7221,53.7118,167.3462],[29.7268,53.7145,168.5205],[29.7362,53.7171,185.4466],[29.7361,53.7143,179.1321],[29.7408,53.717,186.0105],[29.7414,53.7334,187.0002],[29.7368,53.7335,171.2935],[29.732,53.7308,169.45],[29.7182,53.731,168.8073],[29.7185,53.7392,186.8583],[29.7232,53.7418,184.5976],[29.7233,53.7446,172.6994],[29.7188,53.7473,177.7655],[29.7048,53.7448,192.4994],[29.7004,53.7503,175.0385],[29.7051,53.753,181.6277],[29.6959,53.7531,190.7637],[29.677,53.7424,185.8056],[29.64,53.7429,191.5198],[29.608,53.7515,191.2015],[29.6033,53.7515,197.6577],[29.5939,53.7462,195.3401],[29.5569,53.7466,169.9907],[29.5431,53.7495,186.3948],[29.5434,53.7577,196.0981],[29.5389,53.7605,186.9409],[29.5342,53.7606,187.2999],[29.52,53.7498,181.5836],[29.5108,53.7499,177.4553],[29.5061,53.7473,185.594],[29.5057,53.7363,183.8311],[29.501,53.7337,194.4411],[29.4687,53.7368,177.5496],[29.464,53.7341,175.6823],[29.464,53.7314,175.6207],[29.4593,53.7287,174.9927],[29.4637,53.7232,174.4118],[29.4683,53.7204,174.054],[29.468,53.7122,174.0087],[29.4632,53.7068,177.489],[29.4677,53.7013,181.0644],[29.4628,53.6932,185.0076],[29.4351,53.6935,188.175],[29.4259,53.6963,174.3394],[29.4261,53.7018,170.9928],[29.3987,53.7157,171.5786],[29.3894,53.7131,180.5873],[29.3755,53.7133,187.282],[29.3484,53.7354,180.6208],[29.3345,53.7356,181.1895],[29.3298,53.7329,173.4226],[29.3294,53.7193,179.2861],[29.3386,53.7164,183.2342],[29.3385,53.711,175.5566],[29.3243,53.7002,179.39],[29.3242,53.6975,180.5891],[29.3195,53.6948,175.978],[29.3193,53.6866,166.3584],[29.3145,53.6812,165.05],[29.3006,53.6786,166.9476],[29.2728,53.6789,161.4992],[29.2682,53.6763,177.0644],[29.268,53.6708,166.7347],[29.2494,53.6656,175.442],[29.2215,53.6604,162.5026],[29.2168,53.6577,160.8525],[29.2213,53.6522,161.3407],[29.2166,53.6495,165.3969],[29.212,53.6496,165.8823],[29.1982,53.6552,165.2769],[29.1706,53.6609,169.5332],[29.1708,53.6664,174.011],[29.1662,53.6692,184.4931],[29.157,53.6693,170.7821],[29.1383,53.6613,166.9657],[29.1336,53.6613,162.9176],[29.1337,53.6641,160.8603],[29.1385,53.6695,165.3905],[29.1431,53.6694,162.4416],[29.1432,53.6721,163.4266],[29.1386,53.6749,166.6407],[29.1109,53.6779,159.453],[29.1016,53.6753,157.102],[29.0969,53.6726,163.0219],[29.1054,53.6398,158.6173],[29.0958,53.6263,151.8345],[29.0867,53.6318,160.9353],[29.0821,53.6319,160.7485],[29.0774,53.6292,164.9117],[29.0772,53.6183,153.7425],[29.0817,53.6155,154.1242],[29.0813,53.5964,159.1748],[29.095,53.5908,152.0118],[29.0856,53.58,163.2074],[29.0716,53.5747,159.4947],[29.067,53.5747,159.4326],[29.0625,53.5802,161.8387],[29.0533,53.583,163.4726],[29.0532,53.5803,161.9868],[29.0209,53.5807,159.0487],[29.0116,53.578,154.1474],[29.0025,53.5836,152.3282],[28.9886,53.5837,151.405],[28.9793,53.5783,143.7072],[28.97,53.5757,143.1258],[28.9515,53.5759,143.3864],[28.9514,53.5677,142.8469],[28.9605,53.5622,142.8485],[28.9743,53.5593,142.4521],[28.9742,53.5539,142.8025],[28.9649,53.5512,142.3114],[28.9556,53.5513,142.0967],[28.951,53.5486,161.5035],[28.9509,53.5459,153.1521],[28.9555,53.5431,142.2661],[28.9785,53.5375,153.4963],[28.9783,53.532,142.7789],[28.9644,53.5267,142.3992]]]]}
,"properties": {"GID_2": "BLR.4.13_1","GID_0": "BLR","country": "Belarus","GID_1": "BLR.4_1","province": "Mogilev","NL_NAME_1": "Магілёўская","county": "Klichaw","VARNAME_2": "Klichev","NL_NAME_2": "Клічаўскіраён","TYPE_2": "Raion","ENGTYPE_2": "District","CC_2": "NA","HASC_2": "BY.MA.KC","name": "Klichaw.county","area_km2": 1746.867,"hist_schema_id": "Elevation0-9000","hist_area_km2": {"125": 0.19,"150": 771.634,"175": 906.669,"200": 68.374}}}