{"type": "Feature","bbox": [26.2223,54.9398,27.498,55.307],"geometry": {"type": "MultiPolygon","coordinates": [[[[26.2862,54.9405,149.785],[26.3287,54.9656,184.2634],[26.3334,54.9657,195.9456],[26.3431,54.9605,187.0824],[26.3574,54.9608,192.0889],[26.3668,54.9664,188.3604],[26.3668,54.9691,220.4054],[26.3475,54.9768,202.9431],[26.3474,54.9822,211.2943],[26.3615,54.9906,207.4662],[26.371,54.9935,195.7895],[26.3757,54.9936,194.3493],[26.3902,54.9858,190.8356],[26.4189,54.9782,192.7473],[26.4382,54.9651,191.7446],[26.4619,54.9628,199.9686],[26.495,54.9526,188.1018],[26.5043,54.9527,200.144],[26.5229,54.9612,198.6747],[26.5323,54.9586,191.8138],[26.5417,54.9532,192.3303],[26.5511,54.9533,200.0227],[26.5559,54.9506,202.0438],[26.5605,54.9506,203.9091],[26.5747,54.9452,202.285],[26.5794,54.9398,200.6369],[26.5934,54.948,199.582],[26.6121,54.9508,190.6849],[26.6168,54.9536,197.4436],[26.6214,54.9591,202.616],[26.6213,54.9645,203.4375],[26.6117,54.9727,185.9914],[26.6117,54.9754,183.8488],[26.6163,54.9782,185.9049],[26.6538,54.9838,195.8803],[26.6728,54.9783,201.7245],[26.6869,54.9784,208.8069],[26.687,54.9757,204.3888],[26.7011,54.973,207.8083],[26.7059,54.9703,212.7052],[26.7108,54.9648,208.0704],[26.7203,54.9594,209.9521],[26.7393,54.954,207.229],[26.7487,54.954,193.0],[26.7531,54.9677,222.5918],[26.7578,54.9704,224.5094],[26.7577,54.9731,212.1271],[26.7671,54.9732,209.0961],[26.7813,54.9705,204.4045],[26.8002,54.9705,186.9122],[26.8047,54.9787,209.2226],[26.8142,54.9788,197.6532],[26.819,54.976,197.2953],[26.8144,54.9678,209.2928],[26.824,54.9624,165.7068],[26.8286,54.9651,169.5634],[26.8281,54.987,193.3073],[26.814,54.9869,203.9683],[26.8092,54.9897,202.542],[26.8087,55.0143,176.5624],[26.837,55.0143,158.5592],[26.8417,55.0116,166.6295],[26.8372,55.0061,160.8819],[26.842,55.0007,162.5071],[26.8468,54.998,161.5769],[26.8515,54.998,162.2356],[26.8796,55.009,156.8791],[26.8889,55.0172,169.5402],[26.903,55.0172,168.9285],[26.9174,55.0091,165.2224],[26.9412,55.0009,160.6578],[26.9461,54.9955,165.6089],[26.9653,54.9846,174.8627],[26.9512,54.9791,184.767],[26.9513,54.9764,169.7262],[26.965699999999998,54.9682,183.7771],[26.9751,54.9682,180.0678],[26.9893,54.971,192.403],[27.0082,54.971,184.0354],[27.0223,54.9765,196.3011],[27.0365,54.9793,196.6708],[27.0554,54.9793,190.1461],[27.065,54.9766,180.0604],[27.0792,54.9766,177.131],[27.0886,54.9821,183.855],[27.0694,54.9903,186.5849],[27.0646,54.9957,175.8408],[27.0787,55.0012,179.9204],[27.0882,55.0012,196.9711],[27.093,54.9985,197.6092],[27.1073,54.9958,191.7919],[27.1358,54.9958,177.9533],[27.15,54.9986,190.8953],[27.1548,54.9959,186.6831],[27.155,54.9877,188.6815],[27.1598,54.9849,175.8762],[27.1693,54.9877,178.076],[27.169,55.0013,169.3099],[27.1785,55.0014,168.2868],[27.1834,54.9959,173.6861],[27.2119,54.9987,195.7618],[27.2167,54.9932,189.4935],[27.2264,54.9878,196.8896],[27.2359,54.9878,162.7438],[27.2739,54.9933,171.4467],[27.2788,54.9851,167.4782],[27.2882,54.9905,169.4597],[27.3026,54.9878,176.7999],[27.3073,54.9906,179.4567],[27.3168,54.9906,174.5882],[27.3122,54.9824,169.9715],[27.3171,54.9769,180.2481],[27.3218,54.9769,181.1795],[27.355,54.9879,199.7626],[27.3692,54.9961,179.3495],[27.3835,54.9961,196.8055],[27.3883,54.9906,193.4785],[27.3931,54.9879,201.3062],[27.4074,54.9879,212.1911],[27.4266,54.9852,193.7467],[27.441,54.977,179.422],[27.46,54.9797,180.5284],[27.4742,54.9852,181.2089],[27.4933,54.9879,180.4444],[27.498,54.9906,180.4187],[27.498,54.9934,179.8895],[27.4787,55.0098,190.5955],[27.4594,55.0234,195.9809],[27.4593,55.0261,194.4303],[27.4735,55.0343,192.8164],[27.4782,55.0398,185.1257],[27.4733,55.0507,177.4462],[27.4779,55.0562,178.4988],[27.4827,55.0589,177.2118],[27.4825,55.0671,198.956],[27.4729,55.0698,199.6592],[27.4633,55.0753,183.878],[27.4632,55.0808,190.6279],[27.4583,55.0862,179.8986],[27.425,55.0807,161.6785],[27.4153,55.0862,160.1414],[27.4152,55.0944,161.8768],[27.4056,55.0944,163.2036],[27.4008,55.0971,171.9155],[27.4007,55.0998,176.8986],[27.4054,55.1053,184.4794],[27.4102,55.1053,171.9677],[27.4147,55.1162,186.075],[27.4243,55.1162,177.5868],[27.4386,55.119,174.2254],[27.4386,55.1162,171.7205],[27.4482,55.1162,166.6252],[27.4529,55.119,166.0959],[27.4528,55.1272,159.0799],[27.4479,55.1299,166.3731],[27.4479,55.1326,164.0248],[27.4525,55.1381,171.1084],[27.4525,55.1408,163.0469],[27.4477,55.1408,158.0122],[27.4332,55.149,175.2812],[27.4473,55.1572,161.1351],[27.4473,55.1599,159.015],[27.4376,55.1654,160.2419],[27.4232,55.1681,158.3001],[27.423,55.1735,164.951],[27.4325,55.179,159.3704],[27.4371,55.1872,154.1029],[27.4322,55.1899,155.373],[27.4131,55.1872,153.0931],[27.4083,55.1899,153.7692],[27.4081,55.1953,150.6072],[27.4129,55.1981,148.0],[27.4175,55.2036,148.0],[27.3934,55.209,156.3002],[27.3692,55.2198,149.2824],[27.3786,55.2253,152.4557],[27.4167,55.2336,137.4271],[27.4262,55.239,156.8974],[27.4308,55.2445,145.407],[27.4259,55.25,142.4796],[27.4353,55.2554,139.5786],[27.4352,55.2582,144.1025],[27.4304,55.2609,147.5178],[27.4208,55.2609,153.1523],[27.4113,55.2554,146.6914],[27.4017,55.2554,154.4488],[27.3873,55.2581,154.4869],[27.3824,55.2608,148.2373],[27.3822,55.269,145.8542],[27.3726,55.2689,149.7152],[27.3677,55.2717,148.2532],[27.3439,55.2689,143.5716],[27.3438,55.2716,132.0],[27.3626,55.2826,132.3429],[27.3625,55.2853,131.9333],[27.3528,55.2907,131.0038],[27.3432,55.2907,130.7964],[27.3337,55.288,133.7816],[27.3103,55.2716,141.6999],[27.3008,55.2716,131.5128],[27.2958,55.277,130.0715],[27.3005,55.2825,123.5944],[27.3098,55.2879,129.0661],[27.3098,55.2907,126.2886],[27.3048,55.2961,126.055],[27.2952,55.2988,126.4865],[27.2761,55.2988,126.2428],[27.2712,55.3015,125.4473],[27.2759,55.3043,122.5595],[27.271,55.307,121.2522],[27.2139,55.3069,136.5016],[27.1997,55.3041,130.2256],[27.1901,55.3068,129.8592],[27.1522,55.3013,130.6635],[27.1334,55.2958,133.3161],[27.1144,55.2958,130.1254],[27.1004,55.2903,131.7695],[27.072,55.2902,129.6006],[27.0438,55.2847,130.2195],[27.0204,55.2764,130.0553],[26.9827,55.2763,131.6195],[26.9686,55.2735,131.9617],[26.9592,55.2762,131.8474],[26.9451,55.2761,132.3816],[26.931,55.2788,132.1277],[26.8889,55.2813,127.0542],[26.8564,55.2811,129.8024],[26.8331,55.2756,124.9579],[26.8139,55.2731,126.3347],[26.8093,55.2677,135.5411],[26.7996,55.2678,130.5108],[26.7997,55.2651,145.4292],[26.7948,55.2651,146.1173],[26.795,55.2597,149.0181],[26.7756,55.2599,142.4957],[26.7661,55.2545,152.7278],[26.7613,55.2545,146.1518],[26.7563,55.2573,133.2054],[26.7565,55.2519,136.8513],[26.7517,55.2519,144.4299],[26.7518,55.2492,150.1584],[26.7469,55.2492,146.4068],[26.7422,55.2466,140.8666],[26.7375,55.2411,154.7693],[26.7434,55.2165,153.8938],[26.7289,55.2139,149.3719],[26.7195,55.2086,155.3304],[26.7196,55.2058,156.0259],[26.7148,55.2031,154.055],[26.7049,55.2087,159.784],[26.6954,55.2034,135.5313],[26.6858,55.2007,133.2533],[26.6908,55.1979,133.3963],[26.6912,55.1896,134.8162],[26.6963,55.1841,135.464],[26.711,55.1784,137.4221],[26.7109,55.1812,147.2216],[26.715699999999998,55.1784,148.1156],[26.7207,55.1728,156.6828],[26.7017,55.1702,135.9481],[26.692,55.173,134.856],[26.6923,55.1647,137.0443],[26.683,55.1593,136.1684],[26.6782,55.1593,135.0558],[26.6684,55.1648,135.7913],[26.659,55.162,136.5854],[26.6358,55.1506,146.4716],[26.6264,55.1504,150.784],[26.6075,55.1553,150.5865],[26.6028,55.1552,147.9209],[26.5887,55.1522,152.4218],[26.5793,55.152,151.1714],[26.5794,55.1493,150.9969],[26.5747,55.1491,148.1009],[26.5701,55.1463,155.6114],[26.556,55.146,153.1985],[26.5319,55.1616,159.5412],[26.5134,55.153,171.656],[26.5087,55.1529,177.3281],[26.5039,55.1554,176.756],[26.4947,55.1498,181.2389],[26.4951,55.1391,185.416],[26.4765,55.1305,184.4988],[26.4764,55.1332,188.3324],[26.4732,55.1367,189.7836],[26.467,55.133,183.093],[26.4623,55.1355,182.0255],[26.4576,55.1354,184.5081],[26.448,55.1405,189.3556],[26.4386,55.1402,179.2666],[26.4387,55.1376,179.8563],[26.434,55.1374,181.8878],[26.4339,55.1401,185.6666],[26.4292,55.14,184.8609],[26.4153,55.1342,182.0443],[26.4106,55.1341,187.3682],[26.4104,55.1421,202.0581],[26.4057,55.142,190.4921],[26.3865,55.1495,181.0813],[26.3723,55.1491,194.9487],[26.3632,55.1435,186.1983],[26.3585,55.1433,186.1693],[26.3584,55.1461,189.4208],[26.3491,55.1431,190.7232],[26.3489,55.1458,200.3757],[26.3444,55.143,194.656],[26.3447,55.1376,199.0638],[26.3496,55.135,214.5816],[26.3213,55.1342,216.6112],[26.3215,55.1315,212.6795],[26.3311,55.1291,228.5743],[26.3219,55.1234,220.1285],[26.2797,55.1196,229.2724],[26.2705,55.1139,228.5308],[26.2652,55.1137,231.0998],[26.2506,55.1052,231.9918],[26.2518,55.0998,244.5045],[26.2569,55.0973,243.5497],[26.2616,55.0975,224.668],[26.2615,55.0949,226.2922],[26.2662,55.095,221.7976],[26.2661,55.0924,226.7897],[26.28,55.0849,223.0096],[26.2893,55.0773,217.1712],[26.2798,55.0716,228.8486],[26.2845,55.0691,226.1193],[26.2797,55.0663,228.3201],[26.2654,55.0686,219.3509],[26.251,55.0601,214.8861],[26.2558,55.0576,224.5298],[26.2605,55.0578,204.7998],[26.2605,55.0498,203.0798],[26.2557,55.0497,201.7807],[26.2557,55.039,197.5791],[26.2509,55.0336,190.7891],[26.2461,55.0308,203.0236],[26.2462,55.0281,197.1969],[26.2414,55.0253,194.5263],[26.2414,55.0226,187.095],[26.2318,55.017,188.033],[26.2319,55.0144,187.7056],[26.2271,55.0116,181.8658],[26.2223,55.0114,174.9545],[26.2225,54.9981,175.0098],[26.2466,54.9934,178.9102],[26.2611,54.9883,168.4966],[26.266,54.9831,175.4594],[26.2663,54.9723,180.7262],[26.2713,54.9644,182.48],[26.2765,54.9484,152.9473],[26.2862,54.9405,149.785]]]]}
,"properties": {"GID_2": "BLR.6.12_1","GID_0": "BLR","country": "Belarus","GID_1": "BLR.6_1","province": "Vitebsk","NL_NAME_1": "Вiцебская","county": "Pastavy","VARNAME_2": "Postavu","NL_NAME_2": "Пастаўскіраён","TYPE_2": "Raion","ENGTYPE_2": "District","CC_2": "NA","HASC_2": "BY.VI.PV","name": "Pastavy.county","area_km2": 2087.657,"hist_schema_id": "Elevation0-9000","hist_area_km2": {"125": 296.251,"150": 687.58,"175": 573.586,"200": 400.528,"225": 127.26,"250": 2.451}}}