{"type":"Feature","properties":{"GID_2":"BLR.3.11_1","GID_0":"BLR","country":"Belarus","GID_1":"BLR.3_1","province":"Grodno","NL_NAME_1":"Гродзенская","county":"Svislach","VARNAME_2":"Svisloch","NL_NAME_2":"Свіслацкіраён","TYPE_2":"Raion","ENGTYPE_2":"District","CC_2":"NA","HASC_2":"BY.HR.SS","name":"Svislach.county"},
"geometry":{"type": "MultiPolygon","coordinates": [[[[24.6273,52.9461,180.2713],[24.6181,52.9457,187.9143],[24.6082,52.9534,199.1956],[24.5809,52.9498,201.6669],[24.5519,52.9647,213.0142],[24.556,52.9702,184.5362],[24.5647,52.9759,179.2787],[24.5634,52.9893,180.1584],[24.5537,52.9943,193.8259],[24.5443,52.9966,205.9852],[24.5264,52.9905,199.0317],[24.522,52.9877,206.067],[24.5125,52.99,207.336],[24.5074,52.9952,199.5904],[24.4929,53.0026,197.7149],[24.4921,53.0106,184.383],[24.487,53.0158,166.4574],[24.4676,53.0257,161.7118],[24.4625,53.0309,173.2212],[24.4618,53.0389,190.2077],[24.4751,53.0448,205.0959],[24.4792,53.0503,198.8287],[24.4787,53.0557,192.7074],[24.4637,53.0685,194.3629],[24.4542,53.0708,214.6658],[24.4266,53.0697,187.6425],[24.4176,53.0667,152.5056],[24.4179,53.064,157.7218],[24.4087,53.0636,143.7501],[24.4036,53.0688,161.0525],[24.4034,53.0714,164.4052],[24.3987,53.0712,191.3462],[24.39,53.0655,191.763],[24.381,53.0624,158.9378],[24.3398,53.058,191.5721],[24.335,53.0604,197.5061],[24.3304,53.0602,189.3651],[24.3288,53.0789,201.5485],[24.3327,53.0872,194.8353],[24.3322,53.0925,198.8944],[24.3274,53.095,211.785],[24.3097,53.0861,190.882],[24.3051,53.0859,182.9339],[24.2628,53.0946,158.8632],[24.2365,53.0772,169.7375],[24.2235,53.0658,167.5559],[24.2189,53.0656,170.2168],[24.1567,53.0893,165.9643],[24.1514,53.0971,172.8387],[24.1512,53.0998,168.9868],[24.1553,53.1054,171.3964],[24.1551,53.1081,171.7503],[24.1452,53.1157,202.7342],[24.1314,53.115,183.2761],[24.1223,53.1118,172.6552],[24.1094,53.1004,170.8591],[24.0816,53.099,187.4682],[24.0543,53.0922,167.8267],[24.04,53.097,153.7507],[24.0308,53.0965,147.202],[24.031,53.0938,147.2885],[24.0411,53.0834,150.1001],[24.0552,53.0814,161.1115],[24.06,53.0789,178.2022],[24.0605,53.0735,154.5546],[24.0563,53.0679,153.6384],[24.0472,53.0647,148.2965],[24.0329,53.0694,148.6763],[24.0237,53.069,151.7515],[24.0193,53.0661,152.2098],[24.0243,53.0609,154.6003],[24.0245,53.0581,160.8921],[24.0338,53.0586,151.3979],[24.0342,53.0532,151.5337],[24.0069,53.0464,173.8305],[23.9929,53.0485,187.2948],[23.9885,53.0456,183.4337],[23.9701,53.045,173.7704],[23.956,53.0502,148.5248],[23.9382,53.0446,140.7429],[23.9339,53.0419,139.531],[23.9162,53.0402,142.7713],[23.9161,53.0375,146.6157],[23.9118,53.0361,151.5327],[23.9106,53.0337,147.4941],[23.9076,53.0337,156.9266],[23.908,53.0281,142.3391],[23.9126,53.0253,144.4752],[23.9171,53.0253,151.2139],[23.9173,53.0225,155.4657],[23.9219,53.0197,165.153],[23.9225,53.0113,185.8055],[23.928,52.9945,165.0275],[23.9288,52.9834,180.468],[23.9246,52.9778,167.0827],[23.925,52.9722,169.0452],[23.9394,52.9583,170.2364],[23.9396,52.9543,167.3447],[23.9096,52.9333,151.4632],[23.9118,52.8997,162.9352],[23.9164,52.8969,158.6979],[23.9166,52.8941,162.3834],[23.921,52.8941,164.8224],[23.9174,52.8802,168.0991],[23.918,52.8718,163.7626],[23.9151,52.8467,172.2668],[23.9166,52.8243,157.4235],[23.931,52.8076,176.3231],[23.9287,52.7713,169.5858],[23.9574,52.7748,178.2438],[24.0194,52.7757,168.8217],[24.0239,52.7788,164.2104],[24.0237,52.7815,167.4339],[24.0187,52.7837,183.6521],[24.0232,52.7868,169.9152],[24.0939,52.7871,183.7418],[24.0983,52.7901,179.4943],[24.0976,52.7981,177.9284],[24.1114,52.8017,166.3715],[24.1107,52.8097,166.1543],[24.1151,52.8127,170.3795],[24.1148,52.8153,176.9896],[24.1242,52.816,179.3037],[24.1386,52.8115,167.9842],[24.1433,52.8118,174.7106],[24.1533,52.8044,176.3645],[24.1629,52.8023,176.1367],[24.1644,52.7863,160.0364],[24.1558,52.7777,156.2751],[24.1607,52.7754,169.3449],[24.1612,52.77,165.5148],[24.1809,52.7605,158.8485],[24.1998,52.7589,157.9342],[24.1995,52.7615,157.8957],[24.2037,52.7671,158.0107],[24.2362,52.7689,159.7019],[24.2458,52.7667,159.7168],[24.2419,52.7585,159.4141],[24.2424,52.7532,160.784],[24.2517,52.7537,165.5327],[24.2561,52.7566,160.9013],[24.2553,52.7646,159.2709],[24.2592,52.7728,160.3318],[24.259,52.7754,160.4158],[24.2633,52.7783,159.9242],[24.2866,52.7795,168.6958],[24.2871,52.7742,169.8681],[24.2829,52.7686,170.43],[24.2832,52.766,177.7571],[24.2927,52.7638,160.0002],[24.3018,52.7669,161.8725],[24.3713,52.7702,161.7028],[24.3939,52.7765,160.2886],[24.407,52.7851,178.129],[24.4208,52.7857,161.0243],[24.4452,52.7734,160.6171],[24.4506,52.7656,160.1108],[24.4741,52.7612,159.4751],[24.4933,52.754,159.4162],[24.5117,52.7547,158.9604],[24.5249,52.7605,174.8273],[24.5341,52.7609,165.7911],[24.5343,52.7582,174.6773],[24.5527,52.7589,179.4601],[24.557,52.7617,172.0334],[24.5568,52.7644,173.3209],[24.5522,52.7642,174.6231],[24.5517,52.7695,167.6242],[24.5654,52.77,169.3803],[24.5751,52.765,166.6178],[24.5797,52.7652,174.5268],[24.5975,52.7712,163.3509],[24.5967,52.7792,170.2016],[24.5998,52.7953,172.7558],[24.5902,52.8003,183.016],[24.5856,52.8001,183.6196],[24.5805,52.8053,182.4595],[24.5803,52.808,179.6649],[24.5935,52.8138,191.0006],[24.5928,52.8218,181.4647],[24.5971,52.8246,193.0232],[24.6005,52.8381,179.9445],[24.6048,52.8409,176.1913],[24.6139,52.8412,185.1522],[24.6226,52.8469,172.5137],[24.6168,52.8601,169.6235],[24.6115,52.8679,170.7723],[24.597,52.8754,174.1183],[24.5876,52.8777,173.8609],[24.5871,52.8831,177.7144],[24.6045,52.8944,176.791],[24.6085,52.8999,175.9988],[24.6213,52.9111,197.1964],[24.6305,52.9114,199.9737],[24.6445,52.9092,201.7554],[24.6621,52.9178,182.9358],[24.6666,52.918,197.9466],[24.6661,52.9233,201.2183],[24.6334,52.9302,184.2395],[24.6285,52.9327,184.0641],[24.6273,52.9461,180.2713]]]]}}