{"type":"Feature","properties":{"GID_2":"BLR.3.10_1","GID_0":"BLR","country":"Belarus","GID_1":"BLR.3_1","province":"Grodno","NL_NAME_1":"Гродзенская","county":"Navahradak","VARNAME_2":"Novogrudok","NL_NAME_2":"Навагрудскіраён","TYPE_2":"Raion","ENGTYPE_2":"District","CC_2":"NA","HASC_2":"BY.HR.NO","name":"Navahradak.county"},
"geometry":{"type": "MultiPolygon","coordinates": [[[[25.9372,53.3917,256.8679],[25.9411,53.4027,243.2641],[25.9408,53.4081,250.1038],[25.9311,53.416,250.8431],[25.9307,53.4214,253.2718],[25.9346,53.4323,264.1376],[25.9343,53.4377,261.1992],[25.9293,53.4431,266.1974],[25.9055,53.4561,227.4993],[25.9138,53.4698,248.2493],[25.9116,53.5023,250.9872],[25.8978,53.502,246.3383],[25.893,53.5046,254.4461],[25.8927,53.51,267.2975],[25.8821,53.5288,291.7797],[25.8864,53.5343,278.2845],[25.8952,53.5399,271.4617],[25.8994,53.5455,276.5279],[25.8988,53.5536,283.9302],[25.903199999999998,53.5565,286.6106],[25.9124,53.5567,279.8657],[25.9172,53.5541,277.7361],[25.9224,53.5461,255.2639],[25.9318,53.5436,227.3094],[25.9414,53.5384,245.6972],[25.9417,53.5329,254.6472],[25.9375,53.5274,265.9897],[25.9329,53.5273,258.1247],[25.9425,53.5221,248.8034],[25.9471,53.5222,246.3159],[25.9734,53.5419,236.071],[25.9955,53.5561,217.7241],[25.9998,53.5616,213.4619],[25.9856,53.5667,213.2138],[25.9807,53.572,203.3566],[25.9937,53.586,217.7719],[26.0109,53.6084,229.2988],[26.0105,53.6166,202.6026],[26.0051,53.6301,198.9238],[26.0096,53.633,195.0175],[26.0423,53.6312,201.6077],[26.0471,53.6286,203.1248],[26.0521,53.6205,205.0112],[26.0844,53.6269,204.3581],[26.094,53.6217,203.9096],[26.1036,53.6137,199.1212],[26.1083,53.6138,200.3514],[26.1175,53.6168,202.3613],[26.1219,53.6225,204.4285],[26.1075,53.633,202.3814],[26.1121,53.6332,205.4298],[26.1169,53.6306,200.8138],[26.1261,53.6336,202.226],[26.1309,53.6309,199.6008],[26.1496,53.6315,185.0315],[26.1637,53.6291,178.2283],[26.1826,53.6241,158.6857],[26.1922,53.618899999999996,141.7933],[26.206,53.6247,135.0583],[26.2058,53.633,134.3725],[26.2103,53.6358,134.4659],[26.2199,53.6306,134.3501],[26.2339,53.6309,134.8866],[26.2888,53.6537,146.825],[26.3071,53.6594,157.1255],[26.3302,53.6624,166.28],[26.3622,53.6708,156.3141],[26.3618,53.6817,157.0604],[26.3662,53.6845,144.8427],[26.366,53.6899,148.6804],[26.3702,53.7009,143.461],[26.3655,53.7036,140.6929],[26.3098,53.7086,139.5248],[26.305,53.7113,156.3568],[26.2998,53.7249,155.0509],[26.2806,53.7438,154.7473],[26.2611,53.7681,152.9566],[26.2655,53.7737,143.088],[26.27,53.7765,141.7729],[26.2699,53.7792,150.9185],[26.2603,53.7873,138.6205],[26.26,53.7955,135.4248],[26.278199999999998,53.8011,145.7016],[26.2733,53.8066,148.0664],[26.2592,53.8146,152.5761],[26.2499,53.8145,148.3464],[26.2317,53.8087,152.4948],[26.2269,53.8114,138.5082],[26.2223,53.8113,137.462],[26.2221,53.8168,136.9711],[26.2311,53.8224,153.8939],[26.231,53.8251,150.3894],[26.2263,53.8278,150.4591],[26.2123,53.8303,147.0292],[26.1659,53.8296,138.3242],[26.1381,53.8263,146.3916],[26.1197,53.8177,149.5988],[26.1103,53.8175,149.8108],[26.1057,53.8146,151.9188],[26.1058,53.8119,140.6379],[26.1012,53.809,147.649],[26.0684,53.8082,149.578],[26.0544,53.8051,131.1022],[26.045,53.8048,142.4622],[26.0306,53.8127,139.2275],[26.0071,53.812,136.5905],[25.9975,53.8172,137.1959],[25.988,53.8169,139.5112],[25.9788,53.8111,138.1098],[25.979,53.8056,129.9962],[25.9743,53.8026,130.841],[25.9696,53.8025,129.5943],[25.9695,53.8052,130.1727],[25.96,53.8077,150.0585],[25.9553,53.8048,150.9246],[25.9505,53.8074,146.3548],[25.9504,53.8102,136.2464],[25.9457,53.81,147.4326],[25.9456,53.8128,129.3603],[25.9268,53.8094,148.3159],[25.9124,53.8144,128.9602],[25.903,53.8141,133.1515],[25.9029,53.8168,131.731],[25.8979,53.8222,129.0296],[25.8976,53.8305,128.6345],[25.8928,53.8331,129.0165],[25.8833,53.8327,134.1141],[25.8834,53.83,138.5114],[25.8787,53.8298,139.3714],[25.8738,53.8324,132.8621],[25.8737,53.8351,132.0358],[25.8593,53.8401,146.1275],[25.8449,53.8423,144.1114],[25.8259,53.8416,150.0313],[25.8069,53.8437,133.0203],[25.7826,53.8566,142.4776],[25.7686,53.8533,139.62],[25.764,53.8504,147.7253],[25.7596,53.8448,152.6904],[25.7549,53.8446,152.6234],[25.75,53.8472,147.5104],[25.7494,53.8582,144.6038],[25.7444,53.8635,129.6801],[25.7397,53.8633,127.6442],[25.7398,53.8606,129.2023],[25.7353,53.8577,141.3731],[25.7356,53.8522,140.0544],[25.7265,53.8464,142.6744],[25.7223,53.838,158.5188],[25.7225,53.8353,144.3173],[25.7179,53.8324,154.2876],[25.7133,53.8322,157.0348],[25.7084,53.8348,141.6199],[25.7039,53.8319,156.4975],[25.7044,53.8237,157.1519],[25.7001,53.8181,156.4604],[25.7003,53.8153,152.4788],[25.6913,53.8096,131.7521],[25.6864,53.8122,132.4974],[25.6863,53.8149,132.8452],[25.6814,53.8175,133.4293],[25.6673,53.8198,132.7969],[25.6671,53.8225,142.5045],[25.6851,53.834,146.0173],[25.6849,53.8368,144.9415],[25.6801,53.8393,145.7742],[25.6754,53.8392,138.4894],[25.6619,53.8305,141.8264],[25.6527,53.8302,135.6421],[25.6521,53.8384,126.4836],[25.6613,53.8415,133.7827],[25.6747,53.8501,130.8897],[25.6699,53.8527,126.6525],[25.6559,53.8522,128.4223],[25.6379,53.8434,128.0645],[25.6286,53.8431,136.228],[25.6241,53.8402,134.7885],[25.6338,53.8351,134.2552],[25.6384,53.8352,134.5815],[25.6386,53.8325,130.0071],[25.6341,53.8296,126.7426],[25.6248,53.8293,124.056],[25.6158,53.8263,125.2313],[25.6115,53.8207,133.4275],[25.5836,53.8225,128.6404],[25.5749,53.8141,131.9477],[25.5752,53.8086,135.3399],[25.5708,53.8058,134.8178],[25.5758,53.8005,133.087],[25.5625,53.7919,136.2274],[25.5444,53.7859,125.9666],[25.5358,53.7774,127.4598],[25.536,53.7747,140.4934],[25.5314,53.7746,139.6862],[25.527,53.7717,127.2348],[25.5085,53.7711,123.5197],[25.5041,53.7683,123.7567],[25.5089,53.7657,123.2809],[25.4953,53.7626,138.7831],[25.4825,53.7486,137.3607],[25.4781,53.7457,124.4017],[25.4641,53.748,132.9314],[25.4551,53.745,126.2402],[25.4555,53.7396,136.0244],[25.4603,53.737,120.1241],[25.4787,53.7376,126.2924],[25.4831,53.7404,129.5213],[25.4877,53.7406,132.2002],[25.4837,53.7323,129.3485],[25.4885,53.7297,124.2294],[25.5068,53.733,126.7046],[25.5116,53.7304,128.6455],[25.5074,53.7249,128.6543],[25.5078,53.7194,132.0333],[25.5172,53.717,131.3121],[25.5174,53.7143,140.3577],[25.504,53.7085,144.3076],[25.4992,53.711,133.9803],[25.4948,53.7082,132.8373],[25.495,53.7055,126.5885],[25.4998,53.7029,137.4386],[25.5,53.7002,133.2711],[25.4724,53.6994,131.4068],[25.4728,53.694,123.3029],[25.4822,53.6915,122.9109],[25.4914,53.6918,123.8285],[25.4963,53.6892,124.539],[25.4965,53.6865,125.3443],[25.4921,53.6837,137.9837],[25.4829,53.6834,133.4588],[25.4781,53.686,128.846],[25.4643,53.6856,135.5092],[25.4601,53.68,125.7545],[25.4463,53.6796,133.1402],[25.4419,53.6768,131.8502],[25.4422,53.6741,129.6359],[25.4207,53.6545,130.5965],[25.4161,53.6543,136.8367],[25.4176,53.6354,144.4483],[25.4091,53.627,140.0927],[25.41,53.6162,130.1864],[25.4244,53.6085,149.8991],[25.4611,53.6096,142.7135],[25.4659,53.607,148.3885],[25.4661,53.6043,154.1767],[25.4626,53.5907,148.0516],[25.4674,53.5881,144.0089],[25.5092,53.5839,164.3462],[25.5227,53.587,158.8872],[25.5269,53.5925,161.0542],[25.5264,53.5979,165.3604],[25.5308,53.6007,170.6342],[25.5302,53.6089,151.6008],[25.5343,53.6144,155.5492],[25.5527,53.6149,182.4637],[25.554,53.5987,166.6266],[25.5592,53.5907,162.3703],[25.564,53.5881,165.3463],[25.5874,53.5834,177.3138],[25.6334,53.5846,200.4074],[25.6424,53.5876,184.0519],[25.652,53.5824,177.4946],[25.6573,53.5744,217.3032],[25.6439,53.5687,188.39],[25.6397,53.5631,200.314],[25.6405,53.5523,204.2388],[25.6362,53.5495,190.239],[25.6182,53.5436,177.0277],[25.6184,53.5409,175.9209],[25.614,53.5381,178.5262],[25.6236,53.5329,170.9868],[25.633,53.5304,180.0666],[25.6608,53.5285,228.6882],[25.6704,53.5233,238.4397],[25.6798,53.5209,240.6979],[25.6936,53.5212,244.8148],[25.698,53.524,263.7052],[25.7072,53.5243,264.2184],[25.7215,53.5192,237.5917],[25.7219,53.5138,224.1995],[25.7267,53.5112,247.442],[25.7589,53.5121,254.4574],[25.7591,53.5094,233.8885],[25.7683,53.5096,255.4781],[25.7773,53.5126,263.8951],[25.7821,53.51,247.5466],[25.7823,53.5073,249.0115],[25.7736,53.4989,244.7185],[25.774,53.4935,249.9399],[25.7742,53.4908,254.6709],[25.7834,53.491,282.7862],[25.7836,53.4883,268.6278],[25.775,53.48,238.0055],[25.7614,53.4769,222.8309],[25.7625,53.4607,238.8488],[25.7491,53.4549,198.5677],[25.7354,53.4546,207.0461],[25.7264,53.4516,181.1559],[25.7266,53.4489,183.3271],[25.7315,53.4436,183.029],[25.7317,53.4409,181.7532],[25.7275,53.4354,222.1783],[25.7143,53.427,197.0276],[25.7053,53.424,191.2822],[25.7055,53.4213,207.1721],[25.7013,53.4158,230.0175],[25.7025,53.3996,220.7532],[25.7117,53.3998,216.9509],[25.7204,53.4055,241.2251],[25.7388,53.4059,229.7469],[25.7482,53.4034,212.9956],[25.7487,53.3953,220.8411],[25.7583,53.3901,219.03],[25.7812,53.3907,208.5122],[25.7859,53.3881,214.6802],[25.7863,53.3827,205.2941],[25.8001,53.383,225.4772],[25.7995,53.3912,234.9137],[25.8221,53.3971,214.293],[25.8358,53.3975,209.4281],[25.836,53.3948,213.1343],[25.8457,53.3869,217.9877],[25.8547,53.3898,226.7393],[25.8856,53.4095,221.8421],[25.8946,53.4124,244.5702],[25.9039,53.4099,234.5596],[25.9134,53.4047,246.9162],[25.9138,53.3993,251.3543],[25.9185,53.3967,273.5479],[25.9372,53.3917,256.8679]]]]}}