{"type": "Feature","bbox": [24.7086,53.8115,25.6042,54.3148],"geometry": {"type": "MultiPolygon","coordinates": [[[[25.5551,54.1554,208.1908],[25.5414,54.1575,195.1572],[25.5417,54.1602,192.1719],[25.537,54.16,193.519],[25.538,54.1681,185.0948],[25.5329,54.1652,187.9101],[25.5286,54.1677,186.2509],[25.5289,54.1705,180.2268],[25.524,54.1761,180.0886],[25.5194,54.176,177.2747],[25.5239,54.179,183.2141],[25.5238,54.1818,178.877],[25.5283,54.1877,186.2219],[25.5427,54.191,193.7235],[25.5524,54.1915,205.4092],[25.5666,54.198,203.5238],[25.5665,54.2008,183.3708],[25.5761,54.2013,211.9527],[25.5758,54.2211,198.8075],[25.5661,54.2206,178.0858],[25.561,54.2232,177.5273],[25.5606,54.2317,197.7298],[25.5657,54.2291,186.3396],[25.5752,54.2381,211.8942],[25.59,54.2304,182.2575],[25.6042,54.2311,178.5581],[25.6042,54.2368,181.8902],[25.5846,54.2499,193.5552],[25.5794,54.2554,231.7718],[25.5844,54.2556,216.9937],[25.584,54.2641,230.036],[25.5792,54.261,228.7934],[25.5789,54.2667,235.7626],[25.5739,54.2665,241.9919],[25.5738,54.2693,243.0728],[25.5688,54.2691,240.8394],[25.5637,54.2717,239.4105],[25.5737,54.2721,237.757],[25.5785,54.2752,242.6871],[25.5783,54.2809,240.4613],[25.5684,54.2776,231.6906],[25.5484,54.2853,198.1062],[25.5342,54.2878,215.5132],[25.5341,54.2907,213.6136],[25.5294,54.2964,190.1949],[25.5291,54.305,213.1681],[25.5243,54.3075,208.5478],[25.5289,54.3105,212.0286],[25.5288,54.3132,214.133],[25.5099,54.3148,198.983],[25.5103,54.3068,189.1327],[25.4961,54.3087,205.539],[25.4915,54.3058,187.2305],[25.4918,54.3004,185.0123],[25.4825,54.2973,191.6939],[25.4827,54.2946,206.0787],[25.478,54.2944,201.8415],[25.4778,54.2971,184.7421],[25.4685,54.2967,183.2691],[25.4682,54.302,182.6277],[25.4588,54.3016,186.6038],[25.4543,54.2987,187.4825],[25.4494,54.3012,199.1321],[25.4448,54.301,193.8628],[25.4311,54.2924,183.163],[25.4217,54.2921,181.5559],[25.422,54.2867,180.5675],[25.4083,54.2781,176.8187],[25.394,54.283,168.9642],[25.3896,54.2775,194.0847],[25.3757,54.2743,177.1899],[25.3666,54.2686,166.1588],[25.3525,54.2682,165.1228],[25.3477,54.2708,171.7011],[25.3479,54.2681,162.7858],[25.3432,54.2679,156.2823],[25.3386,54.2651,163.7531],[25.3059,54.2642,167.0231],[25.3011,54.2667,168.3431],[25.301,54.2694,174.816],[25.2964,54.2693,168.1014],[25.2962,54.272,167.9894],[25.2916,54.2719,165.782],[25.2914,54.2745,174.413],[25.2869,54.2717,162.2915],[25.2866,54.2771,184.5532],[25.282,54.2769,168.9086],[25.2821,54.2743,158.5721],[25.2686,54.2632,174.9032],[25.2643,54.255,175.1177],[25.2547,54.2601,193.6964],[25.2498,54.2653,171.8761],[25.2451,54.2651,175.9585],[25.2266,54.2592,161.6312],[25.2273,54.2459,163.2697],[25.2227,54.2431,161.8818],[25.2181,54.243,157.991],[25.2183,54.2376,158.7592],[25.2139,54.2321,161.7579],[25.2142,54.224,162.4663],[25.2096,54.2211,162.4165],[25.2097,54.2184,168.2663],[25.1961,54.2098,159.3586],[25.1913,54.2125,157.8301],[25.1868,54.2097,158.2335],[25.1869,54.2069,160.0657],[25.173,54.2039,158.3904],[25.1734,54.1955,160.7442],[25.1597,54.1896,164.0272],[25.155,54.1896,165.0216],[25.1551,54.1867,169.6519],[25.1505,54.1867,167.1774],[25.1234,54.1692,176.0586],[25.1147,54.1576,174.6716],[25.0968,54.1458,159.6654],[25.0875,54.1457,157.751],[25.0878,54.14,159.5446],[25.0788,54.1341,153.6477],[25.0645,54.1396,152.5251],[25.0274,54.1388,148.0966],[25.0177,54.1443,151.4126],[25.0036,54.1468,145.0863],[24.9938,54.1522,146.3169],[24.9933,54.1579,146.5313],[24.9884,54.1606,146.7349],[24.9928,54.1636,149.947],[24.9785,54.1741,147.8697],[24.9736,54.1714,141.5397],[24.9708,54.1736,141.1885],[24.9635,54.1729,141.0543],[24.9514,54.1671,143.4639],[24.9486,54.1692,141.1877],[24.9401,54.1637,146.1716],[24.9393,54.1612,150.9954],[24.9174,54.1568,152.6763],[24.9053,54.1509,157.1034],[24.894,54.1475,163.3415],[24.8904,54.1472,157.7479],[24.8912,54.1497,156.5175],[24.8803,54.1488,158.3586],[24.8799,54.1463,166.7486],[24.8756,54.146,164.992],[24.8722,54.1457,160.8234],[24.872,54.1483,161.9326],[24.8633,54.1479,159.0662],[24.8637,54.1453,163.4352],[24.8503,54.1447,177.231],[24.8599,54.1373,166.1764],[24.862,54.1327,164.7225],[24.8283,54.1148,199.9724],[24.8217,54.1144,192.0251],[24.8229,54.1172,201.3358],[24.8194,54.1195,192.2152],[24.8115,54.1138,188.815],[24.8138,54.1113,177.3302],[24.81,54.103,163.168],[24.8181,54.0928,168.6819],[24.8192,54.0875,167.9294],[24.8225,54.0849,174.6645],[24.8221,54.0821,181.4366],[24.8303,54.0769,154.3176],[24.8302,54.0686,146.3146],[24.8347,54.0688,151.3191],[24.8353,54.0437,163.8024],[24.8447,54.0383,169.7191],[24.8493,54.0384,163.8345],[24.8542,54.0329,153.4205],[24.8634,54.0331,154.3711],[24.877,54.0362,162.6368],[24.8818,54.0335,163.9201],[24.8821,54.0279,177.394],[24.8776,54.0249,159.7878],[24.873,54.0248,174.842],[24.8683,54.0275,163.4541],[24.8453,54.027,144.4146],[24.8454,54.0242,143.9832],[24.85,54.0243,144.5445],[24.8502,54.0215,141.9353],[24.8548,54.0216,147.693],[24.8503,54.0187,143.5342],[24.8505,54.0159,142.1806],[24.8506,54.0131,145.9425],[24.8552,54.0132,148.001],[24.8554,54.0104,148.405],[24.8509,54.0074,145.5227],[24.8371,54.0071,135.2991],[24.8373,54.0043,147.524],[24.842,54.0016,153.5891],[24.8374,54.0015,150.5782],[24.8241,53.9928,129.9461],[24.8195,53.9927,129.6418],[24.8053,53.998,147.3265],[24.8008,53.9951,128.9326],[24.801,53.9923,128.9708],[24.7825,53.9918,129.4751],[24.7827,53.989,128.9467],[24.7779,53.9917,128.696],[24.7734,53.9888,128.1495],[24.7692,53.9831,145.6846],[24.7599,53.9829,143.2127],[24.7556,53.9772,145.8015],[24.7467,53.9714,131.4863],[24.7515,53.9687,131.6827],[24.7514,53.9715,135.974],[24.7606,53.9717,146.2758],[24.7656,53.9662,135.9166],[24.7704,53.9635,136.3335],[24.7708,53.9552,141.5157],[24.7577,53.9437,146.4671],[24.7536,53.9353,153.3969],[24.754,53.9269,152.4173],[24.7496,53.924,147.226],[24.7357,53.9265,140.2556],[24.7266,53.9235,148.1081],[24.7174,53.9233,147.555],[24.7086,53.9175,159.3944],[24.7097,53.898,159.1454],[24.715,53.887,153.9396],[24.7197,53.8844,155.5403],[24.7567,53.8798,149.227],[24.775,53.8803,149.0663],[24.7937,53.8725,147.3911],[24.7988,53.8644,152.2971],[24.7989,53.8617,149.2702],[24.7947,53.856,154.237],[24.7721,53.8499,153.4618],[24.7677,53.847,166.322],[24.7679,53.8443,164.9027],[24.7773,53.8391,156.3711],[24.7866,53.8366,154.9841],[24.7961,53.8314,153.0102],[24.8235,53.8322,160.9535],[24.8373,53.8298,154.4359],[24.8376,53.8244,149.46],[24.8469,53.8219,145.3885],[24.8652,53.8224,143.6046],[24.8658,53.8115,151.2396],[24.8703,53.8117,147.6954],[24.8837,53.8175,143.5929],[24.8923,53.826,155.5067],[24.9059,53.8291,161.7456],[24.9236,53.8378,151.4771],[24.9227,53.8542,152.4758],[24.9411,53.852,143.4065],[24.9458,53.8494,141.7117],[24.9502,53.8523,144.8459],[24.9497,53.8605,154.08],[24.9311,53.8682,150.5177],[24.9308,53.8737,147.7387],[24.9352,53.8765,150.8826],[24.9348,53.8847,155.6877],[24.9393,53.8849,151.3527],[24.9487,53.8797,153.9007],[24.9578,53.8799,154.7917],[24.9756,53.8887,155.3172],[24.9802,53.8888,165.9729],[24.985,53.8835,151.4594],[24.9895,53.8836,148.4457],[24.9939,53.8865,144.4062],[25.003,53.8867,143.2519],[25.0033,53.8813,138.4577],[24.9945,53.8755,143.3769],[24.9904,53.8672,145.4989],[25.004,53.8676,147.37],[25.0175,53.8707,147.0751],[25.0353,53.8795,142.1229],[25.0351,53.8822,144.6838],[25.0397,53.8823,141.4916],[25.049,53.8771,134.0669],[25.0536,53.8773,132.6307],[25.058,53.8801,131.955],[25.0577,53.8856,144.7975],[25.053,53.8882,144.5633],[25.0346,53.8931,135.9593],[25.0252,53.8983,139.1781],[25.0248,53.9066,140.5824],[25.0293,53.9094,154.3824],[25.0291,53.9122,170.2597],[25.0569,53.902,136.5804],[25.0574,53.8911,139.2],[25.0709,53.8942,142.7737],[25.0753,53.8971,139.8554],[25.0796,53.9027,141.7664],[25.0835,53.9165,134.3878],[25.0879,53.9194,133.4593],[25.097,53.9196,133.6927],[25.1014,53.9225,135.3487],[25.1057,53.9281,135.3675],[25.1099,53.9365,150.5615],[25.1095,53.9475,134.9783],[25.1366,53.951,142.2659],[25.15,53.9569,149.7974],[25.1452,53.965,148.8623],[25.1495,53.9706,160.6797],[25.1542,53.968,154.5485],[25.1543,53.9652,149.5039],[25.1683,53.9546,173.1402],[25.1774,53.9549,178.062],[25.1999,53.961,157.2503],[25.1997,53.9665,152.2301],[25.195,53.9691,149.5112],[25.1903,53.9745,161.2844],[25.1811,53.977,165.4187],[25.181,53.9825,162.1287],[25.2035,53.9887,156.2272],[25.2032,53.9997,153.4295],[25.2212,54.0057,159.3421],[25.2303,54.006,174.7435],[25.2395,54.0007,172.563],[25.2624,53.993,197.1982],[25.2715,53.9933,194.4853],[25.2761,53.9907,196.6953],[25.2806,53.9908,199.5083],[25.285,53.9937,205.8047],[25.2894,53.9993,188.6551],[25.2893,54.0048,186.2247],[25.3027,54.0135,181.9696],[25.3026,54.019,189.0328],[25.307,54.0274,170.7196],[25.2933,54.0353,191.4166],[25.3023,54.0411,193.4263],[25.3022,54.0466,176.3274],[25.3113,54.0524,172.5534],[25.3158,54.0525,184.5835],[25.3158,54.058,173.769],[25.3203,54.0609,199.0058],[25.3339,54.0613,175.9594],[25.343,54.0588,153.7652],[25.3432,54.0311,145.338],[25.3479,54.0257,144.6317],[25.348,54.0202,144.643],[25.3527,54.0121,144.7203],[25.3573,54.0095,144.6308],[25.362,54.0042,147.5499],[25.3801,54.0047,143.4378],[25.38,54.0102,145.24],[25.3937,54.0106,154.4871],[25.4027,54.0137,161.3002],[25.4026,54.0164,169.2901],[25.4071,54.0193,170.9745],[25.4208,54.0197,166.4546],[25.4298,54.0255,169.7787],[25.4298,54.0283,172.8403],[25.4434,54.0342,178.7955],[25.448,54.0316,180.6582],[25.4617,54.0293,193.0524],[25.4754,54.0325,166.3906],[25.4844,54.0384,175.1939],[25.4844,54.0411,175.9555],[25.4889,54.0495,183.1245],[25.4614,54.0623,184.6772],[25.4613,54.0678,187.538],[25.4659,54.0734,197.946],[25.4613,54.0787,180.9669],[25.4613,54.0815,178.7206],[25.4705,54.0818,178.8904],[25.4797,54.0876,195.2771],[25.4934,54.088,185.6858],[25.498,54.0854,190.0373],[25.5209,54.089,188.2631],[25.5301,54.0948,196.1038],[25.5301,54.0975,193.3517],[25.5119,54.1105,187.9949],[25.512,54.1159,197.432],[25.5213,54.1217,199.7397],[25.5215,54.1271,201.5138],[25.5124,54.1295,196.3234],[25.5126,54.1349,198.8438],[25.5173,54.1378,186.7641],[25.5265,54.1381,196.8261],[25.5401,54.1359,190.4134],[25.5496,54.1417,204.8691],[25.5497,54.1444,199.7403],[25.5456,54.1523,197.1607],[25.5551,54.1554,208.1908]]]]}
,"properties": {"GID_2": "BLR.3.16_1","GID_0": "BLR","country": "Belarus","GID_1": "BLR.3_1","province": "Grodno","NL_NAME_1": "Гродзенская","county": "Voranava","VARNAME_2": "Voronovo","NL_NAME_2": "Воранаўскіраён","TYPE_2": "Raion","ENGTYPE_2": "District","CC_2": "NA","HASC_2": "BY.HR.VR","name": "Voranava.county","area_km2": 1426.697,"hist_schema_id": "Elevation0-9000","hist_area_km2": {"125": 76.877,"150": 620.222,"175": 536.034,"200": 178.779,"225": 14.042,"250": 0.743}}}