{"type": "Feature","bbox": [29.7659,53.6278,30.8272,54.0721],"geometry": {"type": "MultiPolygon","coordinates": [[[[29.814,53.6996,146.985],[29.8183,53.6914,146.1458],[29.8181,53.6859,146.3622],[29.8316,53.6775,145.9117],[29.8312,53.6666,153.5173],[29.8359,53.6666,173.2794],[29.8407,53.672,167.1233],[29.841,53.6802,168.672],[29.8457,53.6828,170.0533],[29.8642,53.6853,178.0039],[29.8784,53.6933,162.3728],[29.883,53.6932,164.8502],[29.8874,53.6877,162.8689],[29.8827,53.685,159.3049],[29.8825,53.6823,158.278],[29.887,53.6795,159.6411],[29.8963,53.6794,165.3947],[29.9243,53.6899,171.222],[29.9479,53.7032,172.4217],[29.9618,53.7057,173.4647],[30.034,53.6692,158.806],[30.0474,53.658,149.894],[30.052,53.658,149.5374],[30.066,53.6632,166.1856],[30.1074,53.6626,180.0648],[30.1172,53.6761,163.4337],[30.1175,53.6842,161.5085],[30.1221,53.6842,162.9771],[30.1538,53.6727,161.5882],[30.1768,53.6724,142.2574],[30.1861,53.6749,162.4702],[30.1951,53.6721,161.7191],[30.1949,53.6666,142.7186],[30.1995,53.6665,161.0506],[30.204,53.6637,165.0777],[30.218,53.6689,162.9235],[30.2229,53.677,151.2174],[30.2416,53.6849,152.4055],[30.2462,53.6848,154.5536],[30.2507,53.682,155.5338],[30.2506,53.6793,153.0598],[30.2457,53.6739,154.4182],[30.2454,53.6657,154.8369],[30.2591,53.6655,155.0169],[30.2686,53.6708,144.7205],[30.2869,53.6705,141.3104],[30.2962,53.673,142.1098],[30.3054,53.6729,140.6041],[30.3098,53.67,141.7619],[30.3141,53.6645,140.5606],[30.314,53.6618,140.1595],[30.3092,53.6564,141.0185],[30.3134,53.6481,140.2456],[30.3087,53.6455,140.2697],[30.2996,53.6484,141.2201],[30.2905,53.6486,139.858],[30.2949,53.6457,141.5582],[30.3036,53.6347,140.7652],[30.3127,53.6345,142.1227],[30.3313,53.6396,140.7841],[30.3407,53.6449,145.8986],[30.3453,53.6448,143.4577],[30.3452,53.6421,160.149],[30.3537,53.6283,144.9697],[30.3811,53.6278,144.6887],[30.427,53.6296,157.0706],[30.4318,53.635,160.5161],[30.4322,53.6431,155.5045],[30.455,53.6427,159.161],[30.4644,53.6479,173.8409],[30.46,53.6507,160.9395],[30.4698,53.6642,151.6786],[30.47,53.6696,152.0801],[30.4749,53.675,157.5737],[30.4795,53.6776,160.6824],[30.4887,53.6774,160.5083],[30.5291,53.6655,188.0334],[30.5336,53.6627,165.7067],[30.5506,53.6378,160.8503],[30.5595,53.6349,165.1778],[30.5686,53.6347,164.1595],[30.569,53.6428,166.3951],[30.5737,53.6454,163.2287],[30.592,53.6477,154.0286],[30.6101,53.6472,161.7746],[30.619,53.6442,165.335],[30.6326,53.6438,162.553],[30.6331,53.6546,164.7519],[30.6379,53.6599,159.4416],[30.6471,53.6624,187.4043],[30.6561,53.6621,184.9395],[30.675,53.6778,163.0859],[30.6751,53.6805,160.2014],[30.6662,53.6835,157.0314],[30.6073,53.6852,168.2768],[30.5844,53.6804,189.129],[30.58,53.6833,173.983],[30.5809,53.7022,163.785],[30.5859,53.7129,164.4104],[30.5634,53.719,166.9755],[30.559,53.7218,167.6498],[30.5593,53.7272,171.2866],[30.5553,53.7409,190.2135],[30.5599,53.7407,193.0161],[30.5605,53.7543,173.4579],[30.5653,53.7596,172.6974],[30.5745,53.7621,186.2261],[30.6063,53.7612,164.3702],[30.6201,53.7635,165.9157],[30.6386,53.7711,175.1302],[30.6434,53.7764,170.7265],[30.6438,53.7846,172.9433],[30.6394,53.7874,176.2732],[30.6357,53.8039,166.1464],[30.6315,53.8121,162.9185],[30.6316,53.8148,162.545],[30.6366,53.8229,161.8513],[30.6413,53.8255,171.5198],[30.6548,53.8224,191.9234],[30.6636,53.8167,184.1388],[30.6682,53.8166,175.94],[30.6776,53.8218,168.5503],[30.6824,53.8271,168.2697],[30.6736,53.8328,161.9678],[30.6376,53.8419,158.6589],[30.6108,53.8535,188.0762],[30.5928,53.8594,167.0603],[30.5931,53.8649,162.0011],[30.5979,53.8702,172.3716],[30.5982,53.8756,174.4305],[30.5893,53.8813,174.5917],[30.6033,53.8864,171.0564],[30.626,53.8831,168.2223],[30.6261,53.8858,188.093],[30.6084,53.8972,170.8759],[30.6087,53.9026,172.5885],[30.6135,53.908,171.3527],[30.6501,53.9071,175.685],[30.6591,53.9041,183.5036],[30.682,53.9036,193.6637],[30.6865,53.9007,184.3226],[30.6862,53.8953,184.8216],[30.6811,53.8872,185.6316],[30.681,53.8844,192.5986],[30.6993,53.884,177.7569],[30.7086,53.8865,173.5094],[30.714,53.9001,176.2298],[30.7371,53.9024,172.4546],[30.7467,53.9077,179.7272],[30.7426,53.916,170.8687],[30.7477,53.9241,166.887],[30.757,53.9266,182.2356],[30.8033,53.9312,201.6656],[30.8221,53.9363,182.3215],[30.8272,53.9444,188.2779],[30.8231,53.9527,187.926],[30.8146,53.9638,189.5018],[30.7511,53.9816,181.9612],[30.7469,53.9872,179.9115],[30.7472,53.9927,185.4256],[30.7574,54.0089,202.4508],[30.7311,54.0314,190.7442],[30.7171,54.0289,187.1498],[30.7121,54.0235,178.573],[30.7026,54.0183,171.3046],[30.6934,54.0185,178.0467],[30.6711,54.0326,175.9844],[30.6575,54.0357,185.9353],[30.6433,54.0305,197.0824],[30.6336,54.0225,208.1609],[30.6195,54.0173,200.7402],[30.6055,54.0148,199.167],[30.6012,54.0204,193.0664],[30.625,54.0336,190.5801],[30.6252,54.0363,192.5577],[30.6206,54.0364,192.1953],[30.5971,54.0287,193.1352],[30.588,54.0316,200.4258],[30.5882,54.0344,201.4146],[30.593,54.037,197.2599],[30.5885,54.0398,213.7304],[30.5793,54.04,205.2909],[30.4949,54.0117,194.0373],[30.4665,53.996,197.134],[30.4663,53.9905,199.9074],[30.4571,53.9908,198.9432],[30.458,54.0098,204.0411],[30.4489,54.0128,193.4269],[30.4304,54.0104,198.7495],[30.4028,54.011,176.011],[30.403,54.0138,182.8937],[30.4078,54.0191,200.5806],[30.4082,54.0273,195.6674],[30.3992,54.0329,172.5796],[30.3807,54.0306,148.0936],[30.3577,54.0311,188.7507],[30.2568,54.0441,201.8974],[30.2341,54.0527,209.0045],[30.2297,54.0583,202.0767],[30.2257,54.0719,196.7957],[30.2164,54.0721,201.4026],[30.2117,54.0695,200.3523],[30.2066,54.0587,201.1644],[30.2063,54.0505,200.3295],[30.1967,54.0426,201.7702],[30.1874,54.04,195.4971],[30.1829,54.0428,181.4682],[30.1882,54.0591,206.1739],[30.1837,54.0619,205.4007],[30.1698,54.0621,208.399],[30.1608,54.0678,199.4963],[30.147,54.0707,197.1617],[30.1376,54.0655,194.7937],[30.1374,54.06,189.5915],[30.1233,54.0549,189.3864],[30.1232,54.0522,189.2291],[30.1276,54.0466,189.8067],[30.1318,54.0357,188.1454],[30.1316,54.0302,190.6068],[30.127,54.0303,188.7179],[30.1083,54.0252,198.7368],[30.0851,54.0229,188.6592],[30.0849,54.0175,187.0608],[30.103,54.0063,192.0721],[30.0933,53.9956,189.6941],[30.0924,53.9711,187.0775],[30.0592,53.9499,194.6404],[30.0816,53.9332,195.8222],[30.086,53.9276,188.3045],[30.0721,53.9251,187.934],[30.0676,53.928,204.4196],[30.0632,53.9335,200.9703],[30.054,53.9364,188.221],[30.0401,53.9339,189.1993],[30.0308,53.934,199.7965],[30.0215,53.931399999999996,200.8412],[30.0348,53.9176,188.2556],[30.0347,53.9149,187.7028],[30.0253,53.9095,204.5145],[30.0068,53.9098,185.5409],[29.9974,53.9073,183.7786],[29.9738,53.894,211.4111],[29.9411,53.8863,186.3501],[29.9363,53.8809,185.9333],[29.9268,53.8756,180.7691],[29.9314,53.8728,173.4473],[29.9264,53.8647,177.1322],[29.9263,53.8619,181.3407],[29.9216,53.8593,180.9908],[29.9171,53.8621,174.188],[29.9125,53.8621,175.3775],[29.8985,53.8596,187.5395],[29.899,53.8732,175.583],[29.8944,53.8733,172.0972],[29.833,53.8387,169.5167],[29.828,53.8305,161.0446],[29.8184,53.8198,165.0545],[29.8182,53.8143,163.3041],[29.8227,53.8115,168.8931],[29.8085,53.8008,169.3748],[29.8175,53.7952,163.3661],[29.8173,53.7897,171.4577],[29.8126,53.7871,169.3501],[29.7987,53.7873,179.1104],[29.79,53.801,184.2087],[29.7855,53.8038,179.0848],[29.7808,53.8039,158.3851],[29.7761,53.8012,149.8397],[29.7758,53.793,150.1779],[29.7803,53.7875,182.6179],[29.7802,53.7848,187.7296],[29.7659,53.774,189.9787],[29.7795,53.7657,168.9874],[29.7792,53.7575,169.6148],[29.7696,53.7467,183.5539],[29.7695,53.743899999999996,184.1231],[29.7783,53.7329,173.1084],[29.7914,53.7109,173.0688],[29.7959,53.7081,174.6363],[29.8052,53.7107,170.55],[29.8187,53.7023,146.915],[29.814,53.6996,146.985]]]]}
,"properties": {"GID_2": "BLR.4.18_1","GID_0": "BLR","country": "Belarus","GID_1": "BLR.4_1","province": "Mogilev","NL_NAME_1": "Магілёўская","county": "Mogilev","VARNAME_2": "Mahilyow","NL_NAME_2": "Магілёўскіраён","TYPE_2": "Raion","ENGTYPE_2": "District","CC_2": "NA","HASC_2": "BY.MA.MH","name": "Mogilev.county","area_km2": 2024.72,"hist_schema_id": "Elevation0-9000","hist_area_km2": {"150": 376.044,"175": 1234.634,"200": 409.029,"225": 5.0}}}