{"type": "Feature","bbox": [23.5117,53.3698,24.4804,53.9668],"geometry": {"type": "MultiPolygon","coordinates": [[[[24.085,53.4237,122.0386],[24.0894,53.4266,118.1036],[24.0887,53.4376,111.7819],[24.1022,53.4407,112.1775],[24.1162,53.4355,114.0184],[24.1251,53.4385,121.5526],[24.1248,53.444,114.4617],[24.1293,53.4441,115.7535],[24.1292,53.4468,114.2757],[24.1337,53.447,116.6731],[24.1425,53.4527,112.3836],[24.1421,53.4582,111.959],[24.1226,53.4769,123.7518],[24.1222,53.4824,123.7767],[24.1076,53.4957,116.3679],[24.0975,53.509,112.8085],[24.0974,53.5118,112.8015],[24.115,53.5205,114.0986],[24.1234,53.5317,102.2252],[24.1558,53.5273,121.8326],[24.1554,53.5328,114.6018],[24.1411,53.5405,111.3157],[24.1362,53.5458,110.934],[24.1358,53.5513,122.3588],[24.1541,53.5519,112.6133],[24.1868,53.5419,131.0733],[24.1912,53.5448,113.2953],[24.191,53.5476,113.3176],[24.1954,53.5504,126.752],[24.2099,53.5398,112.338],[24.2286,53.5348,113.3018],[24.2381,53.5296,113.4084],[24.2613,53.5248,112.9841],[24.2757,53.517,134.1234],[24.304,53.5071,114.5038],[24.3175,53.5103,114.6403],[24.3169,53.5184,115.1662],[24.2837,53.5337,113.7804],[24.2833,53.5392,117.8424],[24.2921,53.5449,114.9852],[24.3012,53.5452,130.0909],[24.3106,53.5428,114.8873],[24.3397,53.5219,130.5207],[24.3492,53.5168,130.9825],[24.363,53.5173,115.9611],[24.368,53.512,117.3346],[24.3682,53.5093,115.373],[24.3865,53.51,116.0979],[24.3955,53.513,114.127],[24.4095,53.5108,126.56],[24.4183,53.5165,132.2525],[24.4181,53.5193,131.8114],[24.4133,53.5218,133.0184],[24.4129,53.5272,120.51],[24.4219,53.5302,114.5986],[24.431,53.5306,116.6581],[24.4256,53.5412,119.2168],[24.4207,53.5465,119.6509],[24.4199,53.5574,120.4679],[24.4287,53.5631,124.7242],[24.4139,53.5762,121.0347],[24.366,53.6047,117.4991],[24.3658,53.6075,141.2437],[24.3924,53.622,126.6948],[24.3914,53.6356,150.4098],[24.3957,53.6412,150.4663],[24.4001,53.6441,140.5285],[24.3986,53.6661,129.1464],[24.407,53.6773,132.0289],[24.4069,53.6801,130.1078],[24.4021,53.6827,130.9906],[24.3886,53.6796,141.1456],[24.3657,53.679,133.3079],[24.3655,53.6818,126.5708],[24.3789,53.6876,134.0003],[24.3784,53.6959,135.1786],[24.3688,53.7012,115.452],[24.3731,53.7068,119.6956],[24.4039,53.727,151.7668],[24.4218,53.7329,148.5316],[24.4306,53.7387,139.0046],[24.4261,53.7386,140.2824],[24.4211,53.744,116.0],[24.4165,53.743899999999996,130.5304],[24.3913,53.7763,125.9872],[24.3906,53.7872,142.3808],[24.3994,53.793,139.0852],[24.408,53.8015,139.3195],[24.4076,53.8069,133.6493],[24.4026,53.8122,147.6673],[24.3932,53.8146,118.6392],[24.384,53.8142,140.2211],[24.385,53.8006,142.4855],[24.367,53.7945,120.026],[24.3578,53.7941,129.7171],[24.353,53.7967,147.3507],[24.3526,53.8021,143.6618],[24.3566,53.8104,148.3701],[24.3564,53.8132,132.9539],[24.3371,53.8261,133.4743],[24.337,53.8288,135.9064],[24.3412,53.8344,139.8474],[24.3678,53.8518,130.4686],[24.3724,53.852,137.2301],[24.3813,53.8578,118.0],[24.4129,53.8699,125.4438],[24.4265,53.8732,140.8627],[24.4444,53.882,144.4835],[24.476,53.8914,143.7708],[24.4804,53.8971,136.9613],[24.4756,53.9024,147.4389],[24.4709,53.905,141.4126],[24.4575,53.899,142.1472],[24.4483,53.8986,133.9545],[24.4483,53.9014,132.9425],[24.4072,53.8998,129.1615],[24.3981,53.8967,128.1077],[24.3935,53.8993,128.039],[24.3889,53.8991,128.4701],[24.3661,53.8928,128.5468],[24.3476,53.9002,128.8727],[24.343,53.9,129.1662],[24.3292,53.905,128.2997],[24.3291,53.9077,143.4171],[24.3199,53.9101,141.2872],[24.3199,53.9156,138.1013],[24.329,53.9214,132.6439],[24.3245,53.9212,131.5938],[24.3245,53.924,134.9153],[24.3107,53.9179,140.2393],[24.3061,53.9178,137.3737],[24.2921,53.9282,137.2174],[24.2921,53.931,133.8861],[24.2828,53.9306,134.9662],[24.2827,53.9334,134.1462],[24.278,53.9359,145.4655],[24.2776,53.9442,144.7517],[24.2728,53.9468,142.8611],[24.2588,53.9463,143.4454],[24.2589,53.9435,143.0301],[24.2544,53.9405,148.4599],[24.2449,53.943,135.7402],[24.2309,53.9424,144.6595],[24.2303,53.9507,144.4458],[24.235,53.9509,136.736],[24.2348,53.9536,138.8562],[24.2249,53.9588,140.342],[24.2247,53.9615,137.8278],[24.2194,53.9668,145.3798],[24.2149,53.9639,141.1955],[24.2152,53.9612,132.3918],[24.2057,53.9608,130.0728],[24.1921,53.9548,129.8992],[24.1732,53.954,132.4421],[24.1595,53.948,127.8915],[24.1548,53.9478,124.3896],[24.1545,53.9505,122.5598],[24.1356,53.9498,126.1221],[24.1305,53.9524,140.0971],[24.1311,53.9469,134.7491],[24.1267,53.9439,141.7029],[24.127,53.9411,140.4342],[24.1223,53.9409,120.7384],[24.1232,53.9326,120.072],[24.0996,53.9317,140.7323],[24.0858,53.9283,129.8142],[24.0295,53.9233,142.1032],[23.9973,53.9164,141.9216],[23.9922,53.919,136.8036],[23.9875,53.9188,136.3965],[23.9815,53.927,145.4662],[23.9857,53.9299,131.6127],[23.9844,53.9383,136.7403],[23.9791,53.9409,129.5779],[23.9787,53.9437,133.6666],[23.9729,53.949,87.6339],[23.9629,53.9514,87.1991],[23.9533,53.9511,124.6907],[23.9332,53.9558,85.4019],[23.9326,53.9586,83.2235],[23.9374,53.9588,84.481],[23.9222,53.9638,82.637],[23.9225,53.961,83.549],[23.9178,53.9608,84.9588],[23.9205,53.947,90.9743],[23.9076,53.941,91.3848],[23.8994,53.9352,110.1521],[23.885,53.9376,96.6127],[23.8845,53.9404,109.1499],[23.8688,53.9484,89.7089],[23.8541,53.9508,109.1117],[23.8413,53.9449,110.5475],[23.8332,53.9391,117.2493],[23.8339,53.9363,126.9624],[23.8292,53.9362,128.9813],[23.8165,53.9302,128.4444],[23.8126,53.9272,127.2091],[23.8148,53.9187,108.5708],[23.8195,53.9189,120.3995],[23.8357,53.9107,133.5093],[23.8377,53.9023,129.7769],[23.8249,53.899,125.7783],[23.8256,53.8962,124.4024],[23.8171,53.8932,138.1082],[23.8027,53.8929,132.5623],[23.8034,53.8901,132.6871],[23.7925,53.8955,105.9787],[23.7918,53.8983,95.9898],[23.7965,53.8984,97.9426],[23.7998,53.9041,92.3047],[23.7903,53.9039,96.1305],[23.7888,53.9096,102.6829],[23.784,53.9095,89.9245],[23.7818,53.9179,116.0627],[23.7763,53.9207,113.638],[23.762,53.9203,125.3263],[23.7613,53.9231,120.3277],[23.7572,53.9202,120.0351],[23.7565,53.923,120.0575],[23.7517,53.9229,119.9546],[23.751,53.9257,114.7043],[23.7415,53.9255,118.5653],[23.7407,53.9283,117.5254],[23.7249,53.9337,123.9703],[23.7202,53.9335,124.6522],[23.7209,53.9307,124.2138],[23.7169,53.9278,122.7159],[23.7121,53.9277,123.6328],[23.7066,53.9304,124.3647],[23.693,53.9272,126.9789],[23.6875,53.9299,124.9032],[23.674,53.9267,128.2549],[23.6685,53.9295,123.7226],[23.6542,53.9291,128.9024],[23.6413,53.9232,131.4827],[23.6173,53.9227,111.2786],[23.6187,53.9172,107.53],[23.6132,53.9199,105.2661],[23.6125,53.9226,111.9011],[23.6078,53.9225,111.3242],[23.6057,53.9308,129.3503],[23.6009,53.9308,109.4117],[23.6002,53.9335,116.7778],[23.5906,53.9333,112.3901],[23.5892,53.9389,126.0101],[23.5797,53.9387,125.5619],[23.5742,53.9414,110.3454],[23.5701,53.9385,130.9799],[23.5653,53.9384,129.9283],[23.5599,53.9411,110.8846],[23.5407,53.9407,129.0376],[23.54,53.9435,116.8666],[23.5352,53.9434,124.7647],[23.5339,53.949,135.8242],[23.5291,53.9489,137.5863],[23.5284,53.9516,129.6405],[23.5332,53.9517,130.5013],[23.5283,53.9544,119.599],[23.5205,53.9543,126.0186],[23.5166,53.9469,132.0249],[23.5149,53.947,132.0249],[23.5149,53.956,126.5901],[23.513,53.9313,136.7743],[23.5117,53.9288,140.3911],[23.5121,53.9103,103.3809],[23.5264,53.868899999999996,112.7015],[23.5271,53.8644,106.5396],[23.5245,53.8645,109.9732],[23.5241,53.8626,111.8207],[23.528199999999998,53.8623,105.191],[23.5283,53.8607,100.4362],[23.5351,53.8573,108.7011],[23.5485,53.8551,103.5],[23.552,53.851,124.5885],[23.5509,53.8492,113.4514],[23.5457,53.8478,110.875],[23.5451,53.845,119.0487],[23.5524,53.8408,127.5691],[23.5512,53.8373,107.999],[23.5496,53.8375,126.6895],[23.5479,53.8347,111.9826],[23.554,53.8314,119.5733],[23.5536,53.8301,127.8733],[23.5493,53.8303,110.1489],[23.5463,53.8258,112.8059],[23.5447,53.7962,136.4798],[23.549,53.7678,136.1449],[23.5821,53.7438,166.6457],[23.5856,53.7283,169.4659],[23.5861,53.7031,177.2783],[23.6044,53.6581,169.4933],[23.6269,53.5957,199.4174],[23.6516,53.5441,151.6368],[23.6597,53.5214,174.4773],[23.6672,53.5126,199.7201],[23.7074,53.4365,181.4223],[23.7371,53.3916,181.2054],[23.7487,53.3698,155.6573],[23.7627,53.3726,171.2245],[23.7843,53.3707,149.6188],[23.7883,53.3735,143.4118],[23.7837,53.3788,156.0541],[23.7833,53.3842,151.8836],[23.7873,53.3871,141.4354],[23.8089,53.3878,147.5302],[23.8056,53.4338,179.5061],[23.8143,53.434,172.1543],[23.8371,53.4212,157.2775],[23.8551,53.4164,154.6894],[23.8729,53.417,190.9318],[23.8995,53.4207,183.5605],[23.9037,53.4236,167.7577],[23.9172,53.4241,153.6591],[23.9266,53.419,123.2396],[23.9356,53.4194,116.0276],[23.9531,53.4281,111.6115],[23.9666,53.4286,110.6723],[23.9715,53.4233,109.6389],[23.972,53.4151,106.8495],[23.9677,53.4123,107.6192],[23.9681,53.4068,107.0599],[23.9728,53.4043,111.7794],[23.9856,53.4155,108.2449],[23.9945,53.4185,113.0936],[24.0131,53.4109,119.8101],[24.022,53.4138,119.5765],[24.0263,53.4167,120.924],[24.0254,53.4303,110.9039],[24.0572,53.4312,112.0274],[24.0619,53.4286,111.692],[24.0621,53.4259,112.1292],[24.0576,53.4258,112.524],[24.0577,53.423,112.9775],[24.0625,53.4204,115.3892],[24.0712,53.4261,114.8485],[24.085,53.4237,122.0386]]]]}
,"properties": {"GID_2": "BLR.3.5_1","GID_0": "BLR","country": "Belarus","GID_1": "BLR.3_1","province": "Grodno","NL_NAME_1": "Гродзенская","county": "Hrodna","VARNAME_2": "NA","NL_NAME_2": "Гродзенскіраён","TYPE_2": "Raion","ENGTYPE_2": "District","CC_2": "NA","HASC_2": "BY.HR.HR","name": "Hrodna.county","area_km2": 2775.162,"hist_schema_id": "Elevation0-9000","hist_area_km2": {"75": 8.062,"100": 215.941,"125": 1401.268,"150": 676.316,"175": 275.744,"200": 150.196,"225": 44.509,"250": 3.126}}}