{"type": "Feature","bbox": [27.9897,53.9441,29.0126,54.6643],"geometry": {"type": "MultiPolygon","coordinates": [[[[29.0126,54.0609,175.8934],[29.0034,54.0692,173.2944],[29.0036,54.0774,167.7694],[28.9947,54.0993,181.1623],[28.995,54.113,171.3415],[28.9905,54.1212,189.3159],[28.9952,54.1239,185.5004],[28.9953,54.1266,182.1774],[28.9813,54.1295,167.1987],[28.9719,54.1268,171.9244],[28.9626,54.1269,170.0287],[28.9627,54.1296,167.2949],[28.9674,54.1351,156.8961],[28.9862,54.1376,162.5274],[28.9956,54.143,165.1364],[28.9816,54.1431,158.7844],[28.9676,54.1405,176.2437],[28.9677,54.146,170.9186],[28.9818,54.1513,155.5732],[28.9825,54.1868,192.354],[28.9779,54.1896,199.883],[28.9732,54.1896,205.1215],[28.9684,54.1842,191.8782],[28.9638,54.1842,189.8435],[28.9592,54.187,192.9788],[28.9639,54.1897,190.0612],[28.9592,54.1897,197.6197],[28.9453,54.1953,188.5695],[28.95,54.198,191.8868],[28.9594,54.1979,174.8411],[28.9642,54.2033,182.4454],[28.9595,54.2061,194.8205],[28.9597,54.2143,172.7497],[28.9551,54.2171,176.7563],[28.9503,54.2144,166.4221],[28.9457,54.2172,168.3717],[28.9459,54.2281,165.1922],[28.9366,54.2282,169.1855],[28.9272,54.2255,173.3829],[28.9179,54.2283,158.5135],[28.8945,54.2313,167.7833],[28.8899,54.234,172.8541],[28.8854,54.245,181.1422],[28.8716,54.256,181.746],[28.867,54.2615,166.2854],[28.8717,54.2642,167.1708],[28.8858,54.2641,168.8586],[28.8858,54.2668,169.2825],[28.8952,54.2695,171.9584],[28.8954,54.2777,176.7384],[28.8907,54.2804,189.2451],[28.8814,54.2805,170.8084],[28.8767,54.2833,169.8429],[28.8769,54.2942,207.8019],[28.9006,54.3049,171.5986],[28.9007,54.3131,182.3156],[28.882,54.3133,184.376],[28.8772,54.3106,201.1539],[28.868,54.3161,184.4654],[28.8587,54.3244,184.5706],[28.8637,54.338,174.1286],[28.8638,54.3462,187.0456],[28.8592,54.3517,179.7466],[28.8593,54.3572,181.2295],[28.8688,54.3598,182.0212],[28.8688,54.3626,181.8338],[28.8737,54.3707,184.9696],[28.8739,54.3816,204.9926],[28.8692,54.3844,192.5107],[28.8694,54.3953,186.8603],[28.8648,54.4008,193.8594],[28.846,54.3982,219.7679],[28.8272,54.3984,201.6743],[28.8132,54.404,195.6142],[28.8369,54.4147,196.6789],[28.8416,54.4174,191.2973],[28.8417,54.4201,189.4222],[28.8088,54.4204,204.6788],[28.7993,54.4177,195.1624],[28.7898,54.4124,205.0276],[28.7851,54.4124,215.5625],[28.7805,54.4152,203.1149],[28.7805,54.4179,199.2861],[28.7853,54.4233,197.118],[28.7902,54.4342,200.6741],[28.7856,54.4424,199.4864],[28.7998,54.445,222.5511],[28.8045,54.4477,228.2936],[28.7952,54.4505,210.8334],[28.7764,54.4507,214.7614],[28.7717,54.4562,216.6171],[28.7719,54.4671,194.1864],[28.7767,54.4725,189.0216],[28.8191,54.4722,218.4412],[28.8284,54.4667,194.4469],[28.8424,54.4638,195.1631],[28.8472,54.4665,192.5835],[28.8708,54.4718,185.1306],[28.8804,54.4826,183.0027],[28.8807,54.4963,200.2568],[28.8951,54.5098,192.5949],[28.8857,54.5153,195.0926],[28.8624,54.5237,194.4644],[28.8529,54.5238,194.0686],[28.8483,54.5293,188.6188],[28.8721,54.54,189.7569],[28.8769,54.5482,188.9377],[28.8866,54.559,192.1671],[28.8867,54.5645,201.8006],[28.8725,54.5646,200.7378],[28.8678,54.5619,209.7667],[28.8536,54.5593,196.819],[28.8253,54.5595,203.1045],[28.8159,54.5623,207.9734],[28.8067,54.576,226.6251],[28.7879,54.5762,214.194],[28.7785,54.5817,216.7155],[28.7738,54.5818,217.4659],[28.7691,54.5791,208.215],[28.769,54.5736,197.1637],[28.7642,54.5709,190.7986],[28.7406,54.5711,185.6745],[28.7217,54.5658,213.5369],[28.7028,54.5659,198.3735],[28.6935,54.5715,214.0317],[28.6935,54.5742,228.3608],[28.6795,54.5852,215.9541],[28.6796,54.5907,196.2784],[28.6939,54.5988,195.9974],[28.694,54.6042,184.7109],[28.6708,54.6317,191.4226],[28.6614,54.6372,211.8602],[28.6568,54.6427,198.5782],[28.6522,54.6564,215.3136],[28.6381,54.662,200.7216],[28.6287,54.6621,184.5126],[28.6192,54.6594,176.9787],[28.6098,54.6622,174.1255],[28.5671,54.6542,172.0011],[28.4773,54.6548,172.6874],[28.4725,54.6521,172.6918],[28.4677,54.6466,181.613],[28.4629,54.633,182.6034],[28.4628,54.6221,173.0833],[28.4578,54.603,162.4815],[28.453,54.5921,162.9585],[28.4339,54.5704,163.0636],[28.4243,54.5541,158.3533],[28.4148,54.5514,156.8801],[28.4053,54.546,155.61],[28.377,54.5516,158.9652],[28.3676,54.5516,158.5099],[28.3629,54.5544,159.0067],[28.3631,54.5762,158.7967],[28.3537,54.5817,160.2023],[28.3584,54.5844,160.6368],[28.3585,54.5899,157.9223],[28.349,54.5899,160.2621],[28.3443,54.5927,162.5166],[28.3302,54.5928,156.4307],[28.3255,54.5982,158.8534],[28.3255,54.601,159.8305],[28.3302,54.6037,160.1506],[28.3208,54.6092,164.9455],[28.3066,54.6093,157.7887],[28.2972,54.6038,157.2189],[28.2971,54.6011,158.4545],[28.2877,54.6039,157.9831],[28.2878,54.6148,159.4517],[28.2784,54.6203,158.4788],[28.2737,54.6258,157.3259],[28.2784,54.6285,159.0984],[28.2785,54.6394,161.2798],[28.2738,54.6422,158.7355],[28.2643,54.6422,160.3413],[28.2407,54.6478,157.9649],[28.2171,54.6642,158.3849],[28.2076,54.6643,164.1183],[28.1839,54.6589,171.0354],[28.1697,54.6535,172.7142],[28.1555,54.6536,174.0725],[28.146,54.6482,172.2847],[28.1413,54.6427,195.3235],[28.1412,54.6291,216.213],[28.1081,54.6292,227.3618],[28.1033,54.6265,225.6688],[28.1033,54.6237,232.3082],[28.0938,54.6211,240.3906],[28.0749,54.6211,238.9634],[28.0702,54.6184,247.0234],[28.0512,54.613,262.5748],[28.037,54.5994,248.0315],[28.037,54.5885,250.5901],[28.0228,54.5804,281.2166],[28.0181,54.5804,264.0039],[28.0133,54.5831,255.7738],[27.9991,54.5804,222.4223],[27.9897,54.575,202.2995],[27.9897,54.5723,204.9194],[28.0228,54.5613,207.5976],[28.0228,54.5585,199.636],[28.0322,54.5394,196.7365],[28.0463,54.5257,181.8079],[28.0558,54.5202,179.2374],[28.0605,54.5093,183.1986],[28.0699,54.5038,197.5134],[28.0888,54.5065,180.191],[28.0982,54.501,179.187],[28.1076,54.4846,179.1972],[28.1359,54.4708,178.1379],[28.15,54.4571,178.2198],[28.1499,54.4462,177.3504],[28.164,54.4407,177.8785],[28.1782,54.4406,210.1717],[28.1876,54.4378,217.1822],[28.2064,54.4378,202.9335],[28.2394,54.4322,214.8455],[28.2441,54.4267,195.4698],[28.2441,54.4239,193.3039],[28.2346,54.4185,211.393],[28.2346,54.4158,206.9474],[28.2393,54.4103,181.2512],[28.2392,54.4021,184.3014],[28.2298,54.3967,178.8987],[28.2062,54.3914,210.7024],[28.1873,54.3696,212.4679],[28.1826,54.3669,182.074],[28.1826,54.3615,182.1756],[28.1731,54.3588,187.5323],[28.1637,54.3588,207.5488],[28.159,54.3561,195.7568],[28.1495,54.3371,225.8853],[28.1495,54.3316,200.0464],[28.1401,54.3289,210.5785],[28.1401,54.3235,190.8285],[28.1495,54.3207,202.4937],[28.1589,54.3207,216.5639],[28.1636,54.3261,199.6285],[28.1636,54.3288,205.5096],[28.173,54.3342,201.0786],[28.1824,54.3342,195.3514],[28.1965,54.3287,193.4783],[28.1965,54.3232,197.859],[28.1918,54.3178,203.295],[28.1918,54.315,211.4454],[28.1964,54.3123,217.8397],[28.2011,54.3123,216.8533],[28.2106,54.3204,208.0718],[28.22,54.3231,189.8771],[28.2294,54.3231,180.3608],[28.2341,54.3203,163.9074],[28.2341,54.3176,160.8349],[28.2246,54.3122,179.1082],[28.2152,54.3122,180.8473],[28.2105,54.3095,199.9183],[28.2105,54.304,211.874],[28.2152,54.3013,184.0357],[28.2434,54.3012,157.8278],[28.2481,54.3039,157.0487],[28.2528,54.3038,157.1155],[28.2621,54.2983,160.9131],[28.2574,54.2902,167.2093],[28.2574,54.2847,165.4764],[28.262,54.2792,168.7402],[28.262,54.2765,182.7879],[28.2479,54.2711,162.4674],[28.2384,54.2548,173.4446],[28.229,54.243899999999996,164.461],[28.2289,54.233,176.3918],[28.2195,54.2276,165.6697],[28.2523,54.2193,165.599],[28.2617,54.2192,166.7767],[28.2757,54.2164,160.5658],[28.2945,54.2191,167.0836],[28.3133,54.2244,167.2262],[28.3227,54.2244,162.7677],[28.3273,54.2216,164.3197],[28.3273,54.2161,169.1207],[28.3085,54.2135,167.2146],[28.3038,54.2108,166.9125],[28.2991,54.2054,166.8624],[28.2943,54.1945,175.1084],[28.313,54.1889,175.2237],[28.3271,54.1943,168.7461],[28.3365,54.1943,173.2489],[28.3506,54.1915,180.7504],[28.3505,54.1887,174.0571],[28.3552,54.1833,175.1227],[28.3457,54.1697,188.5663],[28.3456,54.156,190.3173],[28.3503,54.1533,174.2154],[28.3643,54.1532,187.8376],[28.369,54.1559,202.3345],[28.3783,54.1504,177.8583],[28.3924,54.1503,170.7896],[28.397,54.1475,175.4208],[28.397,54.1421,173.8781],[28.3876,54.134,173.1722],[28.3829,54.134,172.3744],[28.3734,54.1231,176.6951],[28.3594,54.1205,175.5261],[28.3593,54.115,182.715],[28.3733,54.1122,175.7555],[28.3874,54.1149,170.4023],[28.4061,54.1148,186.4953],[28.4108,54.112,166.805],[28.4107,54.1093,175.1366],[28.392,54.1067,174.3244],[28.4153,54.1011,163.9219],[28.4293,54.0955,170.7155],[28.4293,54.0928,166.5274],[28.4246,54.0901,164.5585],[28.4245,54.0819,172.2414],[28.4385,54.0764,167.8746],[28.4385,54.0736,172.1501],[28.4197,54.0683,174.2419],[28.415,54.0656,173.734],[28.415,54.0629,167.7323],[28.4196,54.0574,170.1209],[28.4336,54.0546,178.3956],[28.4383,54.0518,169.6785],[28.4382,54.0464,177.2251],[28.4335,54.0409,172.0248],[28.4287,54.0301,192.5518],[28.4334,54.03,187.6417],[28.4475,54.0381,183.3032],[28.4521,54.0381,196.706],[28.4568,54.0353,192.1761],[28.452,54.0272,185.0968],[28.4706,54.0162,174.6905],[28.4706,54.0134,176.2667],[28.4752,54.0107,175.8913],[28.4752,54.0134,180.4614],[28.4799,54.0161,178.7005],[28.4986,54.016,183.8655],[28.5033,54.0132,173.4138],[28.5031,54.0023,182.6153],[28.4984,53.9996,181.6608],[28.4984,53.9942,190.9312],[28.503,53.9887,173.6583],[28.5076,53.9859,173.6188],[28.517,53.9858,169.0077],[28.5262,53.983,167.9866],[28.531,53.9885,167.6267],[28.5403,53.9911,165.9939],[28.5543,53.991,167.0911],[28.5636,53.9882,168.3459],[28.5728,53.9773,177.7457],[28.5821,53.9745,179.7609],[28.5961,53.9744,173.6546],[28.6007,53.9716,176.0829],[28.6007,53.9689,177.1594],[28.6146,53.9606,171.3774],[28.6098,53.9524,182.1612],[28.6098,53.9497,170.8955],[28.6237,53.9441,176.5554],[28.6377,53.9522,186.0875],[28.6425,53.9576,182.8772],[28.6426,53.9658,193.9696],[28.6473,53.9685,181.6473],[28.6473,53.9712,179.1201],[28.6567,53.9739,185.4699],[28.666,53.9738,178.1702],[28.6799,53.9683,191.2473],[28.6845,53.9655,182.2841],[28.6845,53.9628,177.0965],[28.7078,53.9626,190.7671],[28.7172,53.9707,181.7372],[28.7173,53.9734,182.7926],[28.7314,53.9815,180.2023],[28.7409,53.9923,182.062],[28.7596,54.0004,170.6405],[28.7643,54.0003,179.7299],[28.7782,53.9948,183.7707],[28.7829,53.9947,167.9595],[28.783,54.0029,186.1583],[28.7737,54.0057,185.2436],[28.7738,54.0112,176.3523],[28.7833,54.0193,187.3484],[28.7834,54.0247,184.4201],[28.7788,54.0302,176.4881],[28.7835,54.0329,171.4329],[28.7882,54.0329,176.0194],[28.8022,54.0382,170.2003],[28.807,54.0464,199.5929],[28.8118,54.0491,175.4468],[28.8258,54.0517,184.6045],[28.8351,54.0516,150.0833],[28.835,54.0434,176.1369],[28.8396,54.0406,177.1713],[28.8771,54.0485,153.5808],[28.947,54.0479,163.4753],[29.0126,54.0609,175.8934]]]]}
,"properties": {"GID_2": "BLR.5.1_1","GID_0": "BLR","country": "Belarus","GID_1": "BLR.5_1","province": "Minsk","NL_NAME_1": "Мінская","county": "Barysaw","VARNAME_2": "Borisov","NL_NAME_2": "Барысаўскіраён","TYPE_2": "Raion","ENGTYPE_2": "District","CC_2": "NA","HASC_2": "BY.MI.BO","name": "Barysaw.county","area_km2": 2929.68,"hist_schema_id": "Elevation0-9000","hist_area_km2": {"150": 432.015,"175": 1449.108,"200": 830.375,"225": 197.197,"250": 19.192,"275": 1.782}}}