{"type": "Feature","bbox": [29.3469,54.2264,30.1567,54.6385],"geometry": {"type": "MultiPolygon","coordinates": [[[[29.4043,54.2344,196.6766],[29.4091,54.2398,195.8443],[29.4326,54.2449,195.1925],[29.4373,54.2449,195.7543],[29.451,54.2365,199.8051],[29.4605,54.2419,198.7416],[29.4608,54.2501,194.0812],[29.4793,54.2471,197.4906],[29.4796,54.2553,194.4467],[29.4843,54.2552,194.7012],[29.4934,54.2497,206.1016],[29.4981,54.2496,215.3882],[29.5077,54.2577,193.5066],[29.5123,54.2576,200.9982],[29.5171,54.2603,197.0521],[29.5173,54.2685,190.3063],[29.5082,54.274,194.6104],[29.5177,54.2794,197.6506],[29.5271,54.282,215.8672],[29.532,54.2901,197.5496],[29.5322,54.2955,196.911],[29.5369,54.2982,200.8429],[29.551,54.3007,203.7648],[29.5603,54.2979,203.181],[29.5743,54.2977,206.2056],[29.5838,54.303,220.9906],[29.5838,54.3057,219.2793],[29.5793,54.3113,233.579],[29.5748,54.314,233.4199],[29.5752,54.3277,211.2363],[29.5799,54.3303,216.4173],[29.6128,54.3353,222.2061],[29.6268,54.3351,221.5535],[29.6314,54.3324,219.0173],[29.6313,54.3296,217.6012],[29.6359,54.3268,218.4553],[29.6499,54.3267,213.8887],[29.6591,54.3238,212.6292],[29.6728,54.3154,217.0688],[29.6912,54.307,229.0288],[29.6959,54.3069,232.759],[29.7146,54.3094,206.6881],[29.7288,54.3146,192.9567],[29.7381,54.3145,191.0504],[29.752,54.3116,181.0032],[29.7661,54.3141,195.1156],[29.785,54.322,195.9059],[29.799,54.3218,215.6892],[29.8035,54.319,199.2653],[29.8174,54.3161,190.9598],[29.8267,54.3159,190.656],[29.8362,54.3212,195.0786],[29.8363,54.324,194.8403],[29.8458,54.3265,193.2711],[29.8504,54.3265,193.8397],[29.8641,54.3181,199.7396],[29.8734,54.3179,197.9103],[29.8877,54.3259,207.8252],[29.8925,54.3313,221.6083],[29.8928,54.3367,208.8969],[29.8975,54.3394,212.4178],[29.9022,54.3393,212.8115],[29.9112,54.331,207.8575],[29.9111,54.3283,207.3347],[29.9016,54.323,207.365],[29.9014,54.3202,209.0039],[29.9149,54.306399999999996,237.4364],[29.9194,54.3036,231.8509],[29.9193,54.3008,222.7758],[29.9145,54.2955,215.041],[29.919,54.2927,213.6851],[29.9374,54.2869,225.6232],[29.9559,54.2839,210.5173],[29.9653,54.2865,206.9009],[29.9654,54.2892,202.1117],[29.9841,54.2916,228.5544],[29.9937,54.2969,235.0151],[30.003,54.2968,237.1353],[30.0071,54.2831,238.8036],[29.9977,54.2805,226.7216],[29.9881,54.2752,208.1811],[29.988,54.2725,207.9418],[29.9926,54.2697,208.3712],[30.0066,54.2722,224.4248],[30.0252,54.2719,236.1884],[30.0395,54.2798,221.423],[30.0399,54.2907,212.9618],[30.0219,54.3047,208.1717],[30.022,54.3074,203.0193],[30.0269,54.3128,207.4895],[30.0362,54.3126,231.712],[30.0592,54.3068,202.8521],[30.0685,54.3066,206.8917],[30.0733,54.3093,204.858],[30.074,54.3257,209.1288],[30.0694,54.3285,202.9207],[30.0556,54.3314,191.6322],[30.0512,54.337,199.0544],[30.0514,54.3424,204.1252],[30.0563,54.3478,214.6484],[30.075,54.3503,226.7827],[30.0841,54.3447,220.6161],[30.0885,54.3391,210.2406],[30.1114,54.3305,187.0555],[30.1161,54.3305,197.9193],[30.1208,54.3331,194.5913],[30.1257,54.3385,196.7932],[30.1039,54.3717,210.2003],[30.1044,54.3827,221.0953],[30.1188,54.3907,212.2532],[30.1097,54.3963,220.5302],[30.1004,54.3964,217.4815],[30.0959,54.3992,217.8077],[30.0966,54.4157,222.2814],[30.1014,54.4183,221.7413],[30.1389,54.4205,215.0664],[30.1437,54.4232,215.1051],[30.1439,54.4286,221.3157],[30.1396,54.4369,219.1456],[30.1306,54.4426,216.1715],[30.1173,54.4592,208.3337],[30.1133,54.473,186.4427],[30.109,54.4813,190.3767],[30.1139,54.4867,184.9452],[30.1187,54.4894,175.8803],[30.1281,54.4892,200.0436],[30.1375,54.4918,176.7403],[30.1566,54.4998,179.3938],[30.1567,54.5025,188.9099],[30.1474,54.5027,191.89],[30.1283,54.4947,185.8934],[30.1238,54.4975,188.5086],[30.115,54.5086,184.257],[30.1118,54.5416,217.3262],[30.0883,54.5392,210.2211],[30.0838,54.5421,210.529],[30.0751,54.5559,208.6707],[30.0705,54.5587,210.2608],[30.0658,54.5588,214.8534],[30.0469,54.5536,216.9405],[30.0423,54.556399999999996,219.8041],[30.0424,54.5591,218.1008],[30.057,54.5699,206.6638],[30.0571,54.5727,205.3987],[30.0289,54.5703,203.8442],[30.0194,54.5677,199.9698],[30.0101,54.5678,207.6145],[30.0053,54.5652,211.5236],[29.9911,54.5626,215.8142],[29.9678,54.5657,216.1169],[29.9163,54.5664,215.4349],[29.9122,54.5802,237.7624],[29.9077,54.5857,227.6308],[29.908,54.5912,224.756],[29.9177,54.5993,229.5431],[29.9178,54.6021,223.7113],[29.9086,54.6049,213.7199],[29.9087,54.6077,208.5749],[29.9135,54.6104,231.0166],[29.9137,54.6159,196.3779],[29.9092,54.6187,195.669],[29.9051,54.6324,196.9089],[29.9005,54.6353,196.7548],[29.8911,54.6354,202.07],[29.891,54.6326,199.3354],[29.8862,54.6299,198.7471],[29.8722,54.6329,188.2664],[29.8535,54.6331,201.7326],[29.8532,54.6276,205.0418],[29.8484,54.6249,220.937],[29.839,54.6251,227.0864],[29.8252,54.6307,242.9928],[29.8207,54.6363,255.4326],[29.816,54.6363,245.9259],[29.8015,54.6255,236.407],[29.7826,54.623,257.2515],[29.7733,54.6259,262.2393],[29.7735,54.6314,266.2369],[29.7641,54.6315,256.344],[29.7592,54.6261,260.4932],[29.7544,54.6234,277.9134],[29.7355,54.6209,253.8186],[29.7263,54.6265,237.655],[29.7219,54.6348,229.3931],[29.7125,54.6349,248.3809],[29.7077,54.6322,247.0382],[29.7075,54.6267,220.1803],[29.7027,54.624,209.1673],[29.7026,54.6213,228.5654],[29.6977,54.6158,246.3912],[29.6931,54.6186,233.8742],[29.6932,54.6214,232.4196],[29.6979,54.6213,238.1378],[29.6981,54.6268,220.9842],[29.6935,54.6296,205.282],[29.6888,54.6297,195.9893],[29.6698,54.6244,199.2784],[29.6462,54.6219,195.2585],[29.642,54.6357,190.2368],[29.6374,54.6385,188.8824],[29.6279,54.6359,202.6651],[29.6135,54.6278,199.1819],[29.6134,54.6251,190.8386],[29.6086,54.6224,194.2782],[29.5995,54.6307,197.3522],[29.5854,54.6309,196.8574],[29.5568,54.6203,187.3754],[29.552,54.6203,186.002],[29.5474,54.6231,192.6586],[29.5477,54.6313,184.053],[29.5288,54.6288,188.77],[29.5144,54.6207,201.326],[29.5143,54.618,201.5601],[29.5095,54.6153,195.3466],[29.5046,54.6072,208.563],[29.4998,54.6045,211.1244],[29.4997,54.6018,217.3675],[29.5089,54.5962,210.4134],[29.5134,54.5906,220.1779],[29.5131,54.5824,211.9059],[29.5083,54.5798,205.9042],[29.5081,54.5715,195.6163],[29.5034,54.5716,201.5852],[29.4989,54.5771,204.1294],[29.4753,54.5747,204.4489],[29.465699999999998,54.5693,199.6448],[29.4654,54.5611,199.0492],[29.479,54.5445,197.0987],[29.4788,54.5391,204.332],[29.474,54.5364,205.4917],[29.4599,54.5338,194.6327],[29.455,54.5284,197.3987],[29.4548,54.523,213.3981],[29.4451,54.5121,233.4771],[29.445,54.5094,226.9593],[29.4588,54.4983,215.0544],[29.4585,54.4901,206.2967],[29.4489,54.4821,204.749],[29.4488,54.4793,204.7123],[29.4345,54.4713,199.3559],[29.4344,54.4686,192.0782],[29.4296,54.4632,181.8228],[29.4153,54.4552,220.6166],[29.4152,54.4524,211.7203],[29.4198,54.4496,214.8207],[29.4385,54.4494,196.6363],[29.4385,54.4467,214.3061],[29.4242,54.4414,211.6534],[29.4288,54.4386,214.3293],[29.4428,54.4357,204.8843],[29.452,54.4301,191.1469],[29.4519,54.4274,193.4231],[29.4472,54.4247,203.3382],[29.433,54.4222,212.3895],[29.4327,54.4113,196.8781],[29.428,54.4086,191.3534],[29.4372,54.403,190.5404],[29.4371,54.4003,201.8839],[29.4323,54.3976,198.8148],[29.4369,54.3921,202.4524],[29.4462,54.392,216.1588],[29.4555,54.3892,203.613],[29.4552,54.381,205.6151],[29.4365,54.3785,213.2059],[29.4319,54.3813,210.1347],[29.4225,54.3814,212.4872],[29.4177,54.3787,214.1006],[29.4079,54.3625,220.0977],[29.3984,54.3572,208.2332],[29.3703,54.3575,199.2267],[29.3469,54.355,201.8113],[29.3514,54.3495,212.1883],[29.3795,54.3492,217.1176],[29.3841,54.3464,205.0172],[29.3832,54.3164,193.218],[29.3878,54.3137,192.4489],[29.3925,54.3136,197.181],[29.3973,54.3163,189.7505],[29.416,54.3161,183.5869],[29.4206,54.3133,182.9051],[29.4205,54.3105,183.3643],[29.4063,54.3053,189.1481],[29.4013,54.2944,193.3968],[29.3917,54.2836,194.2263],[29.3915,54.2782,205.0355],[29.3959,54.2699,206.6966],[29.3912,54.2673,203.5615],[29.3819,54.2674,190.0558],[29.3679,54.2702,191.4071],[29.3584,54.2649,196.8823],[29.3675,54.2539,213.4918],[29.3533,54.2486,198.174],[29.3485,54.2432,199.411],[29.3483,54.2377,192.4551],[29.3621,54.2294,214.2152],[29.3714,54.2265,195.1773],[29.3807,54.2264,194.9146],[29.3949,54.2345,194.1175],[29.4043,54.2344,196.6766]]]]}
,"properties": {"GID_2": "BLR.6.18_1","GID_0": "BLR","country": "Belarus","GID_1": "BLR.6_1","province": "Vitebsk","NL_NAME_1": "Вiцебская","county": "Talachyn","VARNAME_2": "Tolochin","NL_NAME_2": "Талачынскіраён","TYPE_2": "Raion","ENGTYPE_2": "District","CC_2": "NA","HASC_2": "BY.VI.TO","name": "Talachyn.county","area_km2": 1489.388,"hist_schema_id": "Elevation0-9000","hist_area_km2": {"175": 32.352,"200": 695.956,"225": 622.97,"250": 132.779,"275": 5.27,"300": 0.061}}}