{"type": "Feature","bbox": [24.9192,53.4866,25.5887,54.0613],"geometry": {"type": "MultiPolygon","coordinates": [[[[25.4161,53.6543,136.8367],[25.4207,53.6545,130.5965],[25.4422,53.6741,129.6359],[25.4419,53.6768,131.8502],[25.4463,53.6796,133.1402],[25.4601,53.68,125.7545],[25.4643,53.6856,135.5092],[25.4781,53.686,128.846],[25.4829,53.6834,133.4588],[25.4921,53.6837,137.9837],[25.4965,53.6865,125.3443],[25.4963,53.6892,124.539],[25.4914,53.6918,123.8285],[25.4822,53.6915,122.9109],[25.4728,53.694,123.3029],[25.4724,53.6994,131.4068],[25.5,53.7002,133.2711],[25.4998,53.7029,137.4386],[25.495,53.7055,126.5885],[25.4948,53.7082,132.8373],[25.4992,53.711,133.9803],[25.504,53.7085,144.3076],[25.5174,53.7143,140.3577],[25.5172,53.717,131.3121],[25.5078,53.7194,132.0333],[25.5074,53.7249,128.6543],[25.5116,53.7304,128.6455],[25.5068,53.733,126.7046],[25.4885,53.7297,124.2294],[25.4837,53.7323,129.3485],[25.4877,53.7406,132.2002],[25.4831,53.7404,129.5213],[25.4787,53.7376,126.2924],[25.4603,53.737,120.1241],[25.4555,53.7396,136.0244],[25.4551,53.745,126.2402],[25.4641,53.748,132.9314],[25.4781,53.7457,124.4017],[25.4825,53.7486,137.3607],[25.4953,53.7626,138.7831],[25.5089,53.7657,123.2809],[25.5041,53.7683,123.7567],[25.5085,53.7711,123.5197],[25.527,53.7717,127.2348],[25.5314,53.7746,139.6862],[25.536,53.7747,140.4934],[25.5358,53.7774,127.4598],[25.5444,53.7859,125.9666],[25.5625,53.7919,136.2274],[25.5758,53.8005,133.087],[25.5708,53.8058,134.8178],[25.5752,53.8086,135.3399],[25.5749,53.8141,131.9477],[25.5836,53.8225,128.6404],[25.5876,53.8309,142.1527],[25.5826,53.8362,151.0619],[25.5684,53.8412,131.7586],[25.568,53.8466,131.7709],[25.5725,53.8495,128.1798],[25.5721,53.855,128.2437],[25.5671,53.8603,133.8286],[25.5666,53.8684,131.9045],[25.5755,53.8742,132.9876],[25.5796,53.8825,130.414],[25.5843,53.8827,129.5647],[25.5887,53.8856,128.7688],[25.5875,53.9047,141.2757],[25.5827,53.9073,131.9198],[25.5688,53.9068,130.6375],[25.5592,53.912,148.1788],[25.5582,53.9284,152.7745],[25.5531,53.9364,152.9173],[25.5438,53.9361,158.9039],[25.5294,53.9438,147.8635],[25.5292,53.9465,151.4709],[25.5427,53.9552,152.1323],[25.5425,53.958,151.7261],[25.5331,53.9604,154.5688],[25.5188,53.9681,166.6277],[25.5139,53.9734,165.7158],[25.5138,53.9762,178.5733],[25.5181,53.9818,156.9239],[25.5133,53.9871,137.7934],[25.5085,53.9897,138.6385],[25.4993,53.9894,150.1181],[25.4946,53.992,139.9266],[25.4809,53.9915,138.7386],[25.4762,53.9941,138.4753],[25.4756,54.0188,164.1049],[25.4664,54.0213,180.6219],[25.4664,54.024,189.1005],[25.4617,54.0293,193.0524],[25.448,54.0316,180.6582],[25.4434,54.0342,178.7955],[25.4298,54.0283,172.8403],[25.4298,54.0255,169.7787],[25.4208,54.0197,166.4546],[25.4071,54.0193,170.9745],[25.4026,54.0164,169.2901],[25.4027,54.0137,161.3002],[25.3937,54.0106,154.4871],[25.38,54.0102,145.24],[25.3801,54.0047,143.4378],[25.362,54.0042,147.5499],[25.3573,54.0095,144.6308],[25.3527,54.0121,144.7203],[25.348,54.0202,144.643],[25.3479,54.0257,144.6317],[25.3432,54.0311,145.338],[25.343,54.0588,153.7652],[25.3339,54.0613,175.9594],[25.3203,54.0609,199.0058],[25.3158,54.058,173.769],[25.3158,54.0525,184.5835],[25.3113,54.0524,172.5534],[25.3022,54.0466,176.3274],[25.3023,54.0411,193.4263],[25.2933,54.0353,191.4166],[25.307,54.0274,170.7196],[25.3026,54.019,189.0328],[25.3027,54.0135,181.9696],[25.2893,54.0048,186.2247],[25.2894,53.9993,188.6551],[25.285,53.9937,205.8047],[25.2806,53.9908,199.5083],[25.2761,53.9907,196.6953],[25.2715,53.9933,194.4853],[25.2624,53.993,197.1982],[25.2395,54.0007,172.563],[25.2303,54.006,174.7435],[25.2212,54.0057,159.3421],[25.2032,53.9997,153.4295],[25.2035,53.9887,156.2272],[25.181,53.9825,162.1287],[25.1811,53.977,165.4187],[25.1903,53.9745,161.2844],[25.195,53.9691,149.5112],[25.1997,53.9665,152.2301],[25.1999,53.961,157.2503],[25.1774,53.9549,178.062],[25.1683,53.9546,173.1402],[25.1543,53.9652,149.5039],[25.1542,53.968,154.5485],[25.1495,53.9706,160.6797],[25.1452,53.965,148.8623],[25.15,53.9569,149.7974],[25.1366,53.951,142.2659],[25.1095,53.9475,134.9783],[25.1099,53.9365,150.5615],[25.1057,53.9281,135.3675],[25.1014,53.9225,135.3487],[25.097,53.9196,133.6927],[25.0879,53.9194,133.4593],[25.0835,53.9165,134.3878],[25.0796,53.9027,141.7664],[25.0753,53.8971,139.8554],[25.0709,53.8942,142.7737],[25.0574,53.8911,139.2],[25.0569,53.902,136.5804],[25.0291,53.9122,170.2597],[25.0293,53.9094,154.3824],[25.0248,53.9066,140.5824],[25.0252,53.8983,139.1781],[25.0346,53.8931,135.9593],[25.053,53.8882,144.5633],[25.0577,53.8856,144.7975],[25.058,53.8801,131.955],[25.0536,53.8773,132.6307],[25.049,53.8771,134.0669],[25.0397,53.8823,141.4916],[25.0351,53.8822,144.6838],[25.0353,53.8795,142.1229],[25.0175,53.8707,147.0751],[25.004,53.8676,147.37],[24.9904,53.8672,145.4989],[24.9945,53.8755,143.3769],[25.0033,53.8813,138.4577],[25.003,53.8867,143.2519],[24.9939,53.8865,144.4062],[24.9895,53.8836,148.4457],[24.985,53.8835,151.4594],[24.9802,53.8888,165.9729],[24.9756,53.8887,155.3172],[24.9578,53.8799,154.7917],[24.9487,53.8797,153.9007],[24.9393,53.8849,151.3527],[24.9348,53.8847,155.6877],[24.9352,53.8765,150.8826],[24.9308,53.8737,147.7387],[24.9311,53.8682,150.5177],[24.9497,53.8605,154.08],[24.9502,53.8523,144.8459],[24.9458,53.8494,141.7117],[24.9411,53.852,143.4065],[24.9227,53.8542,152.4758],[24.9236,53.8378,151.4771],[24.9192,53.835,152.1545],[24.9242,53.8269,155.6314],[24.9335,53.8245,154.6081],[24.9479,53.8113,149.1072],[24.9615,53.8117,141.3158],[24.9619,53.8062,146.2844],[24.9575,53.8034,144.0788],[24.949,53.7922,136.391],[24.9493,53.7868,156.7264],[24.9449,53.7839,139.2875],[24.9451,53.7812,136.7285],[24.936,53.7809,129.3314],[24.9316,53.7781,129.2081],[24.9321,53.7699,137.2286],[24.9506,53.7651,128.096],[24.9553,53.7625,128.0741],[24.9557,53.7571,128.6569],[24.9466,53.7568,140.2629],[24.9377,53.7538,132.5823],[24.9378,53.7511,136.4594],[24.9471,53.7486,142.5589],[24.9619,53.7301,151.0052],[24.9622,53.7247,151.8298],[24.9402,53.7131,143.035],[24.9356,53.713,147.5099],[24.936,53.7076,145.0928],[24.9594,53.6975,144.2202],[24.9685,53.6977,138.7157],[24.9681,53.7032,142.3585],[24.9725,53.706,143.3464],[24.9861,53.7064,139.0149],[24.9909,53.7039,140.73],[24.9999,53.7041,140.2912],[25.0043,53.707,139.5582],[25.0134,53.7073,125.1363],[25.0136,53.7046,125.2586],[25.0236,53.6913,125.1628],[25.033,53.6862,123.4193],[25.0421,53.6864,124.1883],[25.0518,53.6786,125.3241],[25.0652,53.6817,123.3624],[25.0656,53.6763,126.2605],[25.0341,53.6699,132.5802],[25.0298,53.6671,134.3322],[25.03,53.6644,135.8756],[25.0351,53.6564,142.8069],[25.0307,53.6536,130.6261],[24.9852,53.6522,131.4741],[24.981,53.6466,133.2629],[24.9812,53.6439,133.2232],[24.986,53.6414,129.0767],[24.9866,53.6333,129.303],[24.9778,53.6276,130.2456],[24.9782,53.6222,127.9918],[24.9925,53.6145,125.8917],[25.0244,53.6155,122.2018],[25.0471,53.618899999999996,120.4364],[25.0473,53.6162,120.9689],[25.052,53.6136,119.7726],[25.0522,53.6109,119.7247],[25.0479,53.6081,121.6649],[25.0485,53.6,118.9316],[25.0533,53.5974,119.3988],[25.0625,53.5977,128.4195],[25.0627,53.595,121.6086],[25.0677,53.5898,126.6597],[25.0681,53.5844,125.1716],[25.0731,53.5791,151.4018],[25.0827,53.574,154.4818],[25.074,53.5683,150.5298],[25.076,53.5441,130.8645],[25.0856,53.539,133.3655],[25.086,53.5336,121.9619],[25.0817,53.5308,113.4051],[25.0954,53.5312,117.041],[25.1131,53.5398,120.4121],[25.1231,53.5293,130.7668],[25.1284,53.5214,117.6794],[25.1243,53.5159,117.4331],[25.1261,53.4944,136.4669],[25.1357,53.4893,123.8289],[25.1359,53.4866,136.7183],[25.1405,53.4867,125.5879],[25.1394,53.5002,120.8626],[25.1437,53.503,121.0439],[25.1421,53.5218,128.9383],[25.16,53.5278,131.5941],[25.1586,53.5439,134.4896],[25.1627,53.5494,119.461],[25.1671,53.5523,128.7232],[25.1854,53.5528,115.2067],[25.1985,53.5613,127.8128],[25.212,53.5644,132.5051],[25.2395,53.5652,120.7128],[25.253,53.5683,137.2202],[25.2574,53.5712,139.1819],[25.27,53.5851,134.8386],[25.2737,53.596,129.7499],[25.278,53.5988,137.9821],[25.2959,53.6048,141.2097],[25.3047,53.6104,138.549],[25.3042,53.6158,119.8133],[25.3086,53.6187,119.3744],[25.3173,53.6243,122.5932],[25.3265,53.6246,125.3702],[25.3306,53.6301,124.8442],[25.3442,53.6332,131.2124],[25.3534,53.6335,130.6751],[25.3621,53.6392,128.0507],[25.3619,53.6419,128.5212],[25.3477,53.6469,123.1657],[25.3378,53.6547,120.7927],[25.3422,53.6575,120.2076],[25.3789,53.6586,140.3887],[25.3883,53.6562,121.9952],[25.4161,53.6543,136.8367]]]]}
,"properties": {"GID_2": "BLR.3.8_1","GID_0": "BLR","country": "Belarus","GID_1": "BLR.3_1","province": "Grodno","NL_NAME_1": "Гродзенская","county": "Lida","VARNAME_2": "NA","NL_NAME_2": "Лідскіраён","TYPE_2": "Raion","ENGTYPE_2": "District","CC_2": "NA","HASC_2": "BY.HR.LD","name": "Lida.county","area_km2": 1527.835,"hist_schema_id": "Elevation0-9000","hist_area_km2": {"125": 616.839,"150": 711.261,"175": 186.282,"200": 13.141,"225": 0.312}}}