{"type":"Feature","properties":{"GID_2":"BLR.2.21_1","GID_0":"BLR","country":"Belarus","GID_1":"BLR.2_1","province":"Gomel","NL_NAME_1":"Гомельская","county":"Žytkavičy","VARNAME_2":"Zhytkavichy|Zhitkovichi","NL_NAME_2":"Жыткавіцкіраён","TYPE_2":"Raion","ENGTYPE_2":"District","CC_2":"NA","HASC_2":"BY.HO.ZK","name":"Žytkavičy.county"},
"geometry":{"type": "MultiPolygon","coordinates": [[[[27.5357,52.151,127.18],[27.5358,52.1429,126.0983],[27.5268,52.1321,125.5611],[27.5314,52.124,126.7489],[27.5314,52.1186,125.5803],[27.527,52.1159,125.8122],[27.527,52.1104,126.4012],[27.5315,52.1023,124.7426],[27.5271,52.0915,125.1047],[27.5272,52.0834,125.707],[27.5407,52.0807,125.989],[27.5452,52.078,126.0637],[27.5633,52.0779,126.1063],[27.5723,52.0752,126.2691],[27.577,52.059,125.7632],[27.5815,52.0563,126.4681],[27.586,52.0536,126.1641],[27.6041,52.0563,125.3705],[27.6132,52.0509,125.8111],[27.6178,52.04,126.1272],[27.6179,52.0265,125.7431],[27.6135,52.0184,126.1227],[27.6001,52.0049,126.6432],[27.5731,51.994,141.1068],[27.5686,51.994,134.382],[27.5372,51.9805,132.3409],[27.5283,51.9751,139.7295],[27.5195,51.9643,135.1681],[27.5198,51.9508,131.1713],[27.5337,51.9346,136.3067],[27.5385,51.9238,136.0081],[27.5388,51.913,133.6709],[27.5262,51.886,132.8516],[27.4956,51.8699,133.1224],[27.5049,51.8619,133.2123],[27.5094,51.8619,133.8635],[27.5278,51.8538,136.6484],[27.5374,51.8431,140.372],[27.5508,51.8431,140.4292],[27.5555,51.8404,135.957],[27.5598,51.8431,135.9881],[27.5552,51.8457,140.3679],[27.5549,51.8511,136.5225],[27.5593,51.8538,135.7633],[27.5772,51.8538,135.6715],[27.5816,51.8565,135.6988],[27.5814,51.8591,135.4733],[27.5991,51.8645,135.3775],[27.6475,51.8832,138.9656],[27.6561,51.8913,133.9747],[27.6558,51.9047,134.1241],[27.6646,51.9128,132.753],[27.6825,51.9182,134.0851],[27.7093,51.929,142.3946],[27.7138,51.9345,135.949],[27.7137,51.9426,133.4161],[27.7271,51.9507,131.3202],[27.7362,51.9507,138.8066],[27.7407,51.9534,139.176],[27.7406,51.9561,132.0271],[27.7542,51.9534,131.8542],[27.7632,51.9561,131.3839],[27.8218,51.9559,130.0564],[27.8442,51.9612,128.6174],[27.8532,51.9584,130.8513],[27.9341,51.9578,129.7523],[27.9476,51.9604,130.5008],[27.9835,51.9628,132.0893],[27.988,51.9654,127.9992],[27.988,51.9681,127.6063],[27.9834,51.9923,132.3754],[27.9969,51.9949,128.1633],[28.0014,52.0002,128.9154],[28.0329,52.0052,133.472],[28.0464,52.0051,127.2382],[28.0509,52.0023,135.4805],[28.0869,52.0019,125.6695],[28.1049,52.0098,125.0948],[28.1184,52.0123,124.9008],[28.1184,52.0096,126.7724],[28.1274,52.0095,130.5177],[28.1319,52.0122,128.9406],[28.1499,52.012,122.75],[28.1589,52.0092,122.7233],[28.1724,52.009,123.7296],[28.1725,52.0144,122.5623],[28.1815,52.0197,138.6841],[28.1815,52.0224,136.8181],[28.1905,52.0276,137.4742],[28.1905,52.0303,132.1852],[28.195,52.0357,141.4952],[28.195,52.0411,138.9465],[28.1996,52.0464,137.2422],[28.1996,52.0491,135.2516],[28.2086,52.0652,130.6647],[28.2131,52.0705,126.1466],[28.2132,52.0786,124.4886],[28.2177,52.0839,127.1538],[28.2177,52.0893,122.5789],[28.1952,52.1031,120.8452],[28.1907,52.1031,121.4441],[28.1817,52.1005,121.7052],[28.1772,52.0952,119.4391],[28.1726,52.0926,118.6466],[28.1636,52.09,121.1714],[28.1591,52.09,120.9524],[28.1501,52.0955,121.0537],[28.1456,52.0956,121.4679],[28.1411,52.0929,120.9705],[28.1411,52.0875,119.6638],[28.1275,52.085,124.5079],[28.123,52.0877,120.1568],[28.123,52.0904,123.8715],[28.114,52.0959,120.9387],[28.096,52.1042,136.4149],[28.096,52.1096,132.2428],[28.1005,52.1122,133.5687],[28.1141,52.1148,141.6521],[28.1276,52.1146,136.8064],[28.1366,52.1172,123.0018],[28.1366,52.1199,123.5943],[28.1321,52.1254,131.3141],[28.0915,52.1258,124.2057],[28.0915,52.1285,124.6385],[28.087,52.1313,124.5806],[28.087,52.1367,127.5297],[28.078,52.1475,148.6548],[28.078,52.1529,134.9764],[28.087,52.1609,144.5721],[28.0915,52.1609,143.7047],[28.0915,52.1582,143.6164],[28.087,52.1502,136.0962],[28.096,52.1447,137.5007],[28.1006,52.1446,143.8163],[28.1006,52.15,134.5816],[28.1051,52.15,139.6874],[28.1051,52.1473,137.9807],[28.1096,52.1499,143.0446],[28.1051,52.1581,135.2592],[28.1096,52.1634,141.048],[28.1051,52.1662,136.8835],[28.1096,52.1715,138.2722],[28.1006,52.1851,141.0536],[28.1007,52.1959,144.9384],[28.0961,52.2041,129.7512],[28.1007,52.2067,129.7848],[28.1052,52.2067,132.977],[28.1097,52.2039,129.0355],[28.1233,52.2092,130.1054],[28.1188,52.2146,129.704],[28.1143,52.2147,129.5557],[28.1052,52.2202,129.5812],[28.1052,52.2256,130.2914],[28.1188,52.2336,150.8161],[28.1098,52.239,146.9847],[28.1189,52.2444,151.5745],[28.1189,52.2471,147.3047],[28.1144,52.2525,142.0994],[28.1144,52.2552,146.5641],[28.1234,52.2605,138.5655],[28.1325,52.2631,156.049],[28.1415,52.2631,139.0983],[28.1551,52.2575,137.9681],[28.1596,52.2521,143.6733],[28.1641,52.2493,150.6405],[28.1687,52.2493,146.5532],[28.1777,52.2546,149.5804],[28.1777,52.26,140.8511],[28.1551,52.2656,142.766],[28.1506,52.2684,138.5497],[28.1461,52.2738,142.0947],[28.1462,52.2928,144.993],[28.1417,52.2982,140.5388],[28.1327,52.3226,135.1499],[28.1327,52.3335,147.4284],[28.1373,52.3361,145.5266],[28.1509,52.3522,139.6544],[28.1691,52.3683,147.0436],[28.1963,52.3599,147.3075],[28.2099,52.3598,146.3091],[28.2281,52.3731,161.1666],[28.2372,52.3757,152.3307],[28.2417,52.3811,156.49],[28.2418,52.3865,159.0326],[28.2509,52.4,158.8347],[28.2555,52.4108,158.8278],[28.2646,52.4215,165.203],[28.2692,52.4215,168.3166],[28.2828,52.4322,148.2986],[28.3055,52.4401,170.6934],[28.3101,52.4455,154.5803],[28.3101,52.4509,146.014],[28.3056,52.4563,149.551],[28.3012,52.4754,152.9884],[28.2922,52.4863,153.7128],[28.2968,52.4917,165.6515],[28.2286,52.4815,172.6112],[28.2287,52.4842,168.4856],[28.2241,52.4897,168.7384],[28.2106,52.5006,171.6604],[28.1742,52.4982,160.8328],[28.156,52.493,156.3334],[28.156,52.4957,157.1107],[28.1515,52.4985,154.4101],[28.1515,52.5039,163.1496],[28.147,52.5093,174.2654],[28.1471,52.531,172.3624],[28.1425,52.5338,173.4302],[28.1289,52.5339,169.0172],[28.1243,52.5312,160.0273],[28.0924,52.5288,160.1423],[28.0788,52.5262,169.088],[28.0742,52.5289,164.1723],[28.0606,52.5236,154.9239],[28.0287,52.5212,166.6972],[28.0105,52.524,152.8887],[28.006,52.5214,164.6985],[27.9923,52.5188,162.127],[27.9923,52.5079,146.9467],[27.9968,52.5052,144.7069],[27.9968,52.4998,142.5019],[28.0014,52.4916,146.6059],[27.9968,52.4835,140.592],[27.9832,52.4755,148.6098],[27.9831,52.4647,140.5286],[27.9877,52.4619,138.6799],[27.9877,52.4538,136.2143],[27.9786,52.4404,135.8506],[27.9695,52.4404,141.4884],[27.9559,52.4378,136.9503],[27.9377,52.4326,138.1031],[27.9104,52.4328,135.4932],[27.8604,52.4385,135.3852],[27.8513,52.4413,135.2346],[27.7467,52.442,148.3139],[27.7422,52.4447,143.9626],[27.7376,52.4501,144.9851],[27.7376,52.4582,141.8025],[27.7194,52.4692,136.1726],[27.7103,52.48,135.7284],[27.7057,52.4882,136.5651],[27.7011,52.4909,135.9199],[27.692,52.4936,136.0391],[27.6557,52.4938,136.0534],[27.6511,52.4965,138.7166],[27.6466,52.502,148.2395],[27.6466,52.5047,145.542],[27.6511,52.5128,142.6363],[27.6511,52.5155,139.3943],[27.6465,52.5209,139.9602],[27.6419,52.5236,137.6954],[27.6419,52.5264,137.3149],[27.6555,52.5344,138.4429],[27.6555,52.5371,137.3729],[27.6464,52.5399,138.0638],[27.6418,52.5507,142.1901],[27.6372,52.5534,147.7724],[27.6054,52.5509,155.0228],[27.5964,52.5455,160.3673],[27.5873,52.5455,156.3098],[27.5827,52.5482,159.2007],[27.5827,52.5537,151.5674],[27.5781,52.556399999999996,150.526],[27.5645,52.5591,154.8573],[27.5645,52.5537,155.4127],[27.5555,52.5456,155.9707],[27.551,52.5429,155.1019],[27.5374,52.5403,139.2217],[27.5238,52.5403,145.3153],[27.5101,52.5431,143.3887],[27.4965,52.5485,140.2551],[27.4919,52.5485,139.5973],[27.4829,52.5432,142.7047],[27.4739,52.5296,140.244],[27.4649,52.5297,139.5963],[27.4467,52.5351,139.8709],[27.433,52.5433,140.521],[27.424,52.5406,139.6336],[27.3925,52.519,153.0859],[27.3926,52.5109,154.359],[27.3836,52.5055,155.6842],[27.3654,52.5082,148.9914],[27.361,52.5028,150.9857],[27.361,52.4974,146.9068],[27.3702,52.4866,154.4725],[27.384,52.4649,149.1597],[27.3841,52.4595,156.5626],[27.3751,52.4541,146.2857],[27.3706,52.446,143.9738],[27.3572,52.4379,149.6651],[27.3347,52.4325,150.457],[27.3168,52.4163,136.5785],[27.3078,52.4109,135.0527],[27.2898,52.4055,134.9331],[27.2854,52.3973,135.1071],[27.2632,52.373,134.7242],[27.2768,52.3648,134.0397],[27.2769,52.3567,133.9512],[27.2726,52.3459,134.9241],[27.2727,52.3378,134.0563],[27.2817,52.3351,134.4429],[27.3222,52.3378,133.3365],[27.3718,52.3378,136.3642],[27.3854,52.3351,133.3994],[27.3855,52.3243,134.7537],[27.3946,52.3188,142.7478],[27.4081,52.3161,132.2345],[27.4172,52.3107,131.4545],[27.4173,52.2999,135.5452],[27.4309,52.2972,131.7087],[27.4489,52.2971,138.0871],[27.476,52.2998,137.3723],[27.4805,52.2971,140.1384],[27.4805,52.2944,133.9593],[27.4851,52.2917,139.7358],[27.4896,52.2917,135.8194],[27.4986,52.2862,139.0697],[27.5032,52.2781,134.9207],[27.5212,52.2808,140.1688],[27.5258,52.278,141.2887],[27.5258,52.2699,139.918],[27.5439,52.2699,142.3778],[27.5439,52.2645,148.1169],[27.5395,52.2618,139.3533],[27.5395,52.2564,136.5194],[27.544,52.2537,139.3294],[27.5576,52.2563,138.4979],[27.5621,52.2536,140.0291],[27.5622,52.2401,140.3245],[27.5577,52.2374,138.6491],[27.5577,52.2293,135.9483],[27.5713,52.2212,141.1719],[27.5714,52.2185,137.185],[27.5669,52.2158,146.5913],[27.5533,52.2158,132.4333],[27.5488,52.2131,135.924],[27.5444,52.2024,135.3099],[27.5399,52.197,134.0024],[27.54,52.1943,135.1129],[27.5536,52.1834,137.1098],[27.5536,52.178,134.6573],[27.5401,52.1699,128.8928],[27.5447,52.1645,127.7406],[27.5357,52.1591,129.6088],[27.5357,52.1564,127.6154],[27.5402,52.1537,128.2518],[27.5403,52.151,130.2482],[27.5357,52.151,127.18]]]]}}