{"type":"Feature","properties":{"GID_2":"BLR.4.11_1","GID_0":"BLR","country":"Belarus","GID_1":"BLR.4_1","province":"Mogilev","NL_NAME_1":"Магілёўская","county":"Khotsimsk","VARNAME_2":"Hotimsk","NL_NAME_2":"Хоцімскіраён","TYPE_2":"Raion","ENGTYPE_2":"District","CC_2":"NA","HASC_2":"BY.MA.HO","name":"Khotsimsk.county"},
"geometry":{"type": "MultiPolygon","coordinates": [[[[32.3956,53.1849,174.3973],[32.4211,53.184,186.1463],[32.4314,53.1864,184.1385],[32.4472,53.194,186.1388],[32.4914,53.228,165.3889],[32.5117,53.26,180.2525],[32.5283,53.2732,160.004],[32.5298,53.2813,174.5232],[32.5217,53.2867,175.1903],[32.5172,53.2867,180.3609],[32.509,53.2921,178.8475],[32.5093,53.2948,177.7818],[32.5235,53.2974,185.8617],[32.5325,53.2974,173.8453],[32.5411,53.2947,171.5911],[32.5448,53.2893,177.4009],[32.5583,53.2892,180.636],[32.5682,53.2945,178.9103],[32.5772,53.2944,186.4468],[32.59,53.2889,166.1507],[32.599,53.2888,186.2494],[32.6039,53.2915,181.7784],[32.6043,53.2942,171.3184],[32.6096,53.2996,181.6465],[32.6051,53.2996,177.0324],[32.6153,53.3077,185.8771],[32.6248,53.3103,184.7613],[32.6301,53.3157,178.6022],[32.6312,53.3238,184.0398],[32.6227,53.3294,185.0669],[32.623,53.3322,174.8513],[32.6282,53.3376,173.7596],[32.6328,53.3376,179.1966],[32.6688,53.3183,174.6804],[32.6726,53.3184,174.1259],[32.6838,53.3283,175.5157],[32.6879,53.3346,189.3905],[32.6923,53.3374,182.3874],[32.7037,53.3376,186.3107],[32.7136,53.3325,181.5287],[32.713,53.3298,181.557],[32.7323,53.3301,183.3218],[32.7419,53.3327,188.9947],[32.7421,53.3354,184.1414],[32.7473,53.3409,188.6315],[32.748,53.349,180.0855],[32.7399,53.3622,185.2144],[32.7426,53.3729,181.7705],[32.7496,53.3895,175.3589],[32.7583,53.3945,171.6501],[32.7588,53.398,166.0928],[32.7819,53.3948,173.7224],[32.7896,53.3949,169.7772],[32.7944,53.3977,168.545],[32.7946,53.4005,169.8952],[32.7861,53.4062,185.6726],[32.7682,53.4093,175.2798],[32.7608,53.4123,176.3008],[32.7576,53.418,169.0729],[32.7588,53.4266,173.4612],[32.763,53.4351,177.6017],[32.7581,53.4464,170.1127],[32.7675,53.4521,175.5376],[32.7682,53.4635,173.5768],[32.7639,53.4664,176.3102],[32.7458,53.4631,175.0365],[32.7403,53.4576,173.0587],[32.7133,53.4602,176.6281],[32.6985,53.4573,174.2129],[32.6685,53.4624,168.2064],[32.6634,53.465,169.0715],[32.6631,53.4705,171.7146],[32.6675,53.4814,169.8971],[32.6672,53.4896,173.5472],[32.6577,53.4951,176.9892],[32.643,53.4978,173.6327],[32.6387,53.4951,173.006],[32.6346,53.4898,173.6826],[32.6351,53.4761,191.6663],[32.6265,53.4681,185.8081],[32.6178,53.4683,172.1004],[32.6092,53.4796,174.2715],[32.6093,53.4907,178.3062],[32.6051,53.4936,174.168],[32.6017,53.505,177.0586],[32.5978,53.508,179.7347],[32.5769,53.5089,184.8038],[32.5608,53.5152,176.6508],[32.5412,53.5302,170.6307],[32.5241,53.5339,170.4734],[32.5205,53.5426,172.7296],[32.4984,53.5522,179.4867],[32.4761,53.5648,183.1748],[32.4626,53.5741,182.1986],[32.4494,53.5863,186.5219],[32.4388,53.5784,187.9101],[32.428,53.5678,184.1319],[32.4268,53.5565,187.7745],[32.4166,53.5514,192.2979],[32.3973,53.5496,188.7356],[32.3688,53.5509,201.1937],[32.3591,53.5485,214.2166],[32.3585,53.5429,197.7255],[32.3536,53.5403,206.6018],[32.3344,53.5383,187.6428],[32.3342,53.5355,190.0793],[32.3384,53.5298,182.92],[32.3376,53.5214,203.4166],[32.3169,53.5027,202.8779],[32.3167,53.5,196.7086],[32.3255,53.493899999999996,191.1315],[32.3249,53.4884,201.5176],[32.3101,53.4807,205.6723],[32.2888,53.4539,199.8858],[32.2929,53.4481,186.0369],[32.292,53.4398,182.4624],[32.2811,53.4236,181.8759],[32.28,53.4125,183.3074],[32.2746,53.4044,178.3765],[32.2884,53.4036,179.3017],[32.2928,53.4006,176.6045],[32.2925,53.3978,176.5135],[32.2873,53.3925,173.7037],[32.2862,53.3814,174.2327],[32.2992,53.3723,173.6138],[32.2713,53.371,174.3413],[32.2664,53.3685,174.5269],[32.2612,53.3631,171.7194],[32.2607,53.3576,169.4334],[32.2424,53.3585,164.5889],[32.2375,53.356,161.8339],[32.237,53.3504,162.4671],[32.2459,53.3472,166.2662],[32.2453,53.3416,163.6205],[32.258,53.3297,167.3366],[32.2617,53.3211,159.5423],[32.2743,53.3091,157.5777],[32.2783,53.3033,147.0237],[32.2775,53.2949,167.5402],[32.2815,53.289,172.1718],[32.2901,53.2829,168.7293],[32.2898,53.2801,160.6477],[32.2846,53.2748,169.0849],[32.2658,53.2703,171.9967],[32.2655,53.2675,162.06],[32.2692,53.2588,166.9901],[32.2949,53.2404,158.8651],[32.3247,53.2161,190.6577],[32.3359,53.196,182.4933],[32.3452,53.1982,183.2831],[32.3491,53.1952,182.7427],[32.3487,53.1925,184.0859],[32.3521,53.1869,179.1026],[32.3559,53.1839,178.1376],[32.3855,53.1881,175.3256],[32.3956,53.1849,174.3973]]]]}}