{"type": "Feature","bbox": [31.089,53.4249,31.7202,53.8188],"geometry": {"type": "MultiPolygon","coordinates": [[[[31.1432,53.6773,196.6382],[31.1428,53.6718,182.618],[31.1374,53.6609,174.1884],[31.1366,53.6499,179.9751],[31.154,53.6386,173.1655],[31.1536,53.6331,170.166],[31.1439,53.625,170.8964],[31.1437,53.6222,173.2406],[31.1345,53.6224,166.7133],[31.1225,53.6446,180.9845],[31.1088,53.6448,176.5197],[31.0993,53.6395,193.3588],[31.1108,53.609,181.983],[31.1195,53.6034,177.2856],[31.1327,53.5976,178.3653],[31.1373,53.5975,180.7251],[31.1369,53.592,183.0038],[31.1137,53.587,159.8183],[31.1133,53.5815,155.1037],[31.1034,53.5706,160.8069],[31.0894,53.5654,164.7932],[31.089,53.5599,164.4493],[31.1158,53.5539,156.5027],[31.1506,53.5312,176.2162],[31.1682,53.5227,176.5639],[31.2086,53.511,160.0365],[31.213,53.5081,142.5329],[31.2123,53.4999,149.7215],[31.197,53.4808,134.4633],[31.196,53.4671,133.1513],[31.2001,53.4615,141.7893],[31.2279,53.4638,163.4711],[31.2414,53.4581,155.9427],[31.2361,53.4499,173.304],[31.2356,53.4444,168.0553],[31.2301,53.4334,168.7399],[31.2299,53.4307,171.2619],[31.2343,53.4279,168.5338],[31.248,53.4249,165.4147],[31.2584,53.4385,167.3671],[31.2633,53.4412,172.4255],[31.2726,53.4412,163.0758],[31.2771,53.4383,165.2557],[31.2916,53.441,163.9487],[31.3122,53.4576,177.5168],[31.3225,53.4632,170.9137],[31.3274,53.4632,150.9602],[31.3318,53.4576,168.2749],[31.3262,53.4493,160.4806],[31.3257,53.4437,177.544],[31.3304,53.441,164.1203],[31.3497,53.4382,174.6519],[31.3694,53.441,165.1638],[31.3839,53.4409,148.6769],[31.4026,53.4324,158.3784],[31.436,53.4289,163.1867],[31.4453,53.4258,166.2219],[31.4884,53.4328,150.5762],[31.4929,53.4299,159.732],[31.5304,53.4347,185.5238],[31.5485,53.4347,172.6171],[31.5667,53.4403,170.477],[31.5901,53.454,182.6455],[31.6034,53.454,173.6242],[31.642,53.4406,179.9098],[31.6508,53.4406,177.3544],[31.6555,53.4433,188.6105],[31.6561,53.4487,192.8597],[31.6478,53.454,184.027],[31.6627,53.4701,186.1902],[31.6737,53.4915,202.4108],[31.6828,53.4942,202.8345],[31.6922,53.4995,198.1833],[31.7057,53.4994,200.2768],[31.7104,53.502,194.2653],[31.7195,53.502,193.9317],[31.7202,53.51,181.3901],[31.7119,53.5181,203.0372],[31.6769,53.5265,187.3121],[31.6783,53.5426,181.0923],[31.6832,53.548,182.0866],[31.7061,53.5531,191.3566],[31.7108,53.5557,182.3307],[31.6976,53.5586,183.3025],[31.6934,53.5613,181.0047],[31.6844,53.5614,177.2821],[31.6756,53.5643,162.1445],[31.6489,53.5674,167.7693],[31.6491,53.5701,171.3385],[31.6592,53.5835,167.1507],[31.6596,53.5889,164.0251],[31.6511,53.5946,158.353],[31.5917,53.5849,156.1555],[31.5874,53.5877,157.4292],[31.5876,53.5904,155.1104],[31.5979,53.6067,139.0136],[31.6073,53.6119,138.2558],[31.6114,53.6064,138.7207],[31.62,53.6007,138.3388],[31.6245,53.6006,139.8895],[31.6384,53.6057,139.5061],[31.6296,53.6087,139.9738],[31.6215,53.6198,139.3263],[31.6127,53.6227,149.6297],[31.608,53.6201,148.721],[31.5947,53.6232,153.7186],[31.5858,53.6262,156.1864],[31.5771,53.632,178.4555],[31.5647,53.6489,167.2575],[31.5656,53.66,182.323],[31.5527,53.6715,182.4207],[31.5721,53.6846,165.0213],[31.5723,53.6873,165.3427],[31.5679,53.6903,165.2489],[31.5255,53.6782,164.3134],[31.4973,53.674,164.9776],[31.4876,53.6689,160.1504],[31.4503,53.6706,163.0951],[31.4508,53.6761,166.1084],[31.3998,53.6911,172.8627],[31.3814,53.6995,186.1755],[31.3547,53.7246,176.4529],[31.3549,53.7273,177.4125],[31.3602,53.7329,175.535],[31.3751,53.7385,182.7175],[31.3755,53.744,172.7789],[31.3618,53.7524,190.2159],[31.3575,53.7579,181.3744],[31.3394,53.7718,188.2867],[31.3397,53.7745,194.5176],[31.3498,53.7802,197.6729],[31.3512,53.7969,169.2232],[31.3466,53.7996,181.0311],[31.3474,53.808,178.6043],[31.3377,53.8079,179.1529],[31.3049,53.8188,178.5314],[31.2851,53.813,175.6665],[31.2748,53.8045,183.3518],[31.2693,53.7961,192.1131],[31.269,53.7933,183.4382],[31.2582,53.7792,183.742],[31.2532,53.7764,184.1368],[31.2437,53.7762,179.4925],[31.2439,53.779,185.2377],[31.2394,53.7818,179.3298],[31.23,53.7817,183.0688],[31.211,53.7789,184.4336],[31.197,53.7789,193.1459],[31.1872,53.7734,202.1107],[31.1862,53.7596,189.5318],[31.1715,53.7487,204.6847],[31.168,53.7018,193.9453],[31.1534,53.691,182.9486],[31.1531,53.6882,177.7937],[31.1575,53.6854,193.6591],[31.1573,53.6826,182.4188],[31.1432,53.6773,196.6382]]]]}
,"properties": {"GID_2": "BLR.4.6_1","GID_0": "BLR","country": "Belarus","GID_1": "BLR.4_1","province": "Mogilev","NL_NAME_1": "Магілёўская","county": "Cherykaw","VARNAME_2": "Cherikov","NL_NAME_2": "Чэрыкаўскіраён","TYPE_2": "Raion","ENGTYPE_2": "District","CC_2": "NA","HASC_2": "BY.MA.CR","name": "Cherykaw.county","area_km2": 1022.2847,"hist_schema_id": "Elevation0-9000","hist_area_km2": {"125": 38.4097,"150": 266.1361,"175": 579.6438,"200": 138.0825,"225": 0.0125}}}