{"type":"Feature","properties":{"GID_2":"BLR.4.3_1","GID_0":"BLR","country":"Belarus","GID_1":"BLR.4_1","province":"Mogilev","NL_NAME_1":"Магілёўская","county":"Bialynichy","VARNAME_2":"Belynichi","NL_NAME_2":"Бялыніцкіраён","TYPE_2":"Raion","ENGTYPE_2":"District","CC_2":"NA","HASC_2":"BY.MA.BL","name":"Bialynichy.county"},
"geometry":{"type": "MultiPolygon","coordinates": [[[[29.3987,53.7157,171.5786],[29.4261,53.7018,170.9928],[29.4259,53.6963,174.3394],[29.4351,53.6935,188.175],[29.4628,53.6932,185.0076],[29.4677,53.7013,181.0644],[29.4632,53.7068,177.489],[29.468,53.7122,174.0087],[29.4683,53.7204,174.054],[29.4637,53.7232,174.4118],[29.4593,53.7287,174.9927],[29.464,53.7314,175.6207],[29.464,53.7341,175.6823],[29.4687,53.7368,177.5496],[29.501,53.7337,194.4411],[29.5057,53.7363,183.8311],[29.5061,53.7473,185.594],[29.5108,53.7499,177.4553],[29.52,53.7498,181.5836],[29.5342,53.7606,187.2999],[29.5389,53.7605,186.9409],[29.5434,53.7577,196.0981],[29.5431,53.7495,186.3948],[29.5569,53.7466,169.9907],[29.5939,53.7462,195.3401],[29.6033,53.7515,197.6577],[29.608,53.7515,191.2015],[29.64,53.7429,191.5198],[29.677,53.7424,185.8056],[29.6959,53.7531,190.7637],[29.7051,53.753,181.6277],[29.7004,53.7503,175.0385],[29.7048,53.7448,192.4994],[29.7188,53.7473,177.7655],[29.7233,53.7446,172.6994],[29.7232,53.7418,184.5976],[29.7185,53.7392,186.8583],[29.7182,53.731,168.8073],[29.732,53.7308,169.45],[29.7368,53.7335,171.2935],[29.7414,53.7334,187.0002],[29.7408,53.717,186.0105],[29.7361,53.7143,179.1321],[29.7362,53.7171,185.4466],[29.7268,53.7145,168.5205],[29.7221,53.7118,167.3462],[29.7265,53.7035,182.6508],[29.7256,53.679,185.3416],[29.73,53.6735,176.7377],[29.7394,53.6788,184.4453],[29.7488,53.681399999999996,182.2298],[29.7676,53.6921,173.7186],[29.791,53.7,160.7318],[29.814,53.6996,146.985],[29.8187,53.7023,146.915],[29.8052,53.7107,170.55],[29.7959,53.7081,174.6363],[29.7914,53.7109,173.0688],[29.7783,53.7329,173.1084],[29.7695,53.743899999999996,184.1231],[29.7696,53.7467,183.5539],[29.7792,53.7575,169.6148],[29.7795,53.7657,168.9874],[29.7659,53.774,189.9787],[29.7802,53.7848,187.7296],[29.7803,53.7875,182.6179],[29.7758,53.793,150.1779],[29.7761,53.8012,149.8397],[29.7808,53.8039,158.3851],[29.7855,53.8038,179.0848],[29.79,53.801,184.2087],[29.7987,53.7873,179.1104],[29.8126,53.7871,169.3501],[29.8173,53.7897,171.4577],[29.8175,53.7952,163.3661],[29.8085,53.8008,169.3748],[29.8227,53.8115,168.8931],[29.8182,53.8143,163.3041],[29.8184,53.8198,165.0545],[29.828,53.8305,161.0446],[29.833,53.8387,169.5167],[29.8944,53.8733,172.0972],[29.899,53.8732,175.583],[29.8985,53.8596,187.5395],[29.9125,53.8621,175.3775],[29.9171,53.8621,174.188],[29.9216,53.8593,180.9908],[29.9263,53.8619,181.3407],[29.9264,53.8647,177.1322],[29.9314,53.8728,173.4473],[29.9268,53.8756,180.7691],[29.9363,53.8809,185.9333],[29.9411,53.8863,186.3501],[29.9738,53.894,211.4111],[29.9974,53.9073,183.7786],[30.0068,53.9098,185.5409],[30.0253,53.9095,204.5145],[30.0347,53.9149,187.7028],[30.0348,53.9176,188.2556],[30.0215,53.931399999999996,200.8412],[30.0308,53.934,199.7965],[30.0401,53.9339,189.1993],[30.054,53.9364,188.221],[30.0632,53.9335,200.9703],[30.0676,53.928,204.4196],[30.0721,53.9251,187.934],[30.086,53.9276,188.3045],[30.0816,53.9332,195.8222],[30.0592,53.9499,194.6404],[30.0924,53.9711,187.0775],[30.0933,53.9956,189.6941],[30.103,54.0063,192.0721],[30.0849,54.0175,187.0608],[30.0851,54.0229,188.6592],[30.1083,54.0252,198.7368],[30.127,54.0303,188.7179],[30.1316,54.0302,190.6068],[30.1318,54.0357,188.1454],[30.1276,54.0466,189.8067],[30.1232,54.0522,189.2291],[30.1233,54.0549,189.3864],[30.1143,54.0605,196.1907],[30.1097,54.0606,200.4252],[30.1002,54.0553,191.9585],[30.1,54.0499,187.9376],[30.0719,54.0395,194.1868],[30.0488,54.0399,198.1705],[30.0396,54.0428,201.0847],[30.0304,54.043,199.4714],[30.0214,54.0513,199.4043],[30.0171,54.0595,192.2656],[30.0036,54.0706,179.6022],[29.9944,54.0708,178.7706],[29.9896,54.0682,177.1976],[29.985,54.0682,178.3676],[29.9759,54.0738,186.5931],[29.976,54.0766,192.4892],[29.9808,54.0792,183.7592],[29.9854,54.0791,193.6059],[29.9949,54.0844,198.5045],[29.995,54.0871,194.404],[29.981,54.0846,183.6373],[29.9765,54.0901,178.2614],[29.9813,54.0928,179.7162],[29.9998,54.0925,197.2475],[30.0045,54.0951,204.5751],[30.0047,54.1005,196.3071],[30.0001,54.1006,198.7081],[29.9773,54.1119,179.8195],[29.9729,54.1174,175.0213],[29.9638,54.123,177.5383],[29.9499,54.1232,175.735],[29.945,54.1152,175.2285],[29.9446,54.1043,177.1133],[29.9351,54.099,172.3244],[29.898,54.0969,190.9284],[29.833,54.0979,205.4937],[29.8193,54.1035,198.8889],[29.8054,54.1037,195.3848],[29.8008,54.1065,191.9399],[29.7964,54.1148,185.6935],[29.7968,54.1257,187.4763],[29.7832,54.134,195.8116],[29.7784,54.1314,211.0186],[29.7733,54.1178,182.7128],[29.7452,54.11,174.8214],[29.7404,54.1074,193.1897],[29.7356,54.102,173.1414],[29.7354,54.0965,168.4001],[29.707,54.0806,166.5316],[29.7021,54.0724,168.2197],[29.6833,54.0672,178.0278],[29.674,54.0674,167.8493],[29.6602,54.0703,165.3829],[29.6602,54.073,172.4584],[29.6557,54.0758,190.8814],[29.6232,54.0762,192.2184],[29.6138,54.0736,192.4749],[29.4975,54.075,189.1275],[29.4742,54.0725,203.0769],[29.4369,54.073,204.1326],[29.4364,54.0566,206.3223],[29.427,54.0512,186.3987],[29.4269,54.0485,199.4023],[29.4407,54.0429,193.3145],[29.4406,54.0402,197.9702],[29.3986,54.0352,185.3994],[29.3798,54.0299,187.9892],[29.375,54.0245,184.9869],[29.361,54.0219,184.3845],[29.3468,54.0139,190.8163],[29.3467,54.0112,198.2672],[29.3419,54.0058,196.0683],[29.3418,54.0003,189.6344],[29.3509,53.9948,200.2343],[29.3742,53.9945,186.8181],[29.3788,53.9917,182.4384],[29.3781,53.9672,184.7727],[29.3638,53.9564,191.2435],[29.3684,53.9536,186.4979],[29.3823,53.9535,203.1618],[29.3822,53.9507,198.5423],[29.3868,53.9479,199.8631],[29.386,53.9207,198.8378],[29.3905,53.9151,194.7777],[29.4041,53.9041,187.6],[29.4083,53.8876,191.5737],[29.4035,53.8822,190.7851],[29.3895,53.8797,184.4426],[29.3847,53.8743,191.086],[29.3846,53.8715,199.3851],[29.4123,53.8658,196.6216],[29.4122,53.8603,192.3743],[29.4028,53.8577,193.998],[29.3889,53.8578,196.2271],[29.3796,53.8552,193.9603],[29.3748,53.8498,179.0025],[29.3747,53.8471,176.6449],[29.3792,53.8416,183.4876],[29.3884,53.8414,192.2288],[29.3978,53.8441,197.1045],[29.4119,53.8521,196.9832],[29.4166,53.8548,182.8561],[29.4214,53.8602,197.7195],[29.4261,53.8601,184.4777],[29.4306,53.8574,185.9337],[29.4258,53.8519,205.6393],[29.4212,53.852,186.2711],[29.4165,53.8493,183.2455],[29.4019,53.8276,212.5795],[29.374,53.8225,185.4516],[29.3693,53.8198,183.4],[29.3738,53.817,196.6947],[29.4294,53.8164,190.4085],[29.434,53.8136,204.2654],[29.4339,53.8109,209.7138],[29.443,53.8053,189.1061],[29.4523,53.8052,202.8408],[29.4571,53.8106,209.1911],[29.4709,53.8077,182.7734],[29.4707,53.8023,179.9858],[29.4753,53.7995,180.6761],[29.4984,53.7992,191.44],[29.5073,53.7882,193.7656],[29.5071,53.78,181.3791],[29.4977,53.7747,173.6575],[29.4421,53.7753,185.8496],[29.4327,53.77,175.1886],[29.4281,53.77,172.2929],[29.4097,53.7757,174.4102],[29.4005,53.7758,170.1314],[29.3958,53.7731,172.2048],[29.3863,53.765,187.2725],[29.3862,53.7623,187.9051],[29.3907,53.7595,191.6148],[29.4045,53.7566,194.9927],[29.4231,53.7564,193.209],[29.4413,53.748,173.9307],[29.4412,53.7453,182.8828],[29.4365,53.7426,194.5719],[29.3995,53.743,175.0198],[29.3901,53.7377,183.2182],[29.39,53.735,182.4187],[29.3989,53.7212,176.3446],[29.3987,53.7157,171.5786]]]]}}