{"type": "Feature","bbox": [26.3893,52.7541,27.0343,53.1711],"geometry": {"type": "MultiPolygon","coordinates": [[[[27.017,52.7895,152.2036],[27.0168,52.7977,151.8368],[27.0213,52.8004,158.865],[27.0212,52.8058,159.3397],[27.0257,52.8085,168.7049],[27.0255,52.8167,169.3554],[27.03,52.8194,153.1572],[27.0298,52.8275,149.0],[27.0343,52.8329,149.0],[27.0206,52.8383,175.5112],[26.9888,52.8409,151.0],[26.9752,52.8409,151.0],[26.9707,52.8381,151.0],[26.9479,52.8462,164.1073],[26.9343,52.8461,165.7527],[26.9252,52.8488,151.2219],[26.9249,52.8624,154.3048],[26.9156,52.8731,151.8873],[26.9064,52.8785,151.6466],[26.9064,52.8812,151.8663],[26.9108,52.884,159.2663],[26.9108,52.8867,169.1469],[26.9061,52.8921,153.0413],[26.8831,52.9082,167.5886],[26.8831,52.9109,159.5913],[26.8692,52.9244,160.7226],[26.8691,52.9299,162.2986],[26.8734,52.938,161.4336],[26.8868,52.9462,169.3727],[26.8912,52.9516,170.0314],[26.8866,52.957,170.923],[26.8864,52.9652,169.9823],[26.8999,52.9679,169.5732],[26.8998,52.9761,163.0413],[26.886,52.9814,175.1686],[26.886,52.9841,172.3805],[26.8904,52.9869,169.0595],[26.8995,52.9869,163.392],[26.8993,52.9978,162.8031],[26.8902,53.0004,165.8701],[26.8811,52.9977,169.6121],[26.8583,53.0057,181.4599],[26.8263,53.0137,185.1207],[26.7989,53.0244,181.917],[26.7987,53.0325,179.6802],[26.8032,53.0352,180.9287],[26.812,53.0461,181.7823],[26.8209,53.0516,185.7171],[26.8208,53.0543,186.3121],[26.8162,53.057,185.7039],[26.8026,53.0569,182.6335],[26.798,53.0596,179.1263],[26.8159,53.0706,186.1177],[26.8159,53.0733,188.8293],[26.8067,53.0759,184.2941],[26.8066,53.0786,183.9817],[26.8156,53.0841,208.5508],[26.8155,53.0895,189.7775],[26.8243,53.1004,187.6156],[26.8288,53.1032,191.1724],[26.8287,53.1086,200.5428],[26.8196,53.1086,195.7581],[26.7922,53.1138,188.8545],[26.783,53.1192,204.1683],[26.7784,53.1192,204.4716],[26.7651,53.1082,186.7932],[26.7607,53.1028,190.9387],[26.7562,53.1,198.3869],[26.7517,53.1,200.2858],[26.738,53.1054,208.7975],[26.7378,53.1135,216.5048],[26.724,53.1215,230.025],[26.7105,53.1187,212.9302],[26.6881,53.1105,227.3182],[26.679,53.1104,219.3654],[26.6699,53.1131,213.7856],[26.6242,53.1344,185.7008],[26.5971,53.1397,190.2572],[26.5878,53.1477,195.5148],[26.5877,53.1504,194.894],[26.5742,53.1503,196.5498],[26.5695,53.1584,197.9975],[26.565,53.1584,196.137],[26.5607,53.153,196.4358],[26.57,53.1422,199.7622],[26.5701,53.1395,199.1245],[26.5612,53.1367,204.2824],[26.5478,53.1366,223.8137],[26.5386,53.1447,211.2445],[26.5296,53.1446,210.3094],[26.5163,53.1418,215.2695],[26.5119,53.139,215.8898],[26.5028,53.1444,214.8377],[26.498,53.1525,215.9062],[26.4843,53.1632,196.3854],[26.4798,53.1632,194.7909],[26.4799,53.1605,194.4951],[26.4755,53.1577,196.8761],[26.4754,53.1604,199.449],[26.4572,53.1711,201.3533],[26.4439,53.1711,197.8758],[26.4353,53.1629,192.8301],[26.4265,53.1628,200.7175],[26.4266,53.1601,198.4339],[26.431,53.1601,196.6545],[26.4588,53.1306,197.6216],[26.4769,53.1226,204.1803],[26.4725,53.1198,205.8833],[26.4683,53.1144,208.8435],[26.4684,53.1117,207.422],[26.4778,53.0982,200.3565],[26.4912,53.0956,202.2389],[26.5089,53.0984,193.4919],[26.5135,53.0957,195.0671],[26.5139,53.0849,203.0699],[26.5229,53.0823,207.3752],[26.5276,53.0769,212.4135],[26.5277,53.0715,210.3626],[26.5239,53.0552,221.3392],[26.5196,53.0498,217.4448],[26.5108,53.0497,212.1306],[26.4927,53.0577,203.9465],[26.466,53.063,198.1575],[26.4575,53.0575,202.1198],[26.4621,53.0521,212.5675],[26.458,53.044,191.0148],[26.463,53.0305,192.7723],[26.4636,53.017,180.6496],[26.4593,53.0142,178.0324],[26.446,53.0168,187.9443],[26.4415,53.0195,187.4617],[26.4283,53.0193,189.2867],[26.424,53.0166,184.1158],[26.4243,53.0085,184.2366],[26.4156,53.0057,195.367],[26.4023,53.0055,205.5613],[26.3893,52.9999,226.6787],[26.3897,52.9918,218.2406],[26.399,52.9811,211.7055],[26.4222,52.957,217.755],[26.4357,52.9518,186.2759],[26.4451,52.9383,183.4034],[26.4454,52.9302,182.9366],[26.45,52.9276,182.5822],[26.4588,52.9276,175.1938],[26.4678,52.9223,165.3511],[26.468,52.9169,168.482],[26.4551,52.9114,183.4033],[26.442,52.9085,176.0683],[26.4293,52.8975,171.0411],[26.4296,52.8894,170.5086],[26.4167,52.8839,168.3899],[26.4038,52.8756,177.3575],[26.3953,52.8673,165.7824],[26.3957,52.8592,183.9784],[26.4096,52.8459,181.6213],[26.4273,52.8434,174.7107],[26.4498,52.8328,179.6029],[26.4413,52.8273,174.2133],[26.4415,52.8219,162.5032],[26.4462,52.8166,158.679],[26.455,52.8167,159.2709],[26.4763,52.8304,166.1981],[26.493,52.8495,174.9225],[26.5015,52.855,182.8359],[26.5098,52.8659,175.7104],[26.5229,52.8659,175.2057],[26.5274,52.8633,183.5277],[26.5323,52.8525,175.6872],[26.5369,52.8471,178.9801],[26.5499,52.8499,186.0741],[26.5627,52.8581,173.8947],[26.5669,52.8635,175.8033],[26.5708,52.8743,178.3408],[26.5751,52.877,163.7448],[26.579,52.8906,168.8826],[26.5831,52.8987,173.3777],[26.5874,52.9014,177.9285],[26.6006,52.9042,191.8504],[26.6144,52.8907,192.5524],[26.6369,52.8827,185.3067],[26.6593,52.8801,160.1995],[26.6638,52.8774,158.7453],[26.6732,52.864,158.3548],[26.6778,52.8613,157.368],[26.7091,52.8587,178.8967],[26.7136,52.856,165.6607],[26.7226,52.8561,159.2299],[26.7269,52.8615,175.6192],[26.7537,52.8616,167.8898],[26.7541,52.8508,163.0176],[26.7497,52.8481,154.0488],[26.7544,52.84,164.4063],[26.7545,52.8373,164.8587],[26.7683,52.8238,151.0],[26.7778,52.8049,150.5],[26.8007,52.7888,150.0],[26.8144,52.7807,150.9476],[26.8234,52.778,156.9418],[26.8413,52.7781,153.3955],[26.8636,52.7863,149.2609],[26.877,52.7864,157.0344],[26.8816,52.7837,148.9212],[26.8863,52.7756,149.3427],[26.9046,52.7648,159.8064],[26.9316,52.7649,163.1759],[26.9362,52.7622,165.1661],[26.9407,52.7622,167.3589],[26.9499,52.7541,167.0572],[26.9679,52.7542,149.5868],[26.9724,52.7569,162.973],[26.9721,52.7704,167.19],[27.0034,52.7868,175.1443],[27.017,52.7895,152.2036]]]]}
,"properties": {"GID_2": "BLR.5.6_1","GID_0": "BLR","country": "Belarus","GID_1": "BLR.5_1","province": "Minsk","NL_NAME_1": "Мінская","county": "Klyetsak","VARNAME_2": "Kletsk","NL_NAME_2": "Клецкіраён","TYPE_2": "Raion","ENGTYPE_2": "District","CC_2": "NA","HASC_2": "BY.MI.KT","name": "Klyetsak.county","area_km2": 968.4442,"hist_schema_id": "Elevation0-9000","hist_area_km2": {"150": 149.8166,"175": 534.3052,"200": 238.6501,"225": 43.8618,"250": 1.8105}}}