{"type": "Feature","bbox": [31.2107,53.8079,31.8874,54.2605],"geometry": {"type": "MultiPolygon","coordinates": [[[[31.3049,53.8188,178.5314],[31.3377,53.8079,179.1529],[31.357,53.808,199.6648],[31.3716,53.8108,185.4324],[31.3816,53.8164,188.7801],[31.3823,53.8247,188.5509],[31.3737,53.8359,189.4332],[31.3835,53.8386,182.3671],[31.3978,53.8385,173.8044],[31.4251,53.8241,182.1286],[31.4392,53.8237,177.8159],[31.4533,53.8257,190.2943],[31.4582,53.8282,189.7066],[31.454,53.834,184.9896],[31.4542,53.8367,179.295],[31.4588,53.8365,180.2817],[31.4732,53.8412,181.1492],[31.4692,53.8497,171.1142],[31.4694,53.8524,169.4485],[31.4744,53.8577,173.1103],[31.4929,53.8566,167.2694],[31.4979,53.8618,176.6286],[31.4983,53.8673,167.2514],[31.5032,53.8698,170.2131],[31.5168,53.8662,165.0531],[31.531,53.8709,163.6873],[31.5401,53.8704,178.667],[31.558,53.8638,159.4504],[31.5767,53.8682,159.3639],[31.5858,53.8677,159.9025],[31.5998,53.8723,157.6873],[31.627,53.8708,170.3059],[31.6447,53.8644,154.2061],[31.6671,53.8604,152.22],[31.6853,53.8622,151.8566],[31.7085,53.869,150.9785],[31.7316,53.873,174.0054],[31.7361,53.8728,165.4758],[31.7404,53.8699,165.1183],[31.74,53.8646,170.9565],[31.7586,53.866,174.7865],[31.7675,53.8651,166.2317],[31.7754,53.8589,166.0533],[31.7879,53.8651,154.5658],[31.7921,53.8698,147.0814],[31.8183,53.868,148.9118],[31.8208,53.8749,169.9392],[31.8302,53.8769,176.8327],[31.8302,53.88,176.8625],[31.8348,53.8898,147.6211],[31.8527,53.8991,173.4922],[31.8527,53.9066,166.196],[31.844,53.9218,148.1238],[31.8356,53.9247,168.8373],[31.8318,53.9326,166.7072],[31.8321,53.9377,159.4026],[31.8363,53.9424,151.7068],[31.8446,53.9443,148.184],[31.8706,53.9456,168.6907],[31.875,53.9504,168.5651],[31.875,53.9529,164.0717],[31.8661,53.968,149.0863],[31.8661,53.973,149.7417],[31.8462,53.9821,206.8687],[31.8427,53.9851,202.856],[31.8363,53.9913,195.7365],[31.8372,53.999,163.8394],[31.8409,54.0011,159.3649],[31.8589,54.0037,150.6542],[31.8832,54.0143,174.0002],[31.8715,54.0252,151.752],[31.8687,54.031,157.3165],[31.869,54.0336,156.8],[31.8874,54.0413,152.4302],[31.8835,54.047,153.55],[31.8843,54.0501,153.8686],[31.8709,54.0494,194.4217],[31.8731,54.0537,167.7941],[31.8665,54.0575,203.9339],[31.855,54.0602,168.8711],[31.8546,54.0576,173.2522],[31.8448,54.0619,196.2178],[31.8274,54.0621,209.7667],[31.8243,54.0653,202.4873],[31.8281,54.0674,203.1882],[31.825,54.0706,204.495],[31.8216,54.0712,204.7551],[31.8103,54.0649,202.7282],[31.8031,54.0634,205.5013],[31.7923,54.0624,222.8376],[31.7801,54.0641,221.0828],[31.7685,54.0737,220.2454],[31.7852,54.0905,181.1755],[31.7874,54.1038,217.552],[31.7839,54.107,209.162],[31.7511,54.1083,202.6289],[31.746,54.1063,191.2678],[31.7072,54.1028,193.2269],[31.693,54.1043,176.2421],[31.671,54.1199,156.6118],[31.6668,54.1255,156.2811],[31.6722,54.1302,177.8142],[31.6728,54.1353,181.7852],[31.6638,54.1414,165.3441],[31.6196,54.1354,184.1311],[31.6052,54.1368,201.1206],[31.5729,54.1503,212.0721],[31.5595,54.1595,210.1959],[31.5499,54.1604,206.5473],[31.5454,54.1635,211.4271],[31.5403,54.1613,202.7207],[31.5307,54.1621,193.0999],[31.5167,54.1661,213.0349],[31.517,54.1687,213.3014],[31.5123,54.1691,217.0972],[31.5091,54.1827,203.4493],[31.4817,54.1959,214.4801],[31.4505,54.2174,206.8087],[31.4508,54.2199,205.0114],[31.4415,54.2235,209.6333],[31.4082,54.2267,214.3154],[31.4135,54.2315,215.2654],[31.4138,54.2341,210.9967],[31.4233,54.2331,213.9327],[31.4331,54.2347,207.8286],[31.4334,54.2373,207.9177],[31.4289,54.2403,206.0769],[31.4102,54.2448,205.7134],[31.4016,54.2559,212.0525],[31.3971,54.259,207.6002],[31.3828,54.2605,204.597],[31.3679,54.2544,208.9123],[31.3631,54.2549,209.1568],[31.3586,54.258,206.9652],[31.3443,54.2595,219.5122],[31.3197,54.2525,211.7807],[31.32,54.2553,205.8467],[31.3101,54.252,202.3117],[31.305,54.2489,202.73],[31.2991,54.2372,196.0033],[31.2983,54.2287,201.1265],[31.3026,54.2232,214.4927],[31.3253,54.2096,193.7796],[31.3386,54.1983,203.6748],[31.3516,54.184,201.5786],[31.3511,54.1784,204.7707],[31.3062,54.1578,198.7707],[31.2615,54.1424,212.7006],[31.2564,54.1395,213.1668],[31.2511,54.1337,229.8891],[31.2447,54.1167,244.415],[31.2482,54.1027,241.5403],[31.2185,54.0936,218.0851],[31.2271,54.0827,219.8206],[31.2304,54.0659,244.3638],[31.2297,54.0575,222.6233],[31.2142,54.046,201.1665],[31.2139,54.0432,212.965],[31.2185,54.0405,214.6956],[31.2375,54.0381,221.8874],[31.2426,54.041,216.3816],[31.2485,54.0523,244.28],[31.2627,54.0498,243.0611],[31.267,54.0443,218.9463],[31.2665,54.0386,217.8294],[31.2752,54.0276,214.695],[31.2739,54.0136,203.7388],[31.2874,54.0026,212.3517],[31.2871,53.9998,208.4389],[31.2559,53.9742,221.1064],[31.2508,53.9713,225.0662],[31.2314,53.9681,189.5087],[31.2304,53.9569,207.8175],[31.2256,53.9568,208.7006],[31.2107,53.9509,200.4178],[31.215,53.9454,197.8772],[31.2148,53.9426,197.7943],[31.2342,53.9458,195.7551],[31.2385,53.9404,206.0823],[31.238,53.9348,207.31],[31.2325,53.9263,190.1733],[31.2225,53.9205,186.8606],[31.2356,53.9068,174.3607],[31.25,53.9071,174.1996],[31.2794,53.9132,208.0382],[31.3079,53.9079,189.1316],[31.3069,53.8968,187.2836],[31.2915,53.8855,201.1855],[31.2912,53.8827,201.7137],[31.3004,53.8772,209.8106],[31.3047,53.8717,204.7497],[31.3129,53.8551,192.5847],[31.3122,53.8467,191.5369],[31.3059,53.8299,187.4067],[31.3049,53.8188,178.5314]]]]}
,"properties": {"GID_2": "BLR.4.19_1","GID_0": "BLR","country": "Belarus","GID_1": "BLR.4_1","province": "Mogilev","NL_NAME_1": "Магілёўская","county": "Ms'tsislaw","VARNAME_2": "Mstislavl","NL_NAME_2": "Мсціслаўскіраён","TYPE_2": "Raion","ENGTYPE_2": "District","CC_2": "NA","HASC_2": "BY.MA.MS","name": "Ms'tsislaw.county","area_km2": 1317.902,"hist_schema_id": "Elevation0-9000","hist_area_km2": {"150": 62.344,"175": 230.261,"200": 803.209,"225": 199.359,"250": 22.729}}}