{"type":"Feature","properties":{"GID_2":"BLR.2.14_1","GID_0":"BLR","country":"Belarus","GID_1":"BLR.2_1","province":"Gomel","NL_NAME_1":"Гомельская","county":"Pyetrykaw","VARNAME_2":"Petrikov","NL_NAME_2":"Петрыкаўскіраён","TYPE_2":"Raion","ENGTYPE_2":"District","CC_2":"NA","HASC_2":"BY.HO.PE","name":"Pyetrykaw.county"},
"geometry":{"type": "MultiPolygon","coordinates": [[[[28.456,52.547,138.2466],[28.4333,52.5419,132.5493],[28.3922,52.5178,148.252],[28.3785,52.499,148.0968],[28.3694,52.4991,151.9744],[28.3649,52.4964,153.6899],[28.3467,52.493899999999996,139.8172],[28.2968,52.4917,165.6515],[28.2922,52.4863,153.7128],[28.3012,52.4754,152.9884],[28.3056,52.4563,149.551],[28.3101,52.4509,146.014],[28.3101,52.4455,154.5803],[28.3055,52.4401,170.6934],[28.2828,52.4322,148.2986],[28.2692,52.4215,168.3166],[28.2646,52.4215,165.203],[28.2555,52.4108,158.8278],[28.2509,52.4,158.8347],[28.2418,52.3865,159.0326],[28.2417,52.3811,156.49],[28.2372,52.3757,152.3307],[28.2281,52.3731,161.1666],[28.2099,52.3598,146.3091],[28.1963,52.3599,147.3075],[28.1691,52.3683,147.0436],[28.1509,52.3522,139.6544],[28.1373,52.3361,145.5266],[28.1327,52.3335,147.4284],[28.1327,52.3226,135.1499],[28.1417,52.2982,140.5388],[28.1462,52.2928,144.993],[28.1461,52.2738,142.0947],[28.1506,52.2684,138.5497],[28.1551,52.2656,142.766],[28.1777,52.26,140.8511],[28.1777,52.2546,149.5804],[28.1687,52.2493,146.5532],[28.1641,52.2493,150.6405],[28.1596,52.2521,143.6733],[28.1551,52.2575,137.9681],[28.1415,52.2631,139.0983],[28.1325,52.2631,156.049],[28.1234,52.2605,138.5655],[28.1144,52.2552,146.5641],[28.1144,52.2525,142.0994],[28.1189,52.2471,147.3047],[28.1189,52.2444,151.5745],[28.1098,52.239,146.9847],[28.1188,52.2336,150.8161],[28.1052,52.2256,130.2914],[28.1052,52.2202,129.5812],[28.1143,52.2147,129.5557],[28.1188,52.2146,129.704],[28.1233,52.2092,130.1054],[28.1097,52.2039,129.0355],[28.1052,52.2067,132.977],[28.1007,52.2067,129.7848],[28.0961,52.2041,129.7512],[28.1007,52.1959,144.9384],[28.1006,52.1851,141.0536],[28.1096,52.1715,138.2722],[28.1051,52.1662,136.8835],[28.1096,52.1634,141.048],[28.1051,52.1581,135.2592],[28.1096,52.1499,143.0446],[28.1051,52.1473,137.9807],[28.1051,52.15,139.6874],[28.1006,52.15,134.5816],[28.1006,52.1446,143.8163],[28.096,52.1447,137.5007],[28.087,52.1502,136.0962],[28.0915,52.1582,143.6164],[28.0915,52.1609,143.7047],[28.087,52.1609,144.5721],[28.078,52.1529,134.9764],[28.078,52.1475,148.6548],[28.087,52.1367,127.5297],[28.087,52.1313,124.5806],[28.0915,52.1285,124.6385],[28.0915,52.1258,124.2057],[28.1321,52.1254,131.3141],[28.1366,52.1199,123.5943],[28.1366,52.1172,123.0018],[28.1276,52.1146,136.8064],[28.1141,52.1148,141.6521],[28.1005,52.1122,133.5687],[28.096,52.1096,132.2428],[28.096,52.1042,136.4149],[28.114,52.0959,120.9387],[28.123,52.0904,123.8715],[28.123,52.0877,120.1568],[28.1275,52.085,124.5079],[28.1411,52.0875,119.6638],[28.1411,52.0929,120.9705],[28.1456,52.0956,121.4679],[28.1501,52.0955,121.0537],[28.1591,52.09,120.9524],[28.1636,52.09,121.1714],[28.1726,52.0926,118.6466],[28.1772,52.0952,119.4391],[28.1817,52.1005,121.7052],[28.1907,52.1031,121.4441],[28.1952,52.1031,120.8452],[28.2177,52.0893,122.5789],[28.2177,52.0839,127.1538],[28.2132,52.0786,124.4886],[28.2131,52.0705,126.1466],[28.2086,52.0652,130.6647],[28.1996,52.0491,135.2516],[28.1996,52.0464,137.2422],[28.195,52.0411,138.9465],[28.195,52.0357,141.4952],[28.1905,52.0303,132.1852],[28.1905,52.0276,137.4742],[28.1815,52.0224,136.8181],[28.1815,52.0197,138.6841],[28.1725,52.0144,122.5623],[28.1724,52.009,123.7296],[28.1994,52.0033,139.4158],[28.2084,52.0059,135.3811],[28.2174,52.0111,134.371],[28.222,52.0192,139.3542],[28.2265,52.0191,141.0807],[28.2355,52.0244,129.5859],[28.249,52.0215,137.8898],[28.249,52.0242,137.6734],[28.2535,52.0268,136.0069],[28.2535,52.0295,128.0437],[28.258,52.0322,129.8185],[28.2625,52.0294,123.6226],[28.2624,52.0159,130.0514],[28.2669,52.0132,127.1419],[28.2804,52.0157,127.2607],[28.3074,52.0154,134.1289],[28.3253,52.0043,126.8055],[28.3343,52.0042,127.5188],[28.3569,52.0147,122.9376],[28.4153,52.0139,123.107],[28.4513,52.0215,122.1824],[28.4603,52.0214,121.5991],[28.4738,52.0266,121.2262],[28.4783,52.032,122.2134],[28.4919,52.0426,121.5734],[28.51,52.0532,120.1356],[28.5324,52.0556,119.6705],[28.5369,52.0582,120.0777],[28.5505,52.0716,121.2696],[28.5506,52.0797,135.3993],[28.5686,52.0849,131.7703],[28.5775,52.0821,128.2603],[28.5911,52.09,130.3993],[28.5956,52.0954,129.2024],[28.6001,52.0953,120.0374],[28.6135,52.087,120.0306],[28.6359,52.0867,131.437],[28.6492,52.0784,120.3537],[28.6625,52.0647,148.7414],[28.667,52.0646,148.7044],[28.6715,52.0673,141.5116],[28.6804,52.0671,143.0329],[28.6848,52.0617,160.339],[28.6893,52.0616,163.829],[28.7028,52.0668,157.8981],[28.7207,52.0666,139.881],[28.7209,52.0774,122.1571],[28.73,52.0882,134.1737],[28.7256,52.0909,126.5775],[28.7256,52.0936,124.5212],[28.7302,52.099,127.654],[28.7302,52.1044,118.0574],[28.7124,52.1128,121.1871],[28.7035,52.1156,123.6506],[28.6945,52.1158,119.2613],[28.6901,52.1185,119.1718],[28.6947,52.1239,120.301],[28.6948,52.1375,121.4632],[28.6904,52.1402,119.4975],[28.6949,52.1429,120.5385],[28.6994,52.1428,116.5],[28.7083,52.1373,118.7702],[28.7082,52.1291,118.9301],[28.7171,52.1263,119.6322],[28.7171,52.129,118.8673],[28.7352,52.1369,120.1282],[28.7577,52.142,120.6558],[28.7711,52.1419,120.2432],[28.7802,52.1472,131.2008],[28.7892,52.1471,131.896],[28.7936,52.1443,118.6101],[28.7935,52.1361,118.3592],[28.7889,52.1281,117.2849],[28.7888,52.1253,118.7494],[28.7932,52.1226,117.7364],[28.8113,52.1278,119.2423],[28.8158,52.1331,118.9083],[28.834,52.1464,116.9378],[28.8474,52.1463,117.0909],[28.8565,52.1516,114.9381],[28.861,52.1515,117.3484],[28.8698,52.146,117.1861],[28.8698,52.1432,118.2919],[28.8742,52.1377,117.5948],[28.8832,52.1403,118.7167],[28.8922,52.1456,117.1164],[28.8968,52.151,117.5966],[28.9013,52.151,117.4126],[28.9057,52.1482,118.0416],[28.9011,52.1428,117.9297],[28.8964,52.132,114.5],[28.9009,52.1292,117.017],[28.9053,52.1292,118.6741],[28.9189,52.1371,115.9472],[28.9279,52.1397,118.5012],[28.9369,52.1396,117.0918],[28.9413,52.1368,116.6437],[28.9368,52.1342,118.2068],[28.9367,52.1287,117.9281],[28.9456,52.1286,117.1185],[28.9683,52.1419,116.1918],[28.9727,52.1418,116.3969],[28.9683,52.1446,116.4128],[28.9684,52.15,116.3513],[28.9775,52.1553,116.9784],[28.9865,52.1579,119.3225],[28.9909,52.1551,122.6044],[28.9909,52.1524,117.6871],[28.9863,52.147,116.4841],[28.9862,52.1443,116.4748],[28.9906,52.1415,116.6275],[28.9996,52.1414,117.4496],[29.0087,52.1467,117.333],[29.0176,52.1466,116.3726],[29.022,52.1438,116.7112],[29.022,52.1411,116.3018],[29.0264,52.1383,115.9785],[29.0353,52.1382,115.8088],[29.0265,52.1465,116.3095],[29.0267,52.1519,118.4514],[29.0223,52.1547,117.2395],[29.0223,52.1574,120.3972],[29.0315,52.1654,121.1965],[29.027,52.1682,119.8376],[29.0271,52.1709,121.7256],[29.0228,52.1764,119.5688],[29.0139,52.182,119.4928],[29.014,52.1874,119.6079],[29.0278,52.2008,120.0799],[29.0369,52.2061,134.1334],[29.0193,52.2199,121.2678],[29.0193,52.2226,124.2737],[29.0329,52.2306,137.5651],[29.0374,52.2305,134.459],[29.0377,52.2414,137.4142],[29.0422,52.2441,135.3987],[29.0424,52.2522,142.7772],[29.0292,52.2633,139.3609],[29.0114,52.2717,122.0647],[29.016,52.2743,121.9011],[29.0116,52.2798,122.0327],[29.0121,52.3015,134.1152],[29.0031,52.3044,122.6628],[28.9897,52.3046,122.7551],[28.9943,52.3099,122.6486],[28.9898,52.3127,122.6038],[28.9853,52.3128,122.6914],[28.9717,52.3048,122.3914],[28.9672,52.3049,122.3756],[28.9673,52.3103,122.3935],[28.9811,52.3237,122.8574],[28.9812,52.3318,122.754],[28.9768,52.3346,122.9298],[28.9589,52.3403,123.0932],[28.959,52.3457,123.5363],[28.9636,52.3511,123.6485],[28.9637,52.3565,123.6393],[28.9684,52.3619,123.8186],[28.9731,52.3727,125.566],[28.9821,52.3753,125.1306],[28.9956,52.3751,133.6945],[29.0002,52.3778,137.6636],[29.0003,52.3805,141.8601],[29.0094,52.3858,144.4021],[29.0138,52.383,144.4777],[29.0228,52.3829,135.6636],[29.0274,52.3856,132.8169],[29.0275,52.391,141.1104],[29.014,52.3912,146.8478],[29.0096,52.394,143.045],[29.0141,52.3966,142.9473],[29.0098,52.4048,140.7699],[29.0099,52.4103,131.7295],[29.0009,52.4104,134.1996],[28.9965,52.4132,134.172],[29.028199999999998,52.4209,127.8968],[29.0373,52.4262,127.8728],[29.0377,52.4452,145.837],[29.0468,52.4478,127.6637],[29.056,52.4559,128.5297],[29.0561,52.4586,128.9033],[29.0517,52.4641,136.8863],[29.0471,52.4614,140.1431],[29.0427,52.4642,143.5158],[29.0427,52.4669,143.0867],[29.0519,52.4722,135.73],[29.0565,52.4803,135.5386],[29.0567,52.4885,146.413],[29.0705,52.4964,151.7168],[29.0569,52.493899999999996,135.7083],[29.0478,52.494,130.7108],[29.0434,52.4968,130.9607],[29.0435,52.5022,131.9071],[29.039,52.5023,146.6929],[29.0344,52.4996,139.3448],[29.0343,52.4969,131.3999],[29.0297,52.4915,132.0986],[29.0296,52.4888,133.2299],[29.0252,52.4916,131.5312],[29.0208,52.4971,135.0718],[29.0118,52.4972,137.8187],[29.0072,52.4946,137.8138],[29.0071,52.4918,131.3017],[29.0116,52.4918,132.2446],[29.007,52.4864,149.6053],[28.9662,52.4788,129.7449],[28.93,52.4765,130.7685],[28.8893,52.4689,127.949],[28.8893,52.4716,135.7546],[28.8984,52.4769,135.8196],[28.9212,52.4848,129.3642],[28.9258,52.4902,134.5909],[28.9258,52.4929,147.6608],[28.9214,52.4956,152.8292],[28.9214,52.4984,151.6885],[28.9169,52.4984,149.5316],[28.9123,52.4958,147.0922],[28.8987,52.4932,147.0149],[28.8989,52.5014,147.0472],[28.9035,52.504,148.7949],[28.8945,52.5096,151.1601],[28.8809,52.507,154.4221],[28.8764,52.5043,150.619],[28.8674,52.5072,148.8428],[28.8675,52.5126,136.5426],[28.8949,52.5286,144.2067],[28.895,52.534,137.2215],[28.886,52.5396,146.7555],[28.8815,52.5369,146.8047],[28.877,52.5397,147.54],[28.8816,52.545,144.0199],[28.8772,52.5478,130.346],[28.8726,52.5479,131.6721],[28.8728,52.556,147.6015],[28.8683,52.5588,143.8401],[28.8822,52.5776,131.2586],[28.8823,52.5831,134.7828],[28.8687,52.5832,130.2902],[28.8597,52.5861,130.4088],[28.8598,52.5915,129.9754],[28.8462,52.5889,129.7411],[28.8371,52.5891,139.2102],[28.8142,52.573,146.646],[28.8052,52.5758,145.8857],[28.7962,52.5759,142.8286],[28.796,52.5678,144.316],[28.7869,52.5652,139.4695],[28.7868,52.5597,130.5855],[28.7913,52.5543,143.0101],[28.7912,52.5515,145.9102],[28.7822,52.5517,147.8869],[28.7776,52.549,148.6279],[28.7775,52.5436,145.0565],[28.782,52.5381,145.019],[28.7774,52.5354,146.3121],[28.705,52.5362,144.6982],[28.6824,52.5392,135.5592],[28.6688,52.5366,138.5992],[28.6552,52.5314,128.8831],[28.6507,52.5341,134.5637],[28.6507,52.5396,129.9362],[28.6417,52.5397,143.3174],[28.6371,52.537,138.0123],[28.637,52.5289,133.2681],[28.6052,52.5211,143.9913],[28.5508,52.5135,141.348],[28.5463,52.5163,131.9547],[28.5418,52.5217,131.2144],[28.542,52.5326,129.8197],[28.5375,52.5354,138.5194],[28.5284,52.5382,132.0788],[28.5058,52.5384,132.4344],[28.456,52.547,138.2466]]]]}}