{"type": "Feature","id": "2344","bbox": [23.48563,52.73849,26.68254,54.99326],"geometry": {"type": "Polygon","coordinates": [[[26.2777,54.929,150.9773],[26.26964,54.93047,161.5228],[26.2623,54.93458,158.0451],[26.25362,54.94605,167.3587],[26.24851,54.96419,181.1647],[26.24789,54.96982,179.6061],[26.23998,54.97478,175.5934],[26.23409,54.97726,170.106],[26.17327,54.99091,180.9275],[26.17032,54.99326,177.1311],[26.15363,54.97851,169.3321],[26.13864,54.96895,180.5749],[26.10257,54.95701,162.6425],[25.98113,54.94269,167.5608],[25.96253,54.9429,168.1765],[25.92615,54.94776,154.2841],[25.90785,54.94807,153.701],[25.87023,54.93882,147.9478],[25.85845,54.93298,149.0529],[25.85483,54.92549,166.6243],[25.85308,54.91644,146.0599],[25.84667,54.90621,151.6043],[25.82579,54.892,143.194],[25.80254,54.88161,145.3055],[25.78269,54.86968,141.4389],[25.77226,54.85086,131.966],[25.7737,54.84192,131.7901],[25.78228,54.82198,143.4835],[25.7829,54.81371,168.8445],[25.77846,54.80529,173.7777],[25.77339,54.80337,176.3646],[25.76657,54.80327,180.9775],[25.75675,54.80038,188.9541],[25.73495,54.78906,217.0007],[25.7243,54.78012,224.4199],[25.7212,54.76674,236.6167],[25.72461,54.71568,228.0472],[25.72306,54.70534,250.709],[25.71913,54.69475,221.337],[25.71386,54.68555,193.8953],[25.70952,54.67563,194.1716],[25.70838,54.66302,179.5703],[25.7151,54.64323,181.8056],[25.73991,54.60773,173.8809],[25.74559,54.5884,193.7629],[25.74042,54.5685,197.0574],[25.72647,54.55295,215.5916],[25.70735,54.54153,252.0469],[25.64617,54.52039,276.6699],[25.63087,54.50835,264.0492],[25.61991,54.4881,233.1477],[25.61557,54.4619,216.763],[25.6163,54.44107,204.6309],[25.61258,54.4218,209.5487],[25.5947,54.40009,197.6361],[25.54881,54.36774,225.4766],[25.53,54.34614,225.1331],[25.52865,54.32097,209.2291],[25.5423,54.30806,239.0726],[25.564,54.30315,277.0913],[25.60741,54.30485,224.2913],[25.66735,54.3233,236.3701],[25.68234,54.32563,222.3207],[25.69598,54.32097,228.4798],[25.70177,54.31276,223.9189],[25.70477,54.30299,231.7507],[25.71541,54.28521,233.1364],[25.71924,54.28155,245.5998],[25.72327,54.28098,229.9844],[25.73474,54.2832,210.0436],[25.73929,54.28258,202.288],[25.7489,54.27633,204.4877],[25.75779,54.26899,204.1768],[25.76564,54.26,210.4551],[25.77226,54.24894,237.009],[25.77629,54.24563,242.6974],[25.78176,54.24444,242.7074],[25.78662,54.24232,246.147],[25.78921,54.23623,230.4251],[25.78683,54.23178,203.3869],[25.77505,54.22248,202.206],[25.77195,54.21788,192.1035],[25.77102,54.17215,179.3176],[25.76306,54.15644,163.9357],[25.74001,54.14626,160.1106],[25.72812,54.14522,169.1609],[25.69061,54.14822,172.8859],[25.67976,54.14533,173.8573],[25.66394,54.13236,174.2022],[25.6535,54.12874,179.804],[25.63159,54.12833,175.1843],[25.54302,54.13696,192.9911],[25.51604,54.14476,180.7403],[25.49331,54.15752,188.7467],[25.48576,54.1754,180.0345],[25.4932,54.18243,186.6348],[25.52173,54.18822,190.2158],[25.52896,54.19566,188.4837],[25.52338,54.20424,177.3922],[25.4993,54.21183,213.2337],[25.50168,54.22176,173.4575],[25.52214,54.22863,174.5434],[25.5455,54.22749,191.9047],[25.55397,54.23126,193.7585],[25.48349,54.2877,210.9194],[25.47868,54.29333,223.8345],[25.47207,54.29715,182.9681],[25.45936,54.29891,188.8876],[25.43414,54.29183,178.7799],[25.39404,54.25715,191.3864],[25.36975,54.2479,159.3735],[25.28758,54.24522,171.1674],[25.22412,54.25855,159.3822],[25.20624,54.25679,152.1429],[25.19353,54.24367,182.7596],[25.17307,54.19659,160.7442],[25.15653,54.17571,173.9613],[25.1156,54.14879,175.4949],[25.07199,54.1322,144.9223],[25.02713,54.12786,153.0044],[24.94828,54.1459,159.8536],[24.90228,54.14977,161.2918],[24.85598,54.14672,164.9006],[24.85098,54.14495,170.6889],[24.82156,54.13453,193.048],[24.81753,54.12822,188.657],[24.81743,54.12063,187.529],[24.81867,54.11396,192.5762],[24.81815,54.11013,174.7256],[24.79945,54.10321,159.8579],[24.79056,54.0966,146.6589],[24.78425,54.09623,147.0872],[24.7825,54.09288,163.4478],[24.78715,54.07763,161.0753],[24.79903,54.05603,159.7461],[24.81247,54.03892,162.1903],[24.82136,54.01991,146.5706],[24.81939,53.99257,129.267],[24.81929,53.99252,129.267],[24.81919,53.99242,129.267],[24.81908,53.99231,129.267],[24.80637,53.97531,145.6712],[24.7887,53.96968,138.3579],[24.7239,53.96343,134.5678],[24.7056,53.9642,137.2066],[24.69082,53.97283,137.3192],[24.6779,53.99231,134.2374],[24.67429,53.99371,137.7729],[24.67057,53.99428,136.853],[24.66685,53.99386,133.0431],[24.64297,53.98301,143.0678],[24.5791,53.97562,148.7359],[24.52866,53.95836,147.28],[24.41404,53.89769,134.8137],[24.37787,53.88684,127.7259],[24.3419,53.88705,126.7272],[24.31017,53.89268,127.1266],[24.27638,53.8918,126.0538],[24.25705,53.89402,124.922],[24.24641,53.90364,126.8169],[24.22915,53.93237,132.6477],[24.20114,53.95247,127.6815],[24.16961,53.95893,125.6391],[24.13675,53.95542,137.3163],[24.07494,53.93573,141.1617],[24.04538,53.93087,137.0116],[23.98131,53.9304,134.0113],[23.96487,53.93273,139.3034],[23.93542,53.94394,122.165],[23.91981,53.94777,91.2712],[23.90472,53.94606,84.1466],[23.82834,53.92007,127.5495],[23.82059,53.91929,120.3995],[23.81212,53.92084,85.5672],[23.79413,53.9271,109.8255],[23.78721,53.92792,113.6718],[23.77181,53.92431,116.457],[23.75445,53.91676,120.107],[23.69192,53.91149,120.9999],[23.64262,53.89899,122.7957],[23.62712,53.89821,126.4699],[23.60996,53.90183,120.6983],[23.52015,53.93397,133.9394],[23.48563,53.93929,140.4448],[23.48687,53.90999,136.1084],[23.4972,53.88555,126.6762],[23.51043,53.8625,112.1309],[23.52066,53.83734,129.6263],[23.52986,53.78416,119.1714],[23.5404,53.76359,131.5744],[23.56469,53.74246,160.5091],[23.56469,53.74241,160.5091],[23.56479,53.74241,160.5091],[23.56707,53.68101,125.0788],[23.59094,53.61125,182.2377],[23.67579,53.4557,191.4253],[23.72292,53.3971,184.7377],[23.74297,53.36548,160.2257],[23.78297,53.27094,171.3821],[23.80064,53.24246,176.3306],[23.81863,53.22797,131.5081],[23.82845,53.21383,157.2708],[23.8362,53.19929,152.0524],[23.84808,53.18381,139.5377],[23.86596,53.172,169.7523],[23.88312,53.16399,177.4598],[23.89366,53.15195,167.5647],[23.89139,53.12771,137.865],[23.8824,53.1133,133.2072],[23.8703,53.10126,164.2436],[23.86069,53.08748,177.7744],[23.85935,53.06798,142.9825],[23.86793,53.05103,159.6196],[23.89821,53.02754,166.955],[23.90968,53.01273,156.9568],[23.91134,53.00506,161.1835],[23.90896,52.99305,163.3],[23.90906,52.98666,160.6706],[23.91754,52.95881,150.3938],[23.91795,52.9508,161.7913],[23.91495,52.94462,170.1621],[23.90389,52.93114,147.4409],[23.9011,52.92326,145.7646],[23.90203,52.91253,146.44],[23.90544,52.90654,150.1627],[23.90948,52.9015,161.7051],[23.91206,52.89385,168.401],[23.92043,52.77262,171.9297],[23.93862,52.77489,170.5086],[24.07143,52.7682,173.159],[24.08197,52.77063,164.426],[24.09148,52.77394,178.9492],[24.12156,52.7897,176.4761],[24.1444,52.79817,162.3878],[24.1537,52.79926,176.991],[24.16037,52.79853,176.9268],[24.1644,52.79636,178.117],[24.16719,52.79363,166.4116],[24.17168,52.78748,176.8694],[24.17711,52.78169,169.4355],[24.18533,52.77869,169.9509],[24.19778,52.77582,159.112],[24.23995,52.7714,160.0019],[24.25054,52.77161,161.2025],[24.29209,52.78086,168.3955],[24.30031,52.78133,168.5902],[24.30542,52.78065,176.2757],[24.30759,52.779,172.8237],[24.30888,52.77626,175.4275],[24.3095,52.77254,161.2891],[24.31152,52.76885,161.0315],[24.31601,52.76562,160.1985],[24.32129,52.7651,160.9495],[24.32625,52.76608,163.937],[24.3309,52.76776,169.0379],[24.33493,52.76996,161.3983],[24.34128,52.77226,160.8582],[24.36583,52.77709,160.9668],[24.37544,52.77735,167.885],[24.38288,52.77647,161.0684],[24.38816,52.77489,171.5017],[24.43286,52.75549,159.5229],[24.44123,52.75014,159.3465],[24.44619,52.74779,159.3346],[24.46851,52.74107,158.6024],[24.49399,52.73849,159.5956],[24.51864,52.73931,160.6367],[24.54086,52.74316,167.9761],[24.54784,52.74562,167.3734],[24.55264,52.74784,158.478],[24.55497,52.75014,158.6886],[24.55636,52.75239,159.0077],[24.55745,52.75538,158.8355],[24.55807,52.75921,165.0631],[24.55714,52.76722,177.3186],[24.55481,52.77456,160.3016],[24.55047,52.78086,168.0212],[24.54225,52.78934,161.1252],[24.5407,52.79223,161.8784],[24.54101,52.79533,162.0325],[24.54861,52.80427,185.1157],[24.55652,52.81848,173.8115],[24.55931,52.82153,184.3792],[24.56272,52.82409,193.1585],[24.58416,52.83393,189.5675],[24.58675,52.83672,183.0109],[24.58768,52.8405,190.7945],[24.58706,52.84406,181.7399],[24.5852,52.84739,168.5095],[24.58272,52.85026,177.3014],[24.57202,52.8575,179.491],[24.56923,52.86,177.937],[24.56861,52.86287,194.0931],[24.57093,52.86535,195.7753],[24.59176,52.88008,174.3635],[24.59471,52.88297,173.7639],[24.60153,52.88695,172.6689],[24.6116,52.89166,175.9343],[24.6347,52.89915,198.9962],[24.64499,52.90359,197.4505],[24.65165,52.90773,202.821],[24.65336,52.91134,195.5039],[24.65367,52.91532,198.4988],[24.65258,52.91881,192.5615],[24.64886,52.92116,193.7889],[24.64328,52.92245,187.7633],[24.61641,52.92488,199.2025],[24.61098,52.92633,194.8256],[24.60695,52.92835,197.1983],[24.60556,52.93134,187.8744],[24.6068,52.93444,199.7776],[24.6099,52.93708,199.005],[24.61377,52.93935,190.5078],[24.66251,52.9562,162.3315],[24.67615,52.95915,156.2832],[24.68591,52.95977,178.5439],[24.74782,52.94062,179.1412],[24.80136,52.93274,166.3635],[24.83428,52.93315,152.8425],[24.84451,52.93465,147.8235],[24.85149,52.93687,144.2528],[24.85459,52.93966,145.1251],[24.85722,52.94279,146.0314],[24.86404,52.95429,179.863],[24.86838,52.95873,173.5246],[24.87712,52.9646,167.7723],[24.88487,52.96659,156.5213],[24.89262,52.96723,137.8074],[24.9182,52.96343,135.5268],[24.92895,52.96049,135.7074],[24.93763,52.95635,136.7815],[24.94461,52.95139,140.0576],[24.9474,52.94868,146.7703],[24.95251,52.94276,155.4932],[24.95654,52.93625,149.4303],[24.9598,52.92943,157.0775],[24.96089,52.92584,159.6059],[24.9612,52.92209,180.4716],[24.96104,52.91848,192.3782],[24.95995,52.91465,201.3316],[24.95685,52.90747,208.8878],[24.95639,52.90426,207.4257],[24.95856,52.90186,213.1717],[24.96197,52.90023,208.983],[25.00403,52.88956,185.6833],[25.01597,52.88848,169.4897],[25.02248,52.88969,170.3588],[25.02713,52.89207,173.5417],[25.02992,52.89517,179.5487],[25.03773,52.90545,172.7354],[25.0416,52.90892,174.1923],[25.04827,52.91295,180.6652],[25.05447,52.91351,181.2952],[25.06021,52.91295,180.5761],[25.06424,52.91114,179.6145],[25.0661,52.90873,179.5817],[25.06532,52.90558,178.9628],[25.05106,52.87589,168.4738],[25.04982,52.87202,163.1436],[25.0492,52.8683,164.2906],[25.04982,52.86504,164.2111],[25.05556,52.85982,166.5716],[25.05633,52.85636,166.6899],[25.05587,52.85256,167.3625],[25.05416,52.84866,168.2536],[25.05323,52.84479,165.843],[25.05277,52.84112,167.9757],[25.05618,52.837649999999996,172.7837],[25.06284,52.83512,172.5093],[25.07587,52.832769999999996,171.2585],[25.08315,52.83342,167.4978],[25.08863,52.83522,167.5515],[25.09276,52.837649999999996,164.5513],[25.09793,52.83993,163.7722],[25.13808,52.84959,164.0973],[25.14945,52.85037,181.5723],[25.16092,52.84985,181.9624],[25.17565,52.84739,172.8507],[25.1848,52.84701,161.0203],[25.19193,52.84758,158.9438],[25.19658,52.84918,174.7908],[25.20004,52.85176,175.5913],[25.21632,52.85951,168.8267],[25.23865,52.86473,163.4177],[25.25074,52.86592,176.0651],[25.25895,52.86515,178.8345],[25.26102,52.86194,160.3023],[25.26273,52.8544,164.0203],[25.26552,52.85145,172.5454],[25.26877,52.84897,177.2853],[25.27792,52.84515,169.3867],[25.29342,52.84101,180.3505],[25.30893,52.83869,176.2054],[25.31714,52.8392,182.3406],[25.32324,52.84075,177.366],[25.32758,52.84272,165.4376],[25.3313,52.84489,161.5009],[25.3344,52.84752,166.9504],[25.33549,52.85109,171.3003],[25.33564,52.85502,173.815],[25.33425,52.85853,178.5406],[25.33115,52.86124,172.716],[25.31456,52.86546,175.7881],[25.31063,52.86778,172.9191],[25.30815,52.87078,176.4928],[25.30645,52.87414,165.0908],[25.30536,52.87755,167.1376],[25.30567,52.88111,166.3141],[25.30784,52.88401,168.532],[25.31156,52.88628,183.6432],[25.31983,52.89026,177.4136],[25.32231,52.89274,177.9526],[25.322,52.89579,177.445],[25.31983,52.89858,185.3848],[25.30396,52.90747,173.99],[25.30102,52.91021,176.3495],[25.29869,52.9132,171.2258],[25.2973,52.91667,168.9625],[25.29699,52.92075,170.2064],[25.29962,52.92561,176.6687],[25.30505,52.93067,178.9896],[25.3189,52.93641,194.4563],[25.32681,52.93729,193.4149],[25.33533,52.93612,203.502],[25.34355,52.93393,199.1452],[25.36401,52.93284,189.3559],[25.37957,52.93543,205.3212],[25.40515,52.94201,192.9035],[25.41336,52.94736,208.3657],[25.41724,52.95196,196.0804],[25.41724,52.95584,160.4076],[25.41848,52.95956,181.6575],[25.42081,52.96276,151.2792],[25.4238,52.96566,137.1355],[25.43465,52.97297,135.1121],[25.44101,52.97852,137.1071],[25.45233,52.99054,164.5907],[25.46271,52.99974,170.8191],[25.46907,53.00395,172.8366],[25.4731,53.00596,180.9154],[25.52478,53.02452,208.0998],[25.5316,53.02979,211.4631],[25.53439,53.03289,206.9398],[25.55909,53.07609,199.5305],[25.59087,53.11283,196.948],[25.5993,53.12725,211.3755],[25.60038,53.13118,194.5282],[25.60085,53.13536,198.804],[25.60038,53.13916,214.666],[25.5993,53.14275,197.624],[25.59744,53.14611,200.5619],[25.59247,53.1521,211.7416],[25.58948,53.15495,207.4479],[25.57925,53.16229,196.0134],[25.5749,53.1643,204.4392],[25.56979,53.16601,203.0345],[25.54948,53.16854,195.6923],[25.54498,53.1705,188.3613],[25.54312,53.17365,184.24],[25.54359,53.17748,205.4116],[25.54607,53.18099,199.2885],[25.54994,53.18414,201.2328],[25.57118,53.19587,205.6477],[25.58793,53.20306,200.9469],[25.59599,53.20745,208.2545],[25.601,53.21164,205.009],[25.60224,53.21546,209.6219],[25.60224,53.21931,211.8558],[25.601,53.22285,222.9868],[25.59837,53.22574,215.5303],[25.59433,53.22799,216.9961],[25.57521,53.23541,199.1083],[25.57165,53.23773,197.3521],[25.56917,53.24052,200.0361],[25.56886,53.24424,202.3059],[25.5749,53.26068,227.6371],[25.57785,53.26538,216.9973],[25.58374,53.27096,214.3929],[25.59041,53.27298,197.6986],[25.62038,53.27499,211.1048],[25.6272,53.27688,230.0051],[25.63201,53.27938,227.1854],[25.63433,53.28259,211.3504],[25.63557,53.28662,216.4274],[25.64084,53.31654,173.7135],[25.64286,53.32321,170.6591],[25.64394,53.32553,200.0255],[25.64787,53.33178,216.5719],[25.67671,53.36155,230.405],[25.68151,53.36816,238.1109],[25.68353,53.37165,240.1126],[25.68709,53.37612,225.7075],[25.69268,53.38129,216.8874],[25.70482,53.38945,215.5324],[25.71288,53.39287,235.6464],[25.72017,53.39473,227.1656],[25.73288,53.39356,224.3258],[25.73877,53.3923,226.4101],[25.74668,53.39139,223.8812],[25.75706,53.39155,220.4307],[25.78843,53.39591,215.9749],[25.79789,53.39617,230.7434],[25.80393,53.39509,230.6662],[25.80905,53.39349,224.9517],[25.82212,53.38739,215.2056],[25.82926,53.38656,212.1474],[25.83871,53.38682,214.6172],[25.85484,53.38922,226.7393],[25.86491,53.38953,223.1306],[25.87287,53.38883,214.6511],[25.87731,53.38677,211.2061],[25.88093,53.38442,214.9986],[25.88403,53.3817,220.2816],[25.88791,53.37953,213.3089],[25.89271,53.37772,206.5913],[25.89814,53.37628,211.0047],[26.03917,53.3693,227.378],[26.06015,53.37261,201.992],[26.08247,53.37359,194.0956],[26.1357,53.36586,159.8566],[26.22122,53.36289,200.871],[26.24587,53.35827,197.0724],[26.26696,53.35183,153.8394],[26.27305,53.35065,152.6924],[26.29925,53.35199,187.4092],[26.37651,53.36455,176.5994],[26.5595,53.40119,184.0926],[26.56771,53.40475,184.8061],[26.5612,53.40966,190.7427],[26.55531,53.41509,190.0019],[26.55076,53.42134,204.5257],[26.54704,53.42795,208.9312],[26.54394,53.43467,209.5076],[26.54208,53.44214,209.1502],[26.54208,53.45033,210.7401],[26.54797,53.48196,190.6779],[26.54849,53.48702,185.0626],[26.54797,53.49286,169.7886],[26.54694,53.49663,178.6909],[26.5457,53.49924,178.6106],[26.54456,53.50033,178.6106],[26.54301,53.50133,180.7406],[26.53945,53.50278,175.6201],[26.5351,53.50405,170.0763],[26.52921,53.50428,169.4992],[26.50642,53.50154,188.8953],[26.50131,53.50139,189.8741],[26.4979,53.50175,179.2751],[26.49319,53.50358,157.6794],[26.49278,53.5095,176.8507],[26.49573,53.52035,165.9302],[26.50952,53.53818,160.1889],[26.51325,53.54696,171.8898],[26.51418,53.55309,149.1321],[26.50689,53.56484,150.1633],[26.50208,53.57037,141.449],[26.48668,53.58458,160.1483],[26.4825,53.59073,151.0564],[26.4811,53.59435,148.1673],[26.47785,53.6114,164.0657],[26.4763,53.61621,163.1371],[26.47444,53.62024,156.3713],[26.46917,53.62608,153.4217],[26.46591,53.62866,147.6317],[26.46203,53.63109,144.244],[26.42043,53.64468,162.1798],[26.35698,53.65577,158.1337],[26.35124,53.65838,156.897],[26.34612,53.66215,161.5036],[26.34085,53.6697,162.7762],[26.33961,53.676519999999996,156.0172],[26.33977,53.68396,146.8193],[26.34132,53.69429,158.9798],[26.34023,53.69998,152.3467],[26.33791,53.70414,154.1838],[26.33388,53.70623,151.6558],[26.32861,53.70776,145.8801],[26.29398,53.71037,156.6685],[26.28313,53.71357,156.0253],[26.27006,53.71972,147.9609],[26.2623,53.72509,152.1062],[26.25827,53.72871,136.4769],[26.25331,53.73408,133.4487],[26.253,53.73837,133.2291],[26.25548,53.75202,148.5863],[26.25548,53.76716,147.91],[26.2575,53.7745,147.6381],[26.26168,53.77871,143.158],[26.26809,53.77925,150.9185],[26.28949,53.77902,136.018],[26.29476,53.78028,135.9201],[26.29879,53.78258,136.4941],[26.30189,53.78545,142.0842],[26.30514,53.78902,136.9883],[26.30762,53.79284,143.7394],[26.30995,53.79811,151.4649],[26.307,53.8009,146.7817],[26.30266,53.80312,145.5683],[26.23393,53.82013,148.5083],[26.22215,53.82488,147.3582],[26.2158,53.82953,146.5415],[26.21435,53.83534,146.5261],[26.21518,53.85413,148.4557],[26.21642,53.86095,144.5267],[26.21843,53.86601,139.7935],[26.22153,53.86875,142.7213],[26.22556,53.8711,138.4582],[26.24463,53.8778,150.5401],[26.31274,53.8901,152.4945],[26.32328,53.89299,158.4637],[26.33279,53.89661,145.4636],[26.34085,53.9009,151.797],[26.34442,53.90348,149.3959],[26.35031,53.90942,158.3052],[26.35543,53.91604,154.5762],[26.36597,53.93387,164.5072],[26.37124,53.94035,147.0986],[26.37449,53.94299,151.48],[26.37858,53.94534,151.224],[26.38338,53.94694,149.7307],[26.41919,53.9518,156.697],[26.42478,53.95753,157.3879],[26.42943,53.96684,155.5555],[26.43428,53.98939,164.7361],[26.43284,53.99856,161.2633],[26.42772,54.00363,150.6671],[26.368289999999998,54.00479,160.9897],[26.36178,54.009,165.4349],[26.35481,54.01696,164.9643],[26.34364,54.04869,163.4243],[26.33961,54.05549,162.0697],[26.33357,54.05722,163.0511],[26.28887,54.06063,146.6135],[26.28282,54.0599,146.9284],[26.27801,54.05691,147.9865],[26.27879,54.05117,156.2106],[26.27817,54.04683,162.8667],[26.276,54.04357,163.3808],[26.27181,54.04156,164.2907],[26.26665,54.04009,159.0554],[26.20334,54.03451,145.8218],[26.19544,54.03655,147.2378],[26.18706,54.04102,142.7241],[26.17606,54.05365,157.6153],[26.17203,54.06081,161.6158],[26.1697,54.0667,162.936],[26.16939,54.07489,168.4858],[26.1728,54.10905,172.1374],[26.17776,54.12316,185.1516],[26.17854,54.12941,180.9535],[26.17497,54.13246,178.3829],[26.17017,54.13463,189.939],[26.14825,54.14065,188.9904],[26.14345,54.14142,181.9341],[26.13942,54.14044,178.3242],[26.13601,54.13825,197.9898],[26.13353,54.13489,180.3978],[26.12841,54.12349,189.553],[26.12593,54.12047,178.7267],[26.1219,54.11946,186.0695],[26.11663,54.11993,170.3875],[26.08852,54.12757,176.1605],[26.08278,54.12972,174.8063],[26.07689,54.13272,177.7254],[26.07565,54.13639,185.446],[26.07596,54.14036,178.0262],[26.08511,54.1646,189.7604],[26.10159,54.19338,189.558],[26.10454,54.19633,194.6011],[26.10795,54.19871,200.2343],[26.11322,54.1993,206.3903],[26.14143,54.19773,192.2379],[26.14794,54.19819,199.5061],[26.15368,54.19912,208.0014],[26.15864,54.20062,215.7745],[26.21673,54.2307,197.4017],[26.23362,54.2339,183.1701],[26.24758,54.23405,193.7484],[26.29538,54.22871,182.3625],[26.40633,54.24108,189.9101],[26.41175,54.24243,201.7736],[26.41609,54.24439,215.0605],[26.4195,54.24646,211.8516],[26.42974,54.25498,202.6245],[26.46886,54.27875,259.0183],[26.48126,54.29038,280.4485],[26.50038,54.31444,259.4319],[26.56229,54.41058,153.606],[26.57391,54.4342,162.7001],[26.5767,54.4373,166.221],[26.58027,54.43988,156.783],[26.59872,54.44779,158.5625],[26.60368,54.45099,162.3741],[26.60978,54.45805,166.4719],[26.61241,54.46802,165.8366],[26.61381,54.48365,158.1385],[26.61148,54.49321,161.3564],[26.60792,54.50006,161.3164],[26.59825,54.50959,162.5366],[26.59376,54.51484,159.0431],[26.59112,54.52019,160.1854],[26.5905,54.53037,163.4862],[26.58973,54.53331,162.8321],[26.58523,54.54137,160.7137],[26.58492,54.54401,160.1868],[26.58647,54.54571,160.1047],[26.58926,54.54602,160.7702],[26.59314,54.54551,164.4668],[26.62342,54.53326,167.679],[26.63164,54.53119,170.7596],[26.6383,54.53083,170.0069],[26.64373,54.53352,165.8062],[26.64543,54.5392,165.0171],[26.64636,54.56592,155.4393],[26.64915,54.57109,155.5512],[26.65272,54.57365,155.1736],[26.65784,54.57341,160.7604],[26.66342,54.57248,162.2364],[26.67013,54.57243,155.5293],[26.67634,54.57398,154.9692],[26.68238,54.57946,171.8472],[26.68254,54.58365,171.5013],[26.67928,54.58814,167.7238],[26.67541,54.59481,167.0526],[26.67277,54.60558,155.3551],[26.67665,54.62245,158.3482],[26.67696,54.63005,154.7336],[26.67525,54.63387,154.3884],[26.67044,54.63372,154.1292],[26.64574,54.62641,164.0111],[26.63799,54.62524,165.6016],[26.63148,54.62592,152.5578],[26.61396,54.63251,162.8059],[26.59484,54.6362,155.2132],[26.59004,54.63886,154.9821],[26.58616,54.64333,154.9395],[26.58321,54.65144,172.0069],[26.58042,54.65682,158.3147],[26.57655,54.66168,166.7773],[26.57159,54.66643,161.1665],[26.56694,54.67175,161.2626],[26.55764,54.6856,155.8894],[26.54477,54.70059,155.5778],[26.54146,54.70591,158.9682],[26.53898,54.71384,155.5269],[26.53976,54.71997,150.9335],[26.54487,54.73457,159.5799],[26.54441,54.74126,158.3039],[26.54177,54.74749,170.0191],[26.53913,54.74994,169.9328],[26.53371,54.75183,169.624],[26.51325,54.75681,160.0584],[26.50642,54.75916,176.8871],[26.501,54.76234,168.6951],[26.44731,54.81004,152.2662],[26.42509,54.82557,153.4556],[26.41935,54.8274,154.8213],[26.40462,54.82828,159.2936],[26.39454,54.82994,158.5805],[26.38292,54.83306,143.791],[26.37077,54.83771,142.7401],[26.35992,54.84316,144.539],[26.35031,54.84947,142.288],[26.34411,54.85515,148.8415],[26.3376,54.86347,151.8061],[26.33713,54.87042,160.6365],[26.33899,54.89076,158.4609],[26.33682,54.89949,148.1315],[26.33,54.91014,149.4389],[26.31708,54.92375,149.2444],[26.31615,54.92755,148.5242],[26.31786,54.9305,157.327],[26.32163,54.93249,174.2446],[26.33977,54.93807,182.7908],[26.34814,54.94331,166.1345],[26.33295,54.94946,185.4342],[26.32235,54.94817,177.2512],[26.31305,54.94572,178.4488],[26.29135,54.93272,149.4515],[26.28484,54.93032,149.106],[26.2777,54.929,150.9773]]]}
,"properties": {"ISO3166-1-Alpha-3": "BLR","country": "Belarus","fill": "#FF0","name": "Grodno","area_km2": 25068.44,"hist_schema_id": "Elevation0-9000","hist_area_km2": {"75": 6.84,"100": 341.64,"125": 5125.15,"150": 7815.77,"175": 6115.57,"200": 3188.02,"225": 1319.99,"250": 637.79,"275": 384.17,"300": 125.85,"325": 7.66}}}