{"type":"Feature","properties":{"GID_1":"BLR.3_1","GID_0":"BLR","country":"Belarus","province":"Grodno","VARNAME_1":"Гродно|HrodzenskayaVoblasts'","NL_NAME_1":"Гродзенская","TYPE_1":"Oblast","ENGTYPE_1":"Region","CC_1":"NA","HASC_1":"BY.HR","ISO_1":"NA","name":"Grodno.province"},
"geometry":{"type": "MultiPolygon","coordinates": [[[[24.6661,52.9233,201.2183],[24.6334,52.9302,184.2395],[24.6285,52.9327,184.0641],[24.6273,52.9461,180.2713],[24.6314,52.9516,183.8228],[24.6804,52.9693,175.5023],[24.689,52.975,175.0743],[24.6883,52.983,179.5969],[24.7066,52.9836,197.4558],[24.711,52.9865,195.5592],[24.7105,52.9918,181.5046],[24.7148,52.9946,177.5611],[24.7146,52.9973,177.0217],[24.7375,52.9981,182.7462],[24.7425,52.9929,179.4296],[24.743,52.9875,180.1241],[24.7391,52.9793,173.2581],[24.7396,52.974,172.8778],[24.7355,52.9685,183.9992],[24.736,52.9632,181.8727],[24.7408,52.9606,181.5566],[24.7545,52.9611,166.955],[24.7593,52.9586,177.6691],[24.7639,52.9587,172.7621],[24.7769,52.9672,180.836],[24.7814,52.9673,177.291],[24.8004,52.9599,147.1024],[24.8141,52.9603,146.6005],[24.8237,52.9552,171.3046],[24.8376,52.953,191.492],[24.8467,52.9533,164.166],[24.8736,52.9595,173.3752],[24.8827,52.9597,168.4824],[24.892,52.9573,159.4946],[24.9007,52.963,138.7506],[24.9052,52.9631,137.407],[24.915,52.9553,136.0483],[24.9287,52.9557,137.4216],[24.9376,52.9587,136.4841],[24.9414,52.9669,136.9254],[24.9503,52.9698,143.7639],[24.9594,52.9701,169.6257],[24.9826,52.9654,155.7379],[24.9923,52.9576,152.0992],[24.9928,52.9522,149.5815],[24.998,52.9443,161.9679],[24.9982,52.9416,156.7119],[24.9941,52.9362,156.9509],[24.9896,52.936,160.4506],[24.9853,52.9332,200.5164],[24.9857,52.9279,190.7479],[25.0,52.9202,175.263],[25.0197,52.902,178.2668],[25.029,52.8995,173.4333],[25.0471,52.9,173.6495],[25.0549,52.9164,176.8253],[25.054,52.9271,177.4318],[25.0713,52.9383,172.6419],[25.0804,52.9385,174.94],[25.0897,52.9361,179.2666],[25.0899,52.9334,193.0788],[25.0858,52.928,195.5133],[25.0905,52.9254,178.9481],[25.0862,52.9226,192.3373],[25.0864,52.9199,192.6949],[25.0823,52.9144,191.9698],[25.083,52.9064,177.6878],[25.0787,52.9036,193.219],[25.0841,52.893,174.3667],[25.0797,52.8902,171.9817],[25.0847,52.8849,168.0239],[25.0851,52.8796,168.1977],[25.0901,52.8743,166.2567],[25.073,52.8605,166.3515],[25.0735,52.8551,161.9304],[25.083,52.85,165.3355],[25.092,52.8502,163.4916],[25.0963,52.853,161.2321],[25.1004,52.8585,168.4978],[25.0998,52.8665,167.0896],[25.1041,52.8693,168.7933],[25.1089,52.8668,166.5986],[25.119,52.8536,163.6885],[25.1328,52.8513,162.1353],[25.1369,52.8568,166.7554],[25.1362,52.8648,170.6743],[25.1408,52.8649,171.898],[25.1585,52.8708,167.6967],[25.1626,52.8762,176.9832],[25.1714,52.8792,159.5379],[25.1759,52.8793,158.1844],[25.1908,52.8635,179.7891],[25.191,52.8608,176.8134],[25.2142,52.8534,163.2258],[25.2233,52.8536,161.1351],[25.2319,52.8592,161.5534],[25.2317,52.8619,162.1819],[25.2268,52.8671,169.6227],[25.2261,52.8752,178.6622],[25.2436,52.8837,164.5919],[25.2833,52.8981,166.364],[25.2924,52.8983,164.0267],[25.2971,52.8958,165.1014],[25.2985,52.877,163.8698],[25.3036,52.869,168.7223],[25.304,52.8637,183.131],[25.309,52.8584,178.4073],[25.3137,52.8558,166.8809],[25.35,52.854,174.9691],[25.3632,52.8597,180.7305],[25.3758,52.8735,181.152],[25.3754,52.8788,181.2082],[25.3614,52.8839,190.1841],[25.3345,52.8805,175.0568],[25.3298,52.8831,181.6178],[25.328,52.9073,187.9374],[25.3366,52.9129,190.4126],[25.3454,52.9158,204.1698],[25.3545,52.916,199.3003],[25.3541,52.9214,190.0013],[25.3442,52.9319,195.3352],[25.3301,52.9396,185.8171],[25.32,52.9528,178.4303],[25.3243,52.9556,180.2413],[25.3289,52.9558,178.0837],[25.3608,52.9538,184.4519],[25.3928,52.9492,209.831],[25.4332,52.9556,139.2556],[25.4418,52.9612,152.0991],[25.4416,52.9639,170.3033],[25.4365,52.9719,135.2804],[25.4353,52.988,135.2879],[25.4399,52.9881,138.1006],[25.4531,52.9938,165.4327],[25.4527,52.9992,147.2753],[25.4608,53.0129,144.4592],[25.5232,53.0278,194.3878],[25.5319,53.0334,195.1239],[25.5402,53.0444,195.0586],[25.5574,53.0583,188.4179],[25.5708,53.0613,208.0199],[25.5846,53.059,206.5502],[25.589,53.0618,205.5846],[25.5932,53.0673,203.4141],[25.5928,53.0726,205.4667],[25.6015,53.0782,193.8055],[25.6055,53.0864,192.9502],[25.6002,53.0971,202.9513],[25.5992,53.1106,190.4104],[25.6034,53.1161,200.8987],[25.6163,53.1272,200.2185],[25.6152,53.1434,198.6688],[25.6102,53.1486,204.2151],[25.6089,53.1675,202.3327],[25.6129,53.1757,204.5938],[25.6127,53.1784,209.4282],[25.5987,53.1835,212.3694],[25.5848,53.1858,201.7818],[25.5757,53.1856,206.9108],[25.5708,53.1909,211.0223],[25.5702,53.199,173.8926],[25.5746,53.2018,167.8688],[25.5791,53.2019,186.827],[25.5833,53.2074,201.8773],[25.5829,53.2128,205.4221],[25.5873,53.2156,210.4985],[25.6007,53.2186,208.9846],[25.5956,53.2266,221.2577],[25.5947,53.2401,212.5991],[25.5988,53.2456,212.9513],[25.5985,53.251,214.639],[25.6024,53.2592,222.4968],[25.6023,53.2619,225.024],[25.6066,53.2647,227.5538],[25.6062,53.2701,207.3614],[25.6106,53.2729,191.7249],[25.6152,53.273,208.3698],[25.6194,53.2785,210.4794],[25.619,53.2839,224.7837],[25.6049,53.289,221.2892],[25.6043,53.2971,210.1881],[25.6178,53.3001,209.0916],[25.6275,53.2922,210.8931],[25.6367,53.2925,230.8433],[25.6454,53.2981,231.2284],[25.6496,53.3036,200.1398],[25.6445,53.3116,183.0435],[25.6443,53.3143,176.1768],[25.6527,53.3253,192.3419],[25.6573,53.3254,188.629],[25.6607,53.3417,213.8188],[25.6557,53.347,225.7242],[25.6548,53.3605,226.1974],[25.659,53.366,213.0856],[25.6633,53.3688,215.0719],[25.6769,53.3719,230.0744],[25.6805,53.3855,239.8799],[25.6897,53.3857,220.6503],[25.6941,53.3886,237.4042],[25.6937,53.394,228.1096],[25.7025,53.3996,220.7532],[25.7117,53.3998,216.9509],[25.7204,53.4055,241.2251],[25.7388,53.4059,229.7469],[25.7482,53.4034,212.9956],[25.7487,53.3953,220.8411],[25.7583,53.3901,219.03],[25.7812,53.3907,208.5122],[25.7859,53.3881,214.6802],[25.7863,53.3827,205.2941],[25.8001,53.383,225.4772],[25.7995,53.3912,234.9137],[25.8221,53.3971,214.293],[25.8358,53.3975,209.4281],[25.836,53.3948,213.1343],[25.8457,53.3869,217.9877],[25.8547,53.3898,226.7393],[25.8856,53.4095,221.8421],[25.8946,53.4124,244.5702],[25.9039,53.4099,234.5596],[25.9134,53.4047,246.9162],[25.9138,53.3993,251.3543],[25.9185,53.3967,273.5479],[25.9466,53.3892,243.2959],[25.9695,53.3897,248.8027],[25.979,53.3845,228.172],[25.9883,53.382,221.5202],[26.0063,53.3879,223.0378],[26.0155,53.3881,226.1235],[26.0202,53.3855,239.9136],[26.0209,53.3746,226.2811],[26.0348,53.3722,241.8307],[26.0483,53.3752,229.5872],[26.0622,53.3728,206.1305],[26.0666,53.3756,212.6009],[26.0752,53.3867,206.1945],[26.084,53.3923,217.9965],[26.0886,53.3924,232.9351],[26.0935,53.3871,227.1246],[26.0892,53.3816,199.8621],[26.0848,53.3787,204.9537],[26.0853,53.3706,188.1074],[26.0899,53.3707,212.8695],[26.1121,53.382,229.4187],[26.1258,53.3823,206.3582],[26.1674,53.3778,181.5931],[26.2041,53.3758,206.6128],[26.2269,53.379,198.623],[26.2592,53.3742,178.2224],[26.2912,53.3748,153.8796],[26.3005,53.3723,150.555],[26.3101,53.3643,162.4195],[26.3464,53.3704,148.3458],[26.3555,53.3706,151.0942],[26.3959,53.382,165.6784],[26.4046,53.3876,169.981],[26.4135,53.3904,172.5515],[26.4495,53.3908,188.6329],[26.4584,53.3963,183.3267],[26.4674,53.3964,188.3162],[26.481,53.3938,179.4202],[26.5036,53.394,181.5475],[26.5082,53.3913,184.4318],[26.5217,53.3915,187.6151],[26.5532,53.3999,182.3358],[26.5668,53.4,185.03],[26.5713,53.4028,183.4589],[26.571,53.4137,190.7051],[26.5662,53.4218,198.0874],[26.5523,53.4298,201.9415],[26.5426,53.4515,208.7406],[26.5423,53.4624,209.3974],[26.5466,53.4706,194.7367],[26.5466,53.4733,193.5015],[26.5509,53.4788,193.2703],[26.5551,53.4924,169.6286],[26.5503,53.5006,169.976],[26.5319,53.5086,167.4839],[26.5364,53.5113,176.1988],[26.5362,53.5168,167.5381],[26.5226,53.5167,152.571],[26.5181,53.5139,158.3425],[26.5137,53.5084,163.1277],[26.4956,53.5083,173.6956],[26.4909,53.511,175.8473],[26.5221,53.533,165.4882],[26.5446,53.5414,153.2341],[26.5444,53.5468,142.2054],[26.5397,53.5522,142.3757],[26.5395,53.5604,149.6918],[26.5347,53.5658,148.0269],[26.5301,53.5685,151.5657],[26.5119,53.5683,141.3371],[26.5071,53.5765,141.5989],[26.4887,53.5818,142.8243],[26.4606,53.6061,163.3603],[26.4369,53.6304,143.8373],[26.4041,53.6548,161.5109],[26.3992,53.6629,158.2343],[26.3622,53.6708,156.3141],[26.3618,53.6817,157.0604],[26.3662,53.6845,144.8427],[26.366,53.6899,148.6804],[26.3702,53.7009,143.461],[26.3655,53.7036,140.6929],[26.3098,53.7086,139.5248],[26.305,53.7113,156.3568],[26.2998,53.7249,155.0509],[26.2806,53.7438,154.7473],[26.2611,53.7681,152.9566],[26.2655,53.7737,143.088],[26.27,53.7765,141.7729],[26.2699,53.7792,150.9185],[26.2603,53.7873,138.6205],[26.26,53.7955,135.4248],[26.278199999999998,53.8011,145.7016],[26.2733,53.8066,148.0664],[26.2592,53.8146,152.5761],[26.2499,53.8145,148.3464],[26.2317,53.8087,152.4948],[26.2269,53.8114,138.5082],[26.2223,53.8113,137.462],[26.2221,53.8168,136.9711],[26.2311,53.8224,153.8939],[26.231,53.8251,150.3894],[26.2263,53.8278,150.4591],[26.2123,53.8303,147.0292],[26.2213,53.8359,147.0815],[26.2444,53.8363,149.6137],[26.2535,53.8391,154.2238],[26.2534,53.8418,152.9731],[26.234,53.8635,141.2749],[26.2338,53.868899999999996,152.1385],[26.2383,53.8717,155.6947],[26.2429,53.8718,150.5197],[26.2477,53.8664,146.5058],[26.2616,53.8665,145.2095],[26.2661,53.8693,146.6263],[26.2658,53.8748,153.3463],[26.2748,53.8803,150.418],[26.2841,53.8804,153.3777],[26.2888,53.8777,145.8841],[26.2892,53.8695,142.057],[26.2985,53.8669,147.2442],[26.3076,53.8724,145.5259],[26.3165,53.8834,149.2279],[26.3256,53.8861,152.0724],[26.3255,53.8889,150.6395],[26.3346,53.8944,151.3251],[26.3437,53.8972,154.0857],[26.3761,53.8973,156.6715],[26.3807,53.9001,143.8102],[26.3804,53.9055,146.8269],[26.366,53.9191,165.2159],[26.3612,53.9218,156.1013],[26.361,53.9273,151.8053],[26.3655,53.93,155.4271],[26.4161,53.9385,149.6358],[26.4253,53.9412,153.2846],[26.4343,53.9467,156.2587],[26.4339,53.9576,156.6998],[26.4239,53.9767,147.9914],[26.4191,53.9794,159.6438],[26.419,53.9821,158.0437],[26.4143,53.9848,152.1462],[26.3997,54.0011,163.104],[26.3904,54.0011,154.8136],[26.3766,53.9983,153.1534],[26.3582,53.9927,144.8089],[26.3538,53.9872,144.406],[26.3354,53.9817,143.5419],[26.3215,53.9816,142.4297],[26.3213,53.9843,158.521],[26.3167,53.9843,151.0472],[26.321,53.9925,145.3106],[26.3301,53.998,149.1495],[26.3342,54.009,150.1356],[26.334,54.0144,156.3677],[26.3291,54.0198,159.9389],[26.3289,54.0253,157.0375],[26.3333,54.0308,148.3542],[26.3226,54.0607,166.4425],[26.3178,54.0634,148.808],[26.3039,54.0606,146.3292],[26.281,54.0523,146.478],[26.2672,54.0495,146.3195],[26.2491,54.0412,146.5902],[26.2448,54.0357,155.3649],[26.2357,54.0329,158.7391],[26.1898,54.027,149.4964],[26.1804,54.0296,141.5875],[26.1757,54.0323,142.16],[26.1707,54.0404,147.3344],[26.1659,54.0431,147.7674],[26.1609,54.0513,158.0322],[26.1504,54.0785,175.5121],[26.1501,54.084,178.5639],[26.1452,54.0894,179.7365],[26.1496,54.0949,167.2046],[26.149,54.1058,188.9997],[26.1301,54.1138,184.7025],[26.1294,54.1302,184.8038],[26.1425,54.1467,183.9646],[26.1515,54.1522,170.8051],[26.1513,54.155,164.3191],[26.1418,54.1603,164.1358],[26.1324,54.163,166.2478],[26.1278,54.163,166.4652],[26.1188,54.1574,174.8311],[26.0909,54.1599,187.7407],[26.0914,54.149,182.3157],[26.0962,54.1463,177.9404],[26.1107,54.1328,172.8488],[26.111,54.1273,173.9811],[26.102,54.1218,170.1569],[26.0552,54.1323,176.3476],[26.0363,54.1403,185.5481],[26.0171,54.1538,190.3733],[26.0163,54.1702,211.7617],[26.0432,54.1869,190.81],[26.0382,54.1923,214.7887],[26.0469,54.2033,203.3058],[26.0603,54.2143,191.7979],[26.0651,54.2116,187.2803],[26.0653,54.2061,197.8087],[26.0608,54.2034,211.1004],[26.0611,54.1979,207.8562],[26.0659,54.1952,209.346],[26.0799,54.1926,183.7451],[26.0985,54.1927,198.9508],[26.1029,54.1982,199.5659],[26.1168,54.1983,214.2509],[26.1302,54.2093,208.3064],[26.1528,54.2231,260.0513],[26.1939,54.2398,208.5039],[26.2033,54.2371,213.9701],[26.2078,54.2399,210.8858],[26.2171,54.24,191.1036],[26.2263,54.2428,178.831],[26.2449,54.2429,196.4863],[26.2638,54.2349,202.6056],[26.2783,54.2241,182.2216],[26.2877,54.2214,186.6131],[26.3252,54.2189,171.094],[26.3392,54.2217,170.1618],[26.3671,54.23,170.0607],[26.3807,54.2409,181.336],[26.4037,54.2547,228.5006],[26.4218,54.2711,250.7697],[26.4397,54.2957,265.5507],[26.4585,54.2957,276.3048],[26.5002,54.3123,264.6311],[26.4994,54.3341,238.0866],[26.5038,54.3422,229.186],[26.5177,54.3505,197.2677],[26.5221,54.3587,184.2006],[26.5314,54.3614,166.9109],[26.5494,54.386,152.7429],[26.5587,54.3915,151.7613],[26.5724,54.4052,151.3343],[26.6144,54.4135,155.6706],[26.6284,54.419,157.9547],[26.6608,54.4382,157.688],[26.6559,54.4463,160.0926],[26.6321,54.4571,174.5351],[26.6367,54.4626,153.1025],[26.6553,54.4709,153.1091],[26.6691,54.4818,152.8819],[26.6689,54.4927,155.7045],[26.6641,54.4981,157.2434],[26.6636,54.5199,159.0057],[26.6589,54.5226,159.0234],[26.6588,54.5253,159.1029],[26.6541,54.5253,159.7945],[26.6402,54.5171,165.6996],[26.6354,54.5225,161.0132],[26.6352,54.5307,173.947],[26.6209,54.5361,164.9738],[26.6255,54.5415,166.4356],[26.6255,54.5443,169.0726],[26.6395,54.5498,168.8108],[26.6394,54.5525,172.8555],[26.6252,54.5579,166.3209],[26.6251,54.5606,170.4277],[26.6297,54.5661,159.8926],[26.6392,54.5634,162.852],[26.6535,54.5553,189.0379],[26.6677,54.5499,162.5919],[26.6817,54.5527,161.4739],[26.6769,54.5608,159.3279],[26.6719,54.5744,153.9366],[26.6671,54.5771,156.1688],[26.6763,54.5881,162.3659],[26.6858,54.5854,169.9131],[26.6953,54.58,170.3355],[26.7,54.58,170.8616],[26.7046,54.5827,166.7045],[26.7092,54.5882,153.4734],[26.7045,54.5909,170.5987],[26.7044,54.5963,160.9228],[26.6949,54.599,155.1105],[26.6855,54.599,157.5856],[26.6807,54.6044,156.0004],[26.6803,54.6208,156.9997],[26.6896,54.629,155.9767],[26.7035,54.6372,153.8652],[26.7035,54.6399,153.7452],[26.6939,54.6454,153.5672],[26.6845,54.6453,153.8572],[26.6799,54.6399,157.6171],[26.6611,54.6398,152.8658],[26.6467,54.6507,152.8327],[26.6232,54.6506,159.5346],[26.6186,54.6451,164.8804],[26.6139,54.6424,168.5961],[26.5949,54.6532,161.3565],[26.5899,54.6668,156.8383],[26.5802,54.6777,156.0716],[26.58,54.6886,163.6781],[26.5608,54.7049,162.6981],[26.5512,54.7104,150.6255],[26.5509,54.724,150.9248],[26.5789,54.7405,169.039],[26.5739,54.7541,171.7022],[26.5644,54.7568,174.9578],[26.5502,54.7567,168.1979],[26.5312,54.7621,149.0],[26.5263,54.7703,149.0],[26.5025,54.7838,149.0],[26.4976,54.792,149.0],[26.4645,54.8108,149.0],[26.455,54.8134,149.0],[26.4548,54.827,149.0],[26.45,54.8324,149.0],[26.4453,54.835,149.0],[26.4173,54.8319,154.0703],[26.408,54.8263,158.1637],[26.3892,54.826,149.6389],[26.3799,54.8205,140.7784],[26.3705,54.8176,140.1316],[26.3657,54.8203,142.393],[26.3657,54.823,148.6429],[26.351,54.8417,132.3066],[26.351,54.8444,134.8376],[26.3602,54.8554,152.7251],[26.3647,54.8663,156.4961],[26.3642,54.8853,165.8625],[26.3736,54.8881,166.7101],[26.3733,54.9016,164.54],[26.3587,54.9122,175.259],[26.3443,54.9173,151.5406],[26.33,54.9171,148.744],[26.2961,54.9299,148.0365],[26.2765,54.9484,152.9473],[26.2713,54.9644,182.48],[26.2663,54.9723,180.7262],[26.266,54.9831,175.4594],[26.2611,54.9883,168.4966],[26.2466,54.9934,178.9102],[26.2225,54.9981,175.0098],[26.2081,54.9951,191.839],[26.2033,54.9923,183.2082],[26.1888,54.9919,177.9533],[26.1839,54.9944,188.3544],[26.1645,54.9912,173.6682],[26.155,54.9857,170.4725],[26.1452,54.9854,186.9486],[26.1403,54.9879,177.8585],[26.1354,54.9878,186.3013],[26.1354,54.9904,182.568],[26.1306,54.9877,185.4989],[26.1308,54.9797,181.8501],[26.1212,54.9715,166.5332],[26.0871,54.9706,164.1697],[26.0873,54.9653,169.3243],[26.0825,54.9625,167.3364],[26.0874,54.9627,175.0075],[26.0875,54.96,167.2021],[26.0925,54.9548,166.2747],[26.0634,54.9488,158.4989],[26.0734,54.9437,155.1691],[26.0735,54.9411,154.375],[26.0685,54.9436,153.4877],[26.0338,54.9426,162.5034],[25.9967,54.9516,167.9124],[25.9961,54.9568,153.066],[25.9909,54.9566,153.1593],[25.9863,54.9512,161.7076],[25.9808,54.9535,159.6701],[25.9655,54.9503,165.3039],[25.9658,54.9477,159.0599],[25.9554,54.9473,159.0952],[25.9453,54.9444,161.1982],[25.9305,54.936,156.213],[25.9156,54.9302,156.1143],[25.8892,54.9319,170.2538],[25.8782,54.9342,158.7953],[25.8787,54.9315,159.7261],[25.8738,54.9287,145.7847],[25.8742,54.9261,149.1758],[25.8563,54.9247,162.0043],[25.8511,54.9137,145.1748],[25.8554,54.9145,144.2581],[25.8515,54.9087,152.8693],[25.8518,54.9062,163.3073],[25.8571,54.9038,142.8083],[25.8576,54.9012,143.7906],[25.8526,54.9009,143.8348],[25.8538,54.8929,144.6935],[25.849,54.8925,142.9767],[25.8446,54.8895,145.1534],[25.84,54.889,134.6079],[25.8403,54.8864,143.7409],[25.836,54.8857,144.2271],[25.8361,54.8832,140.5659],[25.8322,54.88,142.7393],[25.8243,54.8782,141.6498],[25.8244,54.8733,140.5855],[25.8205,54.8725,144.4387],[25.8166,54.8692,152.8066],[25.8166,54.8667,152.4228],[25.8127,54.8658,148.2121],[25.8128,54.861,146.7505],[25.8089,54.8576,137.5291],[25.805,54.8568,113.4415],[25.805,54.8543,134.9715],[25.801,54.8535,146.0547],[25.8012,54.851,143.7126],[25.7919,54.8505,133.0963],[25.7927,54.8475,142.7209],[25.7877,54.8476,139.0073],[25.7884,54.8445,138.297],[25.7857,54.8329,145.726],[25.7896,54.8338,154.1523],[25.7897,54.8289,144.4045],[25.7858,54.8256,141.805],[25.7859,54.8182,148.5342],[25.778199999999998,54.8116,170.1389],[25.7664,54.809,168.7997],[25.7619,54.8112,171.2112],[25.7584,54.8051,185.4515],[25.7587,54.8024,186.1126],[25.7541,54.8022,188.2583],[25.7549,54.7967,206.0506],[25.7467,54.7904,227.1889],[25.7511,54.7861,209.7082],[25.7468,54.7829,212.6673],[25.7512,54.7689,250.8859],[25.7593,54.7606,238.7556],[25.7593,54.7506,272.5277],[25.7553,54.7498,260.9594],[25.7555,54.7148,275.1592],[25.7514,54.7041,238.6241],[25.7473,54.6983,217.6559],[25.7431,54.6976,215.5423],[25.7474,54.6858,218.0292],[25.7474,54.6808,219.9304],[25.7432,54.6826,218.6967],[25.739,54.6794,213.8225],[25.7433,54.6776,216.3727],[25.7519,54.6415,169.5649],[25.752,54.629,171.1001],[25.7561,54.6297,173.6078],[25.7603,54.6254,172.9594],[25.7607,54.6053,183.4362],[25.7564,54.6046,175.7959],[25.7607,54.6029,178.6486],[25.7565,54.5996,177.7371],[25.7608,54.5979,194.5283],[25.761,54.5906,186.8289],[25.7659,54.5865,199.9412],[25.7567,54.5823,186.6376],[25.7611,54.5834,190.9117],[25.7526,54.5764,183.7123],[25.7526,54.5716,186.0688],[25.7399,54.5671,197.0574],[25.7064,54.5472,262.2022],[25.6893,54.5399,270.7403],[25.6894,54.5373,281.1865],[25.6682,54.5122,276.1584],[25.6639,54.5093,260.4388],[25.6642,54.5016,282.2207],[25.6601,54.4935,245.6468],[25.6515,54.4876,229.5473],[25.6517,54.4825,232.0482],[25.6472,54.4822,230.2576],[25.6474,54.4796,218.8409],[25.6518,54.4799,221.9932],[25.6475,54.477,238.1559],[25.6476,54.4744,241.2105],[25.6296,54.4732,224.9696],[25.6253,54.4678,209.1203],[25.6119,54.4644,213.5234],[25.6167,54.4595,224.489],[25.6258,54.46,200.1501],[25.6302,54.4628,203.4833],[25.6395,54.4582,218.9712],[25.635,54.4579,209.291],[25.6306,54.4551,206.0227],[25.6352,54.4528,208.0916],[25.6307,54.4525,207.7368],[25.6312,54.4447,196.3491],[25.6357,54.445,205.8491],[25.6407,54.4376,221.5001],[25.6411,54.4299,203.8954],[25.6371,54.4218,196.7849],[25.6284,54.416,211.0641],[25.6156,54.4021,212.7776],[25.6065,54.4015,215.2056],[25.6063,54.4041,207.3941],[25.6016,54.4065,203.2696],[25.5979,54.3932,210.4902],[25.6028,54.3883,214.032],[25.6034,54.3806,213.8258],[25.5763,54.3713,206.8197],[25.5687,54.35,235.4314],[25.5454,54.3488,210.6917],[25.5461,54.3382,237.8732],[25.5602,54.3392,216.6694],[25.5653,54.3342,223.8431],[25.5656,54.3315,230.8195],[25.5609,54.3314,219.6702],[25.5611,54.3257,224.6467],[25.5662,54.323,214.8112],[25.5901,54.3265,220.5645],[25.5993,54.3295,219.8424],[25.6047,54.3242,223.9951],[25.6243,54.3192,262.8966],[25.6337,54.3195,277.368],[25.6425,54.3254,234.2648],[25.6518,54.3257,226.9641],[25.652,54.323,240.9216],[25.657,54.3176,241.1463],[25.6655,54.3262,227.9943],[25.6741,54.332,218.0619],[25.6923,54.3327,232.6349],[25.7222,54.306399999999996,228.4368],[25.7136,54.3006,231.3938],[25.7232,54.2954,224.0204],[25.7146,54.2896,223.8781],[25.729,54.2819,210.8522],[25.7334,54.2848,209.032],[25.738,54.285,202.5445],[25.7382,54.2823,202.3298],[25.7425,54.2852,201.0958],[25.7473,54.2826,201.0566],[25.7519,54.2828,204.1306],[25.7521,54.2801,200.1981],[25.7565,54.2829,205.6429],[25.7612,54.283,214.2877],[25.7614,54.2803,202.8441],[25.7663,54.2776,219.5636],[25.7619,54.2748,202.0257],[25.7668,54.2722,215.1024],[25.767,54.2694,215.8835],[25.7766,54.2561,203.9968],[25.7854,54.2511,207.5475],[25.7856,54.2483,213.2818],[25.7983,54.2489,218.7472],[25.7986,54.2435,229.0114],[25.7659,54.2312,198.259],[25.7703,54.2259,191.1862],[25.7662,54.2258,195.0744],[25.7702,54.2232,192.1041],[25.7743,54.2233,202.206],[25.7742,54.2178,199.9999],[25.7784,54.218,194.5143],[25.7783,54.2152,192.9752],[25.7825,54.2154,178.5266],[25.7909,54.2104,185.4839],[25.7866,54.2074,188.5875],[25.7908,54.2076,184.8645],[25.7907,54.2021,186.3247],[25.782,54.1934,163.3216],[25.7905,54.1883,197.5009],[25.7902,54.1773,178.144],[25.7946,54.1748,168.8581],[25.7991,54.1749,167.4132],[25.7945,54.1664,172.0731],[25.79,54.1634,172.2639],[25.79,54.1663,162.0825],[25.7855,54.1661,170.4245],[25.79,54.169,165.3038],[25.7857,54.1689,172.5946],[25.7858,54.1716,166.1617],[25.7771,54.1713,179.9941],[25.777,54.1685,174.9408],[25.7493,54.1698,173.3202],[25.7488,54.1642,172.4508],[25.7443,54.1667,173.8775],[25.7446,54.1695,173.8668],[25.74,54.172,165.7298],[25.7353,54.1717,168.3401],[25.7262,54.1767,174.6648],[25.7121,54.1758,174.6543],[25.7167,54.1733,166.6774],[25.7165,54.1706,161.7352],[25.7115,54.1675,185.6454],[25.7109,54.1618,173.5025],[25.7064,54.1644,184.354],[25.7017,54.1641,166.6411],[25.7014,54.1613,177.6743],[25.697,54.1638,166.5362],[25.6959,54.1525,173.9269],[25.6907,54.1466,169.617],[25.6717,54.1454,184.5346],[25.6568,54.1389,177.2278],[25.6566,54.1361,177.7686],[25.6515,54.133,182.5685],[25.6423,54.1353,180.4216],[25.6421,54.1325,178.0157],[25.6328,54.1348,182.8585],[25.6333,54.1403,181.8914],[25.6285,54.1401,182.6261],[25.6288,54.1429,183.3302],[25.6339,54.1459,174.5913],[25.6054,54.1443,174.5386],[25.606,54.1499,181.7109],[25.5918,54.1491,177.8979],[25.5735,54.1536,175.9972],[25.5688,54.1534,177.3979],[25.5686,54.1506,178.635],[25.5591,54.1475,202.6789],[25.5551,54.1554,208.1908],[25.5414,54.1575,195.1572],[25.5417,54.1602,192.1719],[25.537,54.16,193.519],[25.538,54.1681,185.0948],[25.5329,54.1652,187.9101],[25.5286,54.1677,186.2509],[25.5289,54.1705,180.2268],[25.524,54.1761,180.0886],[25.5194,54.176,177.2747],[25.5239,54.179,183.2141],[25.5238,54.1818,178.877],[25.5283,54.1877,186.2219],[25.5427,54.191,193.7235],[25.5524,54.1915,205.4092],[25.5666,54.198,203.5238],[25.5665,54.2008,183.3708],[25.5761,54.2013,211.9527],[25.5758,54.2211,198.8075],[25.5661,54.2206,178.0858],[25.561,54.2232,177.5273],[25.5606,54.2317,197.7298],[25.5657,54.2291,186.3396],[25.5752,54.2381,211.8942],[25.59,54.2304,182.2575],[25.6042,54.2311,178.5581],[25.6042,54.2368,181.8902],[25.5846,54.2499,193.5552],[25.5794,54.2554,231.7718],[25.5844,54.2556,216.9937],[25.584,54.2641,230.036],[25.5792,54.261,228.7934],[25.5789,54.2667,235.7626],[25.5739,54.2665,241.9919],[25.5738,54.2693,243.0728],[25.5688,54.2691,240.8394],[25.5637,54.2717,239.4105],[25.5737,54.2721,237.757],[25.5785,54.2752,242.6871],[25.5783,54.2809,240.4613],[25.5684,54.2776,231.6906],[25.5484,54.2853,198.1062],[25.5342,54.2878,215.5132],[25.5341,54.2907,213.6136],[25.5294,54.2964,190.1949],[25.5291,54.305,213.1681],[25.5243,54.3075,208.5478],[25.5289,54.3105,212.0286],[25.5288,54.3132,214.133],[25.5099,54.3148,198.983],[25.5103,54.3068,189.1327],[25.4961,54.3087,205.539],[25.4915,54.3058,187.2305],[25.4918,54.3004,185.0123],[25.4825,54.2973,191.6939],[25.4827,54.2946,206.0787],[25.478,54.2944,201.8415],[25.4778,54.2971,184.7421],[25.4685,54.2967,183.2691],[25.4682,54.302,182.6277],[25.4588,54.3016,186.6038],[25.4543,54.2987,187.4825],[25.4494,54.3012,199.1321],[25.4448,54.301,193.8628],[25.4311,54.2924,183.163],[25.4217,54.2921,181.5559],[25.422,54.2867,180.5675],[25.4083,54.2781,176.8187],[25.394,54.283,168.9642],[25.3896,54.2775,194.0847],[25.3757,54.2743,177.1899],[25.3666,54.2686,166.1588],[25.3525,54.2682,165.1228],[25.3477,54.2708,171.7011],[25.3479,54.2681,162.7858],[25.3432,54.2679,156.2823],[25.3386,54.2651,163.7531],[25.3059,54.2642,167.0231],[25.3011,54.2667,168.3431],[25.301,54.2694,174.816],[25.2964,54.2693,168.1014],[25.2962,54.272,167.9894],[25.2916,54.2719,165.782],[25.2914,54.2745,174.413],[25.2869,54.2717,162.2915],[25.2866,54.2771,184.5532],[25.282,54.2769,168.9086],[25.2821,54.2743,158.5721],[25.2686,54.2632,174.9032],[25.2643,54.255,175.1177],[25.2547,54.2601,193.6964],[25.2498,54.2653,171.8761],[25.2451,54.2651,175.9585],[25.2266,54.2592,161.6312],[25.2273,54.2459,163.2697],[25.2227,54.2431,161.8818],[25.2181,54.243,157.991],[25.2183,54.2376,158.7592],[25.2139,54.2321,161.7579],[25.2142,54.224,162.4663],[25.2096,54.2211,162.4165],[25.2097,54.2184,168.2663],[25.1961,54.2098,159.3586],[25.1913,54.2125,157.8301],[25.1868,54.2097,158.2335],[25.1869,54.2069,160.0657],[25.173,54.2039,158.3904],[25.1734,54.1955,160.7442],[25.1597,54.1896,164.0272],[25.155,54.1896,165.0216],[25.1551,54.1867,169.6519],[25.1505,54.1867,167.1774],[25.1234,54.1692,176.0586],[25.1147,54.1576,174.6716],[25.0968,54.1458,159.6654],[25.0875,54.1457,157.751],[25.0878,54.14,159.5446],[25.0788,54.1341,153.6477],[25.0645,54.1396,152.5251],[25.0274,54.1388,148.0966],[25.0177,54.1443,151.4126],[25.0036,54.1468,145.0863],[24.9938,54.1522,146.3169],[24.9933,54.1579,146.5313],[24.9884,54.1606,146.7349],[24.9928,54.1636,149.947],[24.9785,54.1741,147.8697],[24.9736,54.1714,141.5397],[24.9708,54.1736,141.1885],[24.9635,54.1729,141.0543],[24.9514,54.1671,143.4639],[24.9486,54.1692,141.1877],[24.9401,54.1637,146.1716],[24.9393,54.1612,150.9954],[24.9174,54.1568,152.6763],[24.9053,54.1509,157.1034],[24.894,54.1475,163.3415],[24.8904,54.1472,157.7479],[24.8912,54.1497,156.5175],[24.8803,54.1488,158.3586],[24.8799,54.1463,166.7486],[24.8756,54.146,164.992],[24.8722,54.1457,160.8234],[24.872,54.1483,161.9326],[24.8633,54.1479,159.0662],[24.8637,54.1453,163.4352],[24.8503,54.1447,177.231],[24.8599,54.1373,166.1764],[24.862,54.1327,164.7225],[24.8283,54.1148,199.9724],[24.8217,54.1144,192.0251],[24.8229,54.1172,201.3358],[24.8194,54.1195,192.2152],[24.8115,54.1138,188.815],[24.8138,54.1113,177.3302],[24.81,54.103,163.168],[24.8181,54.0928,168.6819],[24.8192,54.0875,167.9294],[24.8225,54.0849,174.6645],[24.8221,54.0821,181.4366],[24.8303,54.0769,154.3176],[24.8302,54.0686,146.3146],[24.8347,54.0688,151.3191],[24.8353,54.0437,163.8024],[24.8447,54.0383,169.7191],[24.8493,54.0384,163.8345],[24.8542,54.0329,153.4205],[24.8634,54.0331,154.3711],[24.877,54.0362,162.6368],[24.8818,54.0335,163.9201],[24.8821,54.0279,177.394],[24.8776,54.0249,159.7878],[24.873,54.0248,174.842],[24.8683,54.0275,163.4541],[24.8453,54.027,144.4146],[24.8454,54.0242,143.9832],[24.85,54.0243,144.5445],[24.8502,54.0215,141.9353],[24.8548,54.0216,147.693],[24.8503,54.0187,143.5342],[24.8505,54.0159,142.1806],[24.8506,54.0131,145.9425],[24.8552,54.0132,148.001],[24.8554,54.0104,148.405],[24.8509,54.0074,145.5227],[24.8371,54.0071,135.2991],[24.8373,54.0043,147.524],[24.842,54.0016,153.5891],[24.8374,54.0015,150.5782],[24.8241,53.9928,129.9461],[24.8195,53.9927,129.6418],[24.8053,53.998,147.3265],[24.8008,53.9951,128.9326],[24.801,53.9923,128.9708],[24.7825,53.9918,129.4751],[24.7827,53.989,128.9467],[24.7779,53.9917,128.696],[24.7734,53.9888,128.1495],[24.7692,53.9831,145.6846],[24.7599,53.9829,143.2127],[24.7556,53.9772,145.8015],[24.7467,53.9714,131.4863],[24.7515,53.9687,131.6827],[24.7517,53.9659,131.8102],[24.7473,53.963,133.876],[24.7332,53.9655,133.3378],[24.7149,53.9623,136.3925],[24.7011,53.962,152.2487],[24.6963,53.9646,143.5632],[24.7051,53.9704,140.1544],[24.704,53.9871,131.6316],[24.7129,53.9929,128.7191],[24.7125,53.9985,127.5795],[24.7214,54.0043,130.5827],[24.7212,54.007,129.0109],[24.7166,54.0069,128.9876],[24.7117,54.0096,128.3241],[24.7115,54.0122,128.3369],[24.6995,54.0199,127.2415],[24.6951,54.0198,127.4691],[24.6947,54.0171,129.317],[24.6862,54.0168,134.4805],[24.6813,54.0113,134.4595],[24.6723,54.0055,131.8398],[24.6463,54.0047,147.1414],[24.6425,54.01,133.7932],[24.6422,54.0073,139.4036],[24.6292,54.0068,141.8558],[24.6245,54.0039,133.5451],[24.6243,54.0012,130.9507],[24.6285,53.9986,131.1508],[24.6197,53.9983,136.6122],[24.6194,53.9928,148.2697],[24.6148,53.9899,152.929],[24.6016,53.9894,148.5633],[24.6015,53.9867,148.9245],[24.597,53.9865,150.1745],[24.5969,53.9838,150.802],[24.5925,53.9836,142.1993],[24.5926,53.9864,145.4127],[24.5791,53.9804,147.6691],[24.579,53.9776,147.8944],[24.5744,53.9747,145.4872],[24.57,53.9746,145.3982],[24.5563,53.9658,136.6746],[24.5519,53.9656,145.3226],[24.5473,53.9627,147.3004],[24.5473,53.96,143.614],[24.5383,53.9596,146.0995],[24.5202,53.9452,149.1277],[24.5202,53.9425,148.109],[24.5067,53.9365,141.3252],[24.5067,53.9337,145.0589],[24.5022,53.9336,147.6926],[24.5022,53.9308,148.6653],[24.4977,53.9306,147.3401],[24.4977,53.9279,147.6742],[24.4886,53.9276,142.4385],[24.4887,53.9248,145.3977],[24.4842,53.9192,135.5891],[24.4797,53.919,140.5131],[24.4707,53.9132,143.9598],[24.4709,53.905,141.4126],[24.4575,53.899,142.1472],[24.4483,53.8986,133.9545],[24.4483,53.9014,132.9425],[24.4072,53.8998,129.1615],[24.3981,53.8967,128.1077],[24.3935,53.8993,128.039],[24.3889,53.8991,128.4701],[24.3661,53.8928,128.5468],[24.3476,53.9002,128.8727],[24.343,53.9,129.1662],[24.3292,53.905,128.2997],[24.3291,53.9077,143.4171],[24.3199,53.9101,141.2872],[24.3199,53.9156,138.1013],[24.329,53.9214,132.6439],[24.3245,53.9212,131.5938],[24.3245,53.924,134.9153],[24.3107,53.9179,140.2393],[24.3061,53.9178,137.3737],[24.2921,53.9282,137.2174],[24.2921,53.931,133.8861],[24.2828,53.9306,134.9662],[24.2827,53.9334,134.1462],[24.278,53.9359,145.4655],[24.2776,53.9442,144.7517],[24.2728,53.9468,142.8611],[24.2588,53.9463,143.4454],[24.2589,53.9435,143.0301],[24.2544,53.9405,148.4599],[24.2449,53.943,135.7402],[24.2309,53.9424,144.6595],[24.2303,53.9507,144.4458],[24.235,53.9509,136.736],[24.2348,53.9536,138.8562],[24.2249,53.9588,140.342],[24.2247,53.9615,137.8278],[24.2194,53.9668,145.3798],[24.2149,53.9639,141.1955],[24.2152,53.9612,132.3918],[24.2057,53.9608,130.0728],[24.1921,53.9548,129.8992],[24.1732,53.954,132.4421],[24.1595,53.948,127.8915],[24.1548,53.9478,124.3896],[24.1545,53.9505,122.5598],[24.1356,53.9498,126.1221],[24.1305,53.9524,140.0971],[24.1311,53.9469,134.7491],[24.1267,53.9439,141.7029],[24.127,53.9411,140.4342],[24.1223,53.9409,120.7384],[24.1232,53.9326,120.072],[24.0996,53.9317,140.7323],[24.0858,53.9283,129.8142],[24.0295,53.9233,142.1032],[23.9973,53.9164,141.9216],[23.9922,53.919,136.8036],[23.9875,53.9188,136.3965],[23.9815,53.927,145.4662],[23.9857,53.9299,131.6127],[23.9844,53.9383,136.7403],[23.9791,53.9409,129.5779],[23.9787,53.9437,133.6666],[23.9729,53.949,87.6339],[23.9629,53.9514,87.1991],[23.9533,53.9511,124.6907],[23.9332,53.9558,85.4019],[23.9326,53.9586,83.2235],[23.9374,53.9588,84.481],[23.9222,53.9638,82.637],[23.9225,53.961,83.549],[23.9178,53.9608,84.9588],[23.9205,53.947,90.9743],[23.9076,53.941,91.3848],[23.8994,53.9352,110.1521],[23.885,53.9376,96.6127],[23.8845,53.9404,109.1499],[23.8688,53.9484,89.7089],[23.8541,53.9508,109.1117],[23.8413,53.9449,110.5475],[23.8332,53.9391,117.2493],[23.8339,53.9363,126.9624],[23.8292,53.9362,128.9813],[23.8165,53.9302,128.4444],[23.8126,53.9272,127.2091],[23.8148,53.9187,108.5708],[23.8195,53.9189,120.3995],[23.8357,53.9107,133.5093],[23.8377,53.9023,129.7769],[23.8249,53.899,125.7783],[23.8256,53.8962,124.4024],[23.8171,53.8932,138.1082],[23.8027,53.8929,132.5623],[23.8034,53.8901,132.6871],[23.7925,53.8955,105.9787],[23.7918,53.8983,95.9898],[23.7965,53.8984,97.9426],[23.7998,53.9041,92.3047],[23.7903,53.9039,96.1305],[23.7888,53.9096,102.6829],[23.784,53.9095,89.9245],[23.7818,53.9179,116.0627],[23.7763,53.9207,113.638],[23.762,53.9203,125.3263],[23.7613,53.9231,120.3277],[23.7572,53.9202,120.0351],[23.7565,53.923,120.0575],[23.7517,53.9229,119.9546],[23.751,53.9257,114.7043],[23.7415,53.9255,118.5653],[23.7407,53.9283,117.5254],[23.7249,53.9337,123.9703],[23.7202,53.9335,124.6522],[23.7209,53.9307,124.2138],[23.7169,53.9278,122.7159],[23.7121,53.9277,123.6328],[23.7066,53.9304,124.3647],[23.693,53.9272,126.9789],[23.6875,53.9299,124.9032],[23.674,53.9267,128.2549],[23.6685,53.9295,123.7226],[23.6542,53.9291,128.9024],[23.6413,53.9232,131.4827],[23.6173,53.9227,111.2786],[23.6187,53.9172,107.53],[23.6132,53.9199,105.2661],[23.6125,53.9226,111.9011],[23.6078,53.9225,111.3242],[23.6057,53.9308,129.3503],[23.6009,53.9308,109.4117],[23.6002,53.9335,116.7778],[23.5906,53.9333,112.3901],[23.5892,53.9389,126.0101],[23.5797,53.9387,125.5619],[23.5742,53.9414,110.3454],[23.5701,53.9385,130.9799],[23.5653,53.9384,129.9283],[23.5599,53.9411,110.8846],[23.5407,53.9407,129.0376],[23.54,53.9435,116.8666],[23.5352,53.9434,124.7647],[23.5339,53.949,135.8242],[23.5291,53.9489,137.5863],[23.5284,53.9516,129.6405],[23.5332,53.9517,130.5013],[23.5283,53.9544,119.599],[23.5205,53.9543,126.0186],[23.5166,53.9469,132.0249],[23.5149,53.947,132.0249],[23.5149,53.956,126.5901],[23.513,53.9313,136.7743],[23.5117,53.9288,140.3911],[23.5121,53.9103,103.3809],[23.5264,53.868899999999996,112.7015],[23.5271,53.8644,106.5396],[23.5245,53.8645,109.9732],[23.5241,53.8626,111.8207],[23.528199999999998,53.8623,105.191],[23.5283,53.8607,100.4362],[23.5351,53.8573,108.7011],[23.5485,53.8551,103.5],[23.552,53.851,124.5885],[23.5509,53.8492,113.4514],[23.5457,53.8478,110.875],[23.5451,53.845,119.0487],[23.5524,53.8408,127.5691],[23.5512,53.8373,107.999],[23.5496,53.8375,126.6895],[23.5479,53.8347,111.9826],[23.554,53.8314,119.5733],[23.5536,53.8301,127.8733],[23.5493,53.8303,110.1489],[23.5463,53.8258,112.8059],[23.5447,53.7962,136.4798],[23.549,53.7678,136.1449],[23.5821,53.7438,166.6457],[23.5856,53.7283,169.4659],[23.5861,53.7031,177.2783],[23.6044,53.6581,169.4933],[23.6269,53.5957,199.4174],[23.6516,53.5441,151.6368],[23.6597,53.5214,174.4773],[23.6672,53.5126,199.7201],[23.7074,53.4365,181.4223],[23.7371,53.3916,181.2054],[23.7673,53.3312,147.6211],[23.799,53.2742,174.8199],[23.8188,53.244,182.0725],[23.8553,53.2318,122.3107],[23.8614,53.2209,121.3569],[23.8613,53.2175,121.7845],[23.859,53.2163,121.9997],[23.8623,53.2152,121.3743],[23.8611,53.2147,121.3743],[23.862,53.2137,121.6646],[23.8572,53.2104,127.1473],[23.8589,53.2072,122.5109],[23.864,53.2035,123.215],[23.8619,53.2022,122.919],[23.8633,53.2,126.9108],[23.8627,53.1971,124.9407],[23.8653,53.1964,124.4836],[23.8639,53.1955,123.9477],[23.87,53.1932,123.5109],[23.8713,53.194,124.652],[23.8711,53.1921,125.2028],[23.8789,53.1897,124.4953],[23.8772,53.1892,124.4953],[23.8802,53.1888,124.8798],[23.8792,53.1876,124.7189],[23.8827,53.1846,125.6939],[23.8887,53.1833,125.8638],[23.8879,53.1815,130.4481],[23.8904,53.1818,124.9049],[23.8895,53.1809,124.9049],[23.8912,53.1813,124.9049],[23.8916,53.1787,125.8405],[23.8948,53.1767,125.949],[23.8997,53.1766,125.7903],[23.8994,53.1735,127.9188],[23.9071,53.1727,132.5348],[23.9094,53.1673,134.3844],[23.9138,53.1669,127.2849],[23.9121,53.1664,127.2849],[23.913,53.1649,127.6686],[23.9103,53.1639,126.3973],[23.9148,53.1629,132.165],[23.9139,53.1573,127.2931],[23.9183,53.1576,134.8529],[23.9171,53.1555,134.1628],[23.9145,53.1552,131.7323],[23.916,53.153,131.0058],[23.9097,53.1499,130.6293],[23.9123,53.147,128.3383],[23.9114,53.1464,128.0817],[23.9158,53.143,130.399],[23.9135,53.1415,129.7256],[23.9139,53.1402,132.4727],[23.9119,53.1402,128.8781],[23.911,53.1388,128.8781],[23.9122,53.1378,131.5179],[23.9073,53.1368,129.4192],[23.9059,53.1382,128.6283],[23.9043,53.1373,128.6283],[23.9052,53.1352,130.0836],[23.9022,53.1335,130.4135],[23.901,53.1344,128.6973],[23.9004,53.1315,129.859],[23.8981,53.1322,129.1454],[23.8968,53.1307,132.3666],[23.8974,53.1273,129.19],[23.8939,53.1264,129.0965],[23.8979,53.125,131.1061],[23.8936,53.1248,131.4378],[23.889,53.1183,130.9318],[23.8897,53.1169,131.9651],[23.8869,53.1162,131.4271],[23.8876,53.114,131.8934],[23.8854,53.1144,131.0508],[23.8859,53.1119,130.8972],[23.889,53.1118,130.4867],[23.887,53.1105,130.8972],[23.8885,53.1089,132.4176],[23.886,53.1077,131.8351],[23.8881,53.108,131.7017],[23.8888,53.105,135.4998],[23.8822,53.1012,143.519],[23.8833,53.0982,132.4114],[23.8809,53.0975,133.0442],[23.8825,53.0975,132.4114],[23.8813,53.0955,132.8522],[23.8827,53.0958,132.8522],[23.8808,53.0945,132.7258],[23.8828,53.0935,133.2823],[23.8801,53.0928,132.1667],[23.8806,53.0913,134.8589],[23.8776,53.0918,133.035],[23.8758,53.0877,133.0401],[23.8738,53.087,132.8953],[23.8746,53.0849,133.0661],[23.8719,53.0841,133.0661],[23.8741,53.079,134.1513],[23.8783,53.0792,134.4179],[23.8794,53.0762,141.9898],[23.8772,53.0754,134.6687],[23.8816,53.074,149.8851],[23.8788,53.0735,136.2573],[23.8813,53.0728,147.3638],[23.8823,53.0661,141.3968],[23.8861,53.0643,140.7209],[23.8862,53.0622,136.7182],[23.888,53.0632,136.3503],[23.889,53.0618,136.2483],[23.8965,53.0616,136.4698],[23.9026,53.0582,144.0208],[23.8984,53.05,139.1774],[23.9007,53.0495,138.1095],[23.8997,53.0481,139.8926],[23.9028,53.0484,141.2667],[23.9058,53.0464,141.3823],[23.9049,53.0448,141.92],[23.9113,53.0446,141.333],[23.9101,53.0422,138.7294],[23.9164,53.04,142.7713],[23.9163,53.0377,142.042],[23.9138,53.0358,150.5878],[23.9076,53.0337,156.9266],[23.908,53.0281,142.3391],[23.9126,53.0253,144.4752],[23.9171,53.0253,151.2139],[23.9173,53.0225,155.4657],[23.9219,53.0197,165.153],[23.9225,53.0113,185.8055],[23.928,52.9945,165.0275],[23.9288,52.9834,180.468],[23.9246,52.9778,167.0827],[23.925,52.9722,169.0452],[23.9394,52.9583,170.2364],[23.9396,52.9543,167.3447],[23.9096,52.9333,151.4632],[23.9118,52.8997,162.9352],[23.9164,52.8969,158.6979],[23.9166,52.8941,162.3834],[23.921,52.8941,164.8224],[23.9174,52.8802,168.0991],[23.918,52.8718,163.7626],[23.9151,52.8467,172.2668],[23.9166,52.8243,157.4235],[23.931,52.8076,176.3231],[23.9287,52.7713,169.5858],[23.9574,52.7748,178.2438],[24.0194,52.7757,168.8217],[24.0239,52.7788,164.2104],[24.0237,52.7815,167.4339],[24.0187,52.7837,183.6521],[24.0232,52.7868,169.9152],[24.0939,52.7871,183.7418],[24.0983,52.7901,179.4943],[24.0976,52.7981,177.9284],[24.1114,52.8017,166.3715],[24.1107,52.8097,166.1543],[24.1151,52.8127,170.3795],[24.1148,52.8153,176.9896],[24.1242,52.816,179.3037],[24.1386,52.8115,167.9842],[24.1433,52.8118,174.7106],[24.1533,52.8044,176.3645],[24.1629,52.8023,176.1367],[24.1644,52.7863,160.0364],[24.1558,52.7777,156.2751],[24.1607,52.7754,169.3449],[24.1612,52.77,165.5148],[24.1809,52.7605,158.8485],[24.1998,52.7589,157.9342],[24.1995,52.7615,157.8957],[24.2037,52.7671,158.0107],[24.2362,52.7689,159.7019],[24.2458,52.7667,159.7168],[24.2419,52.7585,159.4141],[24.2424,52.7532,160.784],[24.2517,52.7537,165.5327],[24.2561,52.7566,160.9013],[24.2553,52.7646,159.2709],[24.2592,52.7728,160.3318],[24.259,52.7754,160.4158],[24.2633,52.7783,159.9242],[24.2866,52.7795,168.6958],[24.2871,52.7742,169.8681],[24.2829,52.7686,170.43],[24.2832,52.766,177.7571],[24.2927,52.7638,160.0002],[24.3018,52.7669,161.8725],[24.3713,52.7702,161.7028],[24.3939,52.7765,160.2886],[24.407,52.7851,178.129],[24.4208,52.7857,161.0243],[24.4452,52.7734,160.6171],[24.4506,52.7656,160.1108],[24.4741,52.7612,159.4751],[24.4933,52.754,159.4162],[24.5117,52.7547,158.9604],[24.5249,52.7605,174.8273],[24.5341,52.7609,165.7911],[24.5343,52.7582,174.6773],[24.5527,52.7589,179.4601],[24.557,52.7617,172.0334],[24.5568,52.7644,173.3209],[24.5522,52.7642,174.6231],[24.5517,52.7695,167.6242],[24.5654,52.77,169.3803],[24.5751,52.765,166.6178],[24.5797,52.7652,174.5268],[24.5975,52.7712,163.3509],[24.5967,52.7792,170.2016],[24.5998,52.7953,172.7558],[24.5902,52.8003,183.016],[24.5856,52.8001,183.6196],[24.5805,52.8053,182.4595],[24.5803,52.808,179.6649],[24.5935,52.8138,191.0006],[24.5928,52.8218,181.4647],[24.5971,52.8246,193.0232],[24.6005,52.8381,179.9445],[24.6048,52.8409,176.1913],[24.6139,52.8412,185.1522],[24.6226,52.8469,172.5137],[24.6168,52.8601,169.6235],[24.6115,52.8679,170.7723],[24.597,52.8754,174.1183],[24.5876,52.8777,173.8609],[24.5871,52.8831,177.7144],[24.6045,52.8944,176.791],[24.6085,52.8999,175.9988],[24.6213,52.9111,197.1964],[24.6305,52.9114,199.9737],[24.6445,52.9092,201.7554],[24.6621,52.9178,182.9358],[24.6666,52.918,197.9466],[24.6661,52.9233,201.2183]]]]}}