{"type":"Feature","properties":{"featurecla":"River","scalerank":7,"rivernum":470,"dissolve":"470River","name":"Neris1","name_alt":"Vilija","note":null,"min_zoom":6.0,"strokeweig":0.2,"name_en":"Vilija","min_label":7.0},
"geometry":{"type": "LineString","coordinates": [[27.56875,54.632928778119116,173.1726],[27.55908203125,54.620965887494116,180.9308],[27.552441406250011,54.609735418744116,172.3127],[27.54296875,54.60138580936912,167.136],[27.512597656250023,54.59650299686912,165.7612],[27.4794921875,54.586932684369117,164.6321],[27.47265625,54.581415106244116,164.3],[27.464941406250006,54.578973699994116,169.8906],[27.399658203125,54.56696198124412,166.0149],[27.328515625000023,54.56403229374412,179.7309],[27.31640625,54.562030340619117,158.6291],[27.30517578125,54.55866119999412,158.2347],[27.292724609375,54.550799871869117,161.7365],[27.2822265625,54.549676824994116,170.2474],[27.277441406250006,54.546649481244117,167.2974],[27.2744140625,54.54144928593162,159.2716],[27.269433593750023,54.52789948124412,156.5],[27.2666015625,54.523700262494117,156.5],[27.24853515625,54.513690496869117,156.5],[27.226806640625,54.506952215619116,156.5],[27.203710937500006,54.503192449994117,156.5],[27.18115234375,54.501971746869117,156.5],[27.16953125,54.49982330936912,156.5],[27.149121093750011,54.49042389530662,156.5],[27.1396484375,54.488299871869117,156.5],[27.10205078125,54.488299871869117,156.5],[26.977148437500006,54.502215887494117,156.5],[26.937597656250006,54.495721746869116,147.7289],[26.923095703125,54.48712799686912,147.6472],[26.91064453125,54.475604559369117,147.7834],[26.895263671875,54.465350653119117,147.1722],[26.862695312500023,54.458514715619117,162.628],[26.855859375000023,54.45246002811912,165.7058],[26.845458984375,54.437372137494116,145.6051],[26.835546875,54.430682684369117,144.1981],[26.824804687500006,54.428485418744117,143.6019],[26.801025390625,54.42682526249412,160.1734],[26.745703125,54.413836981244117,170.5844],[26.733789062500023,54.41522858280662,154.3138],[26.7080078125,54.42462799686912,156.0969],[26.678466796875,54.42938873905662,151.6304],[26.650390625,54.44000885624412,145.5144],[26.635839843750006,54.44110748905662,164.0839],[26.630273437500023,54.43878815311912,163.9443],[26.622460937500023,54.42999909061912,167.6522],[26.615478515625,54.42682526249412,159.6062],[26.606347656250023,54.425555731244117,164.1814],[26.584716796875,54.42682526249412,144.6392],[26.570898437500006,54.42999909061912,150.5585],[26.5595703125,54.43707916874412,141.4206],[26.550537109375,54.44415924686912,160.1483],[26.54345703125,54.44733307499412,145.7095],[26.527441406250006,54.44904205936912,158.6716],[26.513427734375,54.45380280155662,136.9671],[26.485742187500023,54.46845123905662,169.3259],[26.475683593750006,54.47687409061912,136.2011],[26.45703125,54.49774811405662,133.0],[26.448144531250023,54.501971746869117,141.9617],[26.438085937500006,54.50482819218162,143.8429],[26.40380859375,54.523700262494117,147.5694],[26.40380859375,54.529901434369116,134.3625],[26.405859375,54.53436920780662,134.1179],[26.40869140625,54.54584381718162,133.0075],[26.41064453125,54.55036041874412,133.6947],[26.40478515625,54.553729559369117,133.4607],[26.401757812500023,54.55719635624412,136.469],[26.399511718750006,54.560809637494117,138.2975],[26.396386718750023,54.56464264530662,141.4408],[26.421630859375,54.56964752811912,157.7376],[26.434179687500006,54.574725653119117,158.6277],[26.444726562500023,54.58515045780662,158.9619],[26.433837890625,54.60333893436912,132.9007],[26.428125,54.618915106244117,150.3953],[26.418554687500006,54.631219793744116,134.0046],[26.396386718750023,54.639764715619116,177.7298],[26.396386718750023,54.64655182499412,175.4413],[26.401269531250023,54.64935944218162,162.8064],[26.405517578125,54.65509674686912,158.8158],[26.41064453125,54.65961334843162,137.2771],[26.332617187500006,54.684442449994116,157.8146],[26.30419921875,54.68756744999412,155.3326],[26.286865234375,54.69183991093162,140.6143],[26.2900390625,54.701190496869117,132.0103],[26.301171875000023,54.71051666874412,134.0359],[26.3076171875,54.714862371869117,143.5302],[26.30625,54.72833893436912,155.5611],[26.30029296875,54.73737213749412,139.8461],[26.296142578125,54.745477606244116,141.375],[26.30078125,54.75641510624412,148.8437],[26.269775390625,54.76019928593162,143.3635],[26.259765625,54.76264069218162,127.4162],[26.250585937500006,54.767596746869117,137.6861],[26.228759765625,54.78375885624412,142.0272],[26.217480468750011,54.78266022343162,135.9249],[26.202392578125,54.77802155155662,148.5718],[26.1943359375,54.77692291874412,137.0202],[26.18359375,54.78046295780662,132.4338],[26.185791015625,54.789178778119116,126.0377],[26.19140625,54.80036041874412,126.235],[26.19091796875,54.81110260624412,138.3559],[26.1337890625,54.83844635624412,150.0628],[26.12265625,54.83966705936912,151.4778],[26.112060546875,54.834979559369117,130.6147],[26.10498046875,54.834588934369116,121.4837],[26.093652343750023,54.83734772343162,142.858],[26.081152343750006,54.838983465619116,119.7931],[26.07080078125,54.834979559369117,126.9777],[26.06298828125,54.83075592655662,137.3418],[25.973242187500006,54.79975006718162,137.9426],[25.954345703125,54.79743073124412,121.6667],[25.94482421875,54.794940496869117,141.5003],[25.92138671875,54.78607819218162,146.7397],[25.913818359375,54.78681061405662,147.1239],[25.876220703125,54.81110260624412,141.4528],[25.837890625,54.824481512494117,139.1145],[25.821044921875,54.833368231244116,123.2823],[25.814160156250011,54.84833405155662,141.0982],[25.80615234375,54.859979559369116,148.2949],[25.7880859375,54.84955475468162,135.8513],[25.767675781250006,54.83258698124412,147.5535],[25.753320312500023,54.824725653119117,147.2605],[25.74169921875,54.83087799686912,114.1345],[25.74072265625,54.839862371869117,115.2579],[25.742431640625,54.84979889530662,120.686],[25.739013671875,54.858905340619117,116.5799],[25.731347656250023,54.862811590619117,117.3394],[25.714257812500023,54.86310455936912,146.5846],[25.704345703125,54.86627838749412,133.1139],[25.696875,54.87213776249412,121.9652],[25.685546875,54.88641998905662,144.8746],[25.677001953125,54.89301178593162,141.1862],[25.66650390625,54.89655182499412,116.6458],[25.65625,54.897821356244116,114.3473],[25.64609375,54.900262762494116,120.8759],[25.635986328125,54.90729401249412,131.3968],[25.5400390625,54.85858795780662,155.0512],[25.512451171875,54.831561590619117,137.6184],[25.495996093750023,54.83832428593162,138.8886],[25.422265625000023,54.85443756718162,144.1031],[25.409423828125,54.858758856244116,125.8296],[25.396875,54.860614324994117,108.5177],[25.385498046875,54.855487371869117,102.7766],[25.378173828125,54.84723541874412,117.6317],[25.375097656250006,54.84186432499412,112.0236],[25.368554687500023,54.824725653119117,127.5489]]}}