{"type":"Feature","properties":{"GID_2":"BLR.1.11_1","GID_0":"BLR","country":"Belarus","GID_1":"BLR.1_1","province":"Brest","NL_NAME_1":"Брэсцкая","county":"Lyakhavichy","VARNAME_2":"Lyahovichi","NL_NAME_2":"Ляхавіцкіраён","TYPE_2":"Raion","ENGTYPE_2":"District","CC_2":"NA","HASC_2":"BY.BR.LH","name":"Lyakhavichy.county"},
"geometry":{"type": "MultiPolygon","coordinates": [[[[25.8436,52.8462,157.6479],[25.8525,52.8491,151.6171],[25.8619,52.8438,151.8638],[25.862,52.8412,160.6886],[25.8577,52.8384,158.8603],[25.8579,52.8357,153.0679],[25.8537,52.8302,170.2347],[25.8592,52.8141,150.5301],[25.8597,52.806,150.6627],[25.8515,52.7924,149.9607],[25.8517,52.7897,150.3011],[25.8565,52.7844,150.2544],[25.8937,52.7662,150.444],[25.9079,52.7557,160.3106],[25.9081,52.753,154.0289],[25.9269,52.7399,152.3479],[25.9404,52.7402,159.0726],[25.9451,52.7376,157.3636],[25.9407,52.7348,155.5038],[25.9414,52.724,168.4278],[25.9372,52.7185,161.8536],[25.9373,52.7158,160.4898],[25.9733,52.7165,160.3691],[25.9963,52.7089,157.6879],[26.0194,52.6985,154.9834],[26.0247,52.6851,154.7807],[26.025,52.6797,154.8455],[26.0295,52.6798,155.4803],[26.0298,52.6744,154.8214],[26.0397,52.6584,156.5231],[26.0439,52.6639,155.681],[26.0738,52.6914,163.5269],[26.1128,52.7165,154.3984],[26.1125,52.7219,154.7061],[26.1213,52.7247,156.8497],[26.1212,52.7274,155.0403],[26.1255,52.7302,155.5927],[26.1345,52.7304,154.6565],[26.152,52.7388,164.0829],[26.1878,52.7395,166.9723],[26.192,52.7449,169.9382],[26.1958,52.7585,156.505],[26.2084,52.775,157.0148],[26.2082,52.7777,159.18],[26.2296,52.797,168.5443],[26.2427,52.8026,171.5412],[26.2644,52.8165,165.9068],[26.2779,52.8141,165.0113],[26.2868,52.8142,168.5175],[26.2954,52.8225,171.0355],[26.2993,52.8334,166.7434],[26.3036,52.8361,170.6347],[26.3081,52.8362,175.838],[26.3217,52.831,179.5623],[26.3308,52.8258,172.1517],[26.3529,52.8288,169.2997],[26.384,52.8266,178.3879],[26.4061,52.8269,160.4987],[26.4234,52.8325,166.3358],[26.4273,52.8434,174.7107],[26.4096,52.8459,181.6213],[26.3957,52.8592,183.9784],[26.3953,52.8673,165.7824],[26.4038,52.8756,177.3575],[26.4167,52.8839,168.3899],[26.4296,52.8894,170.5086],[26.4293,52.8975,171.0411],[26.442,52.9085,176.0683],[26.4551,52.9114,183.4033],[26.468,52.9169,168.482],[26.4678,52.9223,165.3511],[26.4588,52.9276,175.1938],[26.45,52.9276,182.5822],[26.4454,52.9302,182.9366],[26.4451,52.9383,183.4034],[26.4357,52.9518,186.2759],[26.4222,52.957,217.755],[26.399,52.9811,211.7055],[26.3897,52.9918,218.2406],[26.3893,52.9999,226.6787],[26.4023,53.0055,205.5613],[26.4156,53.0057,195.367],[26.4243,53.0085,184.2366],[26.424,53.0166,184.1158],[26.4283,53.0193,189.2867],[26.4415,53.0195,187.4617],[26.446,53.0168,187.9443],[26.4593,53.0142,178.0324],[26.4636,53.017,180.6496],[26.463,53.0305,192.7723],[26.458,53.044,191.0148],[26.4621,53.0521,212.5675],[26.4575,53.0575,202.1198],[26.466,53.063,198.1575],[26.4927,53.0577,203.9465],[26.5108,53.0497,212.1306],[26.5196,53.0498,217.4448],[26.5239,53.0552,221.3392],[26.5277,53.0715,210.3626],[26.5276,53.0769,212.4135],[26.5229,53.0823,207.3752],[26.5139,53.0849,203.0699],[26.5135,53.0957,195.0671],[26.5089,53.0984,193.4919],[26.4912,53.0956,202.2389],[26.4778,53.0982,200.3565],[26.4684,53.1117,207.422],[26.4683,53.1144,208.8435],[26.4725,53.1198,205.8833],[26.4769,53.1226,204.1803],[26.4723,53.1252,205.6953],[26.4588,53.1306,197.6216],[26.4456,53.1278,198.2826],[26.4192,53.1275,194.0806],[26.3603,53.1538,185.2247],[26.3416,53.1725,197.7084],[26.3329,53.1669,196.8686],[26.3105,53.1638,196.0414],[26.3061,53.161,189.3573],[26.302,53.1528,182.101],[26.2842,53.1471,184.063],[26.2797,53.147,182.7661],[26.2705,53.1495,181.6939],[26.2703,53.155,184.0486],[26.2746,53.1577,184.5563],[26.2744,53.1632,184.7834],[26.2651,53.1684,185.5949],[26.2424,53.168,184.5249],[26.2289,53.165,186.1742],[26.2196,53.1702,188.0109],[26.2104,53.1727,187.4922],[26.1922,53.1724,181.5921],[26.1834,53.1668,181.3151],[26.1844,53.1479,180.0721],[26.18,53.1451,177.5545],[26.1573,53.1446,179.3482],[26.153,53.1391,179.6492],[26.1257,53.1385,181.8276],[26.1213,53.1357,184.4395],[26.1262,53.1304,180.25],[26.1265,53.125,202.2029],[26.1175,53.1221,192.6503],[26.0994,53.1218,186.7918],[26.0997,53.1164,188.9688],[26.1044,53.1138,199.8698],[26.1225,53.1141,207.6167],[26.1239,53.0898,180.8455],[26.1198,53.0816,176.224],[26.1199,53.0789,175.6273],[26.1246,53.0763,175.8848],[26.1292,53.0764,174.5954],[26.134,53.0711,179.92],[26.1343,53.0657,180.398],[26.1252,53.0655,173.72],[26.1165,53.0599,175.8611],[26.1166,53.0572,173.4066],[26.1213,53.0546,171.4568],[26.1171,53.0491,176.9809],[26.1177,53.0383,177.9224],[26.1139,53.0247,180.4249],[26.1007,53.0163,183.1999],[26.0831,53.0078,189.0422],[26.0832,53.0051,184.0052],[26.0879,53.0025,181.4927],[26.0924,53.0026,181.5698],[26.0971,53.0,188.6166],[26.0973,52.9973,191.4133],[26.0884,52.9944,190.523],[26.0567,52.9938,181.0272],[26.0435,52.9854,172.8068],[26.0393,52.9799,174.1813],[26.0396,52.9745,182.7621],[26.0356,52.9663,180.4596],[26.0268,52.9607,172.7373],[26.0175,52.9659,186.9627],[26.0125,52.9739,176.933],[26.0078,52.9765,165.7225],[26.0033,52.9765,168.6436],[25.9945,52.9709,166.0063],[25.9905,52.9627,166.4],[26.0183,52.9524,169.3549],[26.0189,52.9416,165.1964],[26.0145,52.9389,164.731],[26.0011,52.9359,169.4148],[25.983,52.9355,185.6764],[25.9735,52.9434,162.3974],[25.9727,52.9569,165.4305],[25.9636,52.9567,171.654],[25.9638,52.954,165.3913],[25.9502,52.9537,169.039],[25.9505,52.9483,176.6656],[25.9551,52.9484,178.2218],[25.9552,52.9457,181.8449],[25.9509,52.9429,175.0015],[25.9328,52.9426,178.8041],[25.9239,52.9397,176.2009],[25.9289,52.9317,175.61],[25.925,52.9208,173.3136],[25.93,52.9128,170.5866],[25.9307,52.902,173.4198],[25.9262,52.9019,170.5592],[25.9215,52.9045,164.965],[25.9213,52.9072,172.7183],[25.9166,52.9098,171.9544],[25.9121,52.9097,169.6676],[25.8903,52.8957,168.9166],[25.8769,52.8928,157.0444],[25.8588,52.8924,155.9428],[25.8552,52.8788,154.1031],[25.8645,52.8736,153.4748],[25.8647,52.8709,153.6606],[25.8436,52.8462,157.6479]]]]}}