{"type":"Feature","properties":{"GID_2":"BLR.4.15_1","GID_0":"BLR","country":"Belarus","GID_1":"BLR.4_1","province":"Mogilev","NL_NAME_1":"Магілёўская","county":"Krasnapolle","VARNAME_2":"Krasnopolye","NL_NAME_2":"Краснапольскіраён","TYPE_2":"Raion","ENGTYPE_2":"District","CC_2":"NA","HASC_2":"BY.MA.KP","name":"Krasnapolle.county"},
"geometry":{"type": "MultiPolygon","coordinates": [[[[31.3714,53.0887,147.0673],[31.3901,53.089,139.525],[31.4001,53.0921,138.6833],[31.4011,53.0975,140.7418],[31.4077,53.1085,144.5405],[31.404,53.1138,151.5778],[31.3994,53.1137,172.3126],[31.3952,53.1163,168.9959],[31.3819,53.1188,165.4674],[31.3789,53.1268,161.2349],[31.3896,53.1348,159.7578],[31.4048,53.143,151.5232],[31.4103,53.1483,148.1063],[31.413,53.1615,161.9096],[31.4229,53.167,158.5186],[31.4264,53.1824,164.414],[31.4236,53.1901,158.9062],[31.429,53.1954,166.8368],[31.4462,53.1995,164.8496],[31.4711,53.2017,168.6651],[31.5074,53.1996,160.7808],[31.5239,53.2012,157.9608],[31.5397,53.1974,151.1283],[31.5554,53.1908,167.1267],[31.5678,53.1922,156.1171],[31.5805,53.1964,150.9808],[31.5902,53.2017,152.6946],[31.6059,53.2143,147.4325],[31.616,53.2191,157.8084],[31.6216,53.2269,163.5293],[31.6313,53.2292,169.4645],[31.6316,53.2318,154.9938],[31.641,53.2314,156.1543],[31.6549,53.228,156.1777],[31.6828,53.2183,148.7045],[31.6923,53.2178,153.8545],[31.6921,53.215,151.6854],[31.711,53.2112,157.4326],[31.7163,53.2165,156.3266],[31.7168,53.222,156.8612],[31.7031,53.2311,155.6016],[31.6943,53.2398,163.3487],[31.6904,53.2482,166.0306],[31.6909,53.2536,173.0517],[31.6967,53.2643,185.3812],[31.7017,53.2668,185.6494],[31.7022,53.2722,160.8595],[31.6928,53.2726,162.8317],[31.6831,53.2702,165.8561],[31.6789,53.2758,169.3978],[31.6795,53.2811,173.4635],[31.6847,53.2864,169.8864],[31.6897,53.2889,169.1003],[31.7846,53.2934,162.8715],[31.7891,53.2905,164.3604],[31.7941,53.293,170.2715],[31.7851,53.2989,171.5898],[31.7526,53.3057,176.3849],[31.7203,53.3122,174.4586],[31.6968,53.3129,172.8357],[31.6883,53.3211,179.7977],[31.6886,53.3237,176.5743],[31.6984,53.3289,164.6392],[31.7127,53.3313,163.5454],[31.714,53.3446,181.5896],[31.7093,53.3447,180.5081],[31.7106,53.358,182.3884],[31.7021,53.366,183.8544],[31.7023,53.3687,200.2444],[31.708,53.3792,198.4505],[31.7087,53.3872,178.4764],[31.7139,53.3925,176.7755],[31.7285,53.4003,161.2986],[31.7287,53.403,192.6632],[31.72,53.4084,182.4536],[31.6975,53.4139,183.6802],[31.689,53.4193,165.2735],[31.6842,53.4166,185.4202],[31.6706,53.4167,195.8493],[31.6521,53.4114,183.8461],[31.6436,53.414,202.4039],[31.6397,53.4193,196.1119],[31.642,53.4406,179.9098],[31.6034,53.454,173.6242],[31.5901,53.454,182.6455],[31.5667,53.4403,170.477],[31.5485,53.4347,172.6171],[31.5304,53.4347,185.5238],[31.4929,53.4299,159.732],[31.4884,53.4328,150.5762],[31.4453,53.4258,166.2219],[31.436,53.4289,163.1867],[31.4026,53.4324,158.3784],[31.3839,53.4409,148.6769],[31.3694,53.441,165.1638],[31.3497,53.4382,174.6519],[31.3304,53.441,164.1203],[31.3257,53.4437,177.544],[31.3262,53.4493,160.4806],[31.3318,53.4576,168.2749],[31.3274,53.4632,150.9602],[31.3225,53.4632,170.9137],[31.3122,53.4576,177.5168],[31.2916,53.441,163.9487],[31.2771,53.4383,165.2557],[31.2726,53.4412,163.0758],[31.2633,53.4412,172.4255],[31.2584,53.4385,167.3671],[31.248,53.4249,165.4147],[31.2343,53.4279,168.5338],[31.2299,53.4307,171.2619],[31.2356,53.4444,168.0553],[31.1801,53.4399,164.6066],[31.1751,53.4344,167.0184],[31.1795,53.4316,158.5816],[31.1793,53.4289,166.0328],[31.1919,53.4149,168.8329],[31.1915,53.4094,167.0619],[31.186,53.3985,147.1303],[31.1856,53.393,149.5929],[31.1897,53.3874,168.1938],[31.1989,53.3872,151.2996],[31.2032,53.3844,149.0157],[31.2019,53.3679,171.8291],[31.2102,53.3567,173.8903],[31.21,53.354,174.2352],[31.2052,53.3513,166.0101],[31.2006,53.3514,179.2988],[31.1772,53.3437,174.0174],[31.1813,53.3381,172.5609],[31.1902,53.3351,176.4022],[31.19,53.3324,173.1109],[31.1759,53.3272,179.8522],[31.1713,53.3273,179.9991],[31.1664,53.3219,157.3586],[31.1656,53.311,165.2408],[31.1563,53.3059,166.2207],[31.1388,53.3093,166.1393],[31.1215,53.3155,176.2235],[31.1172,53.3184,172.4207],[31.1083,53.3161,174.7099],[31.09,53.3035,174.3424],[31.0766,53.3014,185.2029],[31.0675,53.2964,178.6086],[31.0668,53.283,162.7511],[31.0621,53.2778,159.9149],[31.0577,53.278,155.6216],[31.0534,53.2809,154.5867],[31.0542,53.2943,158.7146],[31.0497,53.2945,149.523],[31.0406,53.2895,156.0008],[31.0362,53.2897,156.498],[31.022,53.2715,153.088],[31.0082,53.2638,147.6001],[31.0079,53.2584,149.7772],[31.0166,53.2555,145.208],[31.0255,53.2552,143.9244],[31.0345,53.2575,177.4319],[31.0389,53.2574,173.8507],[31.0432,53.2545,174.4873],[31.0473,53.249,158.7549],[31.0471,53.2463,162.389],[31.0422,53.2384,160.668],[31.0419,53.233,162.2194],[31.0593,53.227,172.2818],[31.0859,53.2286,174.6744],[31.0897,53.2177,179.6157],[31.0847,53.2072,168.752],[31.0889,53.2017,158.2779],[31.1066,53.2036,171.1564],[31.1109,53.2007,161.7263],[31.1062,53.1956,168.0112],[31.1059,53.1902,156.7962],[31.1276,53.1839,174.3399],[31.1361,53.1782,159.2347],[31.1358,53.1729,160.5925],[31.1217,53.1575,170.4289],[31.1254,53.1466,160.4407],[31.1381,53.1354,176.3442],[31.1601,53.1345,167.2658],[31.1823,53.1387,168.4089],[31.1954,53.138,169.7021],[31.2123,53.1291,165.5378],[31.2248,53.1178,145.7118],[31.2376,53.1144,168.4913],[31.3311,53.0997,149.2491],[31.340699999999998,53.0997,166.2268],[31.3537,53.0942,151.3302],[31.3631,53.0942,147.2425],[31.3714,53.0887,147.0673]]]]}}