{"type":"Feature","properties":{"GID_2":"BLR.6.2_1","GID_0":"BLR","country":"Belarus","GID_1":"BLR.6_1","province":"Vitebsk","NL_NAME_1":"Вiцебская","county":"Braslaw","VARNAME_2":"Braslav","NL_NAME_2":"Браслаўскіраён","TYPE_2":"Raion","ENGTYPE_2":"District","CC_2":"NA","HASC_2":"BY.VI.BV","name":"Braslaw.county"},
"geometry":{"type": "MultiPolygon","coordinates": [[[[27.3623,55.515,160.8464],[27.3568,55.526,144.0997],[27.3469,55.5316,145.7985],[27.3362,55.5454,153.8141],[27.3452,55.5537,149.2442],[27.3448,55.5592,169.0869],[27.3397,55.562,146.778],[27.3349,55.5621,154.8964],[27.3296,55.5676,154.9326],[27.3439,55.5704,157.347],[27.3434,55.5759,150.8047],[27.3383,55.5787,163.4736],[27.3287,55.5788,155.5649],[27.3285,55.5816,138.6634],[27.3475,55.5843,150.4284],[27.3473,55.587,137.7211],[27.3321,55.5955,137.0],[27.3209,55.6151,164.2559],[27.3156,55.6207,168.0555],[27.31,55.6319,155.6873],[27.3096,55.6375,161.4682],[27.3047,55.6403,162.9922],[27.2905,55.6404,156.3172],[27.3035,55.6654,171.9724],[27.3031,55.6738,172.9671],[27.3169,55.6793,199.6453],[27.3217,55.6764,179.5706],[27.3308,55.682,183.1728],[27.3303,55.6931,184.3629],[27.3348,55.6986,198.8294],[27.3393,55.7014,180.1909],[27.3626,55.7013,192.1039],[27.3721,55.6985,184.0003],[27.3858,55.704,191.5148],[27.3953,55.7011,190.2978],[27.3999,55.7039,186.3604],[27.414,55.7038,175.63],[27.4231,55.7093,178.814],[27.4179,55.7177,169.614],[27.4175,55.7289,157.1783],[27.4266,55.7344,148.8937],[27.4405,55.7371,149.7018],[27.445,55.7398,151.4218],[27.4778,55.7397,159.2365],[27.4823,55.7424,143.9194],[27.4863,55.7563,155.0805],[27.4903,55.773,127.694],[27.4916,55.7882,100.8374],[27.457,55.7904,117.5156],[27.4579,55.7949,113.3613],[27.4182,55.7974,101.6271],[27.4178,55.8001,100.7941],[27.4119,55.8023,112.9304],[27.403199999999998,55.8028,96.5],[27.4036,55.8053,109.6419],[27.4013,55.8062,108.8368],[27.3923,55.806399999999996,109.7134],[27.3731,55.8138,107.7822],[27.3723,55.8093,98.9108],[27.3643,55.8098,114.7305],[27.3634,55.8053,127.6321],[27.3555,55.8058,151.6784],[27.3546,55.8014,164.7421],[27.3467,55.8018,144.4514],[27.3458,55.7974,158.731],[27.33,55.7984,138.1284],[27.3291,55.7939,154.9106],[27.3132,55.7949,151.0797],[27.3124,55.7904,163.3019],[27.2887,55.7919,160.7632],[27.2839,55.791,162.757],[27.2618,55.7936,132.3152],[27.2524,55.7922,148.8466],[27.2529,55.7941,155.8333],[27.2487,55.7954,155.8561],[27.2492,55.7973,140.1039],[27.2455,55.8004,154.3494],[27.2374,55.8038,166.0646],[27.2164,55.8179,162.3309],[27.2169,55.8234,177.4852],[27.2122,55.8234,166.4865],[27.2125,55.8261,171.1275],[27.203,55.826,169.3929],[27.1986,55.8287,162.5434],[27.1891,55.8287,157.0938],[27.1894,55.8314,151.7627],[27.1844,55.8287,155.4344],[27.1849,55.8341,153.4844],[27.176,55.8395,144.0593],[27.1763,55.8423,149.0636],[27.1715,55.8422,150.0287],[27.1671,55.845,139.6915],[27.1621,55.8422,137.5774],[27.1526,55.8422,135.2403],[27.1481,55.8447,135.4835],[27.1431,55.842,145.8872],[27.1336,55.8418,138.8841],[27.1188,55.8363,148.109],[27.1181,55.8284,138.3919],[27.1078,55.8203,135.9104],[27.0981,55.8175,143.2474],[27.0843,55.8224,139.12],[27.0558,55.8218,135.0718],[27.0555,55.8192,133.5],[27.0508,55.8191,134.9287],[27.0505,55.8164,138.16],[27.0455,55.8137,146.709],[27.0458,55.8163,140.9478],[27.041,55.8162,147.3607],[27.0413,55.8189,144.7082],[27.0365,55.8188,150.5953],[27.032,55.8213,147.0388],[27.027,55.8186,159.9908],[27.0268,55.816,159.3566],[27.022,55.8159,160.3289],[27.012,55.8104,157.054],[27.0025,55.8102,166.5301],[26.9972,55.8048,163.0333],[26.9877,55.8047,168.7597],[26.9827,55.8019,175.8152],[26.9822,55.7966,163.6984],[26.9672,55.7884,182.297],[26.9669,55.7858,183.4376],[26.9619,55.7831,176.8076],[26.9617,55.7804,174.5529],[26.9522,55.7802,168.5054],[26.9477,55.7828,162.2355],[26.9382,55.7826,160.1611],[26.9379,55.7799,155.9956],[26.9331,55.7799,161.2792],[26.9221,55.7638,176.777],[26.9066,55.7504,157.5952],[26.9111,55.7478,165.6697],[26.9063,55.7477,171.7573],[26.9058,55.745,168.4702],[26.9104,55.745,169.9997],[26.8834,55.7278,178.4341],[26.8818,55.7194,181.5522],[26.8711,55.7059,160.4149],[26.8524,55.7004,169.0729],[26.8336,55.6975,161.1295],[26.8245,55.6922,167.5085],[26.8056,55.6919,163.9498],[26.8057,55.6893,174.2112],[26.792,55.6789,162.6009],[26.7876,55.6713,163.6523],[26.778,55.6736,167.6826],[26.7495,55.6757,155.6207],[26.7253,55.696,145.0],[26.6924,55.6957,147.3801],[26.6644,55.6982,157.6524],[26.655,55.6953,168.4336],[26.6595,55.6955,168.2947],[26.6595,55.6929,167.0739],[26.65,55.6873,153.3521],[26.6447,55.6796,160.5135],[26.6437,55.675,153.3536],[26.6398,55.6743,153.8636],[26.6384,55.6623,151.5847],[26.6331,55.6547,142.958],[26.6441,55.6492,144.0278],[26.6345,55.6061,140.0],[26.64,55.5961,140.0],[26.6305,55.5739,140.0],[26.6253,55.5714,140.0],[26.6255,55.5661,145.8339],[26.6202,55.5663,151.7142],[26.6201,55.5689,143.7459],[26.6147,55.569,149.8635],[26.6148,55.5665,142.301],[26.6094,55.5665,146.2691],[26.6095,55.5641,143.7414],[26.6042,55.559,143.916],[26.5985,55.5592,152.0455],[26.5987,55.5566,149.8729],[26.5876,55.5519,145.9013],[26.5819,55.552,152.5345],[26.5877,55.5492,145.1274],[26.588,55.5443,146.1411],[26.5823,55.5442,148.1471],[26.5767,55.5418,148.7606],[26.5655,55.5424,150.7887],[26.5656,55.5397,152.7505],[26.5599,55.5399,149.9061],[26.56,55.5374,150.2182],[26.5542,55.5399,148.0715],[26.5544,55.5375,148.1639],[26.5488,55.5351,156.4015],[26.5431,55.5351,153.4034],[26.5433,55.5327,150.2669],[26.5374,55.5351,147.4049],[26.5262,55.5303,141.5],[26.5173,55.5175,141.5],[26.5238,55.5117,141.5],[26.5299,55.5032,146.5768],[26.5313,55.4918,142.5],[26.5427,55.486,143.7013],[26.5554,55.4688,142.5],[26.5446,55.469,142.5],[26.54,55.4634,152.0887],[26.5406,55.4578,156.1955],[26.5461,55.4549,151.8595],[26.5578,55.4436,153.8546],[26.5467,55.4493,150.251],[26.5366,55.4493,153.9052],[26.5432,55.4352,158.9486],[26.5602,55.4184,157.0498],[26.5457,55.4126,152.3891],[26.5577,55.3931,140.8717],[26.5388,55.3923,151.907],[26.5214,55.3856,140.1163],[26.5172,55.3825,145.2209],[26.5127,55.3822,148.4433],[26.5093,55.3734,149.5059],[26.5002,55.3729,147.1285],[26.4953,55.3755,147.7567],[26.4912,55.3723,153.0692],[26.4821,55.3718,148.0765],[26.4794,55.3573,164.3791],[26.4665,55.3508,162.7727],[26.4565,55.3508,163.6275],[26.4573,55.3478,158.7282],[26.4514,55.3482,155.6433],[26.4522,55.3451,145.6852],[26.4581,55.3447,138.7587],[26.4584,55.3419,140.1626],[26.463,55.3421,139.8389],[26.4633,55.3393,137.8009],[26.4678,55.3396,139.5521],[26.4676,55.3423,142.1649],[26.4724,55.3398,141.3626],[26.486,55.3406,144.9425],[26.4909,55.338,137.3546],[26.4906,55.3408,147.6593],[26.4954,55.3383,143.9207],[26.5,55.3385,142.0541],[26.5003,55.3357,140.6484],[26.5094,55.3362,136.8089],[26.5142,55.3337,133.7346],[26.5233,55.3342,139.9759],[26.5236,55.3314,132.6117],[26.528199999999998,55.3316,134.1178],[26.5324,55.3347,135.0793],[26.5467,55.3298,138.3619],[26.5508,55.3329,131.2948],[26.5554,55.3332,131.9734],[26.5557,55.3304,139.676],[26.5606,55.3278,131.7486],[26.561,55.3249,143.3725],[26.57,55.3255,131.9484],[26.5704,55.3226,129.5573],[26.5746,55.3257,129.9233],[26.5792,55.326,129.9217],[26.5789,55.3288,133.9873],[26.5884,55.3291,143.2021],[26.5887,55.3263,130.312],[26.5936,55.3264,135.8667],[26.589,55.3235,131.7868],[26.5987,55.3237,128.5397],[26.5985,55.3265,144.2557],[26.6034,55.3266,154.0878],[26.6037,55.3238,155.3048],[26.6137,55.3239,129.2394],[26.6135,55.3266,134.0983],[26.6186,55.3266,131.1098],[26.6183,55.3322,128.3674],[26.6235,55.3321,130.851],[26.6233,55.3349,132.5342],[26.6285,55.3349,131.7494],[26.6334,55.3376,133.4235],[26.6385,55.3375,141.5101],[26.6387,55.3348,133.2054],[26.6336,55.3348,133.4921],[26.634,55.3266,134.7775],[26.6442,55.3265,133.5701],[26.6441,55.3293,133.7731],[26.6491,55.3292,127.6709],[26.6487,55.3374,127.1326],[26.6688,55.3372,126.9756],[26.6736,55.3399,127.0109],[26.6735,55.3427,127.4732],[26.6785,55.3426,127.545],[26.6938,55.3343,126.8554],[26.7037,55.3342,126.881],[26.7087,55.3314,126.9649],[26.7186,55.3313,126.9236],[26.7287,55.3258,126.7638],[26.7336,55.3257,126.8046],[26.7337,55.323,126.9209],[26.7435,55.3229,126.8385],[26.7434,55.3256,127.0757],[26.7775,55.3254,127.0518],[26.7825,55.3226,127.1548],[26.7874,55.3226,128.1291],[26.7875,55.3198,140.7539],[26.7972,55.3198,127.8039],[26.7971,55.3225,129.1275],[26.8068,55.3225,127.2561],[26.8069,55.3197,127.4957],[26.8119,55.3169,128.8801],[26.8117,55.3197,130.1847],[26.8166,55.3197,132.3489],[26.8167,55.3169,130.5774],[26.8264,55.3169,133.2297],[26.8269,55.3086,127.3513],[26.8365,55.3085,132.5918],[26.8463,55.3057,131.3201],[26.8417,55.303,131.1932],[26.8469,55.2974,126.4084],[26.8472,55.2865,134.2319],[26.8425,55.2783,128.4766],[26.8564,55.2811,129.8024],[26.8889,55.2813,127.0542],[26.931,55.2788,132.1277],[26.9451,55.2761,132.3816],[26.9592,55.2762,131.8474],[26.9686,55.2735,131.9617],[26.9827,55.2763,131.6195],[27.0204,55.2764,130.0553],[27.0438,55.2847,130.2195],[27.072,55.2902,129.6006],[27.0671,55.2956,128.6493],[27.0577,55.2956,130.8193],[27.0483,55.2928,129.4095],[27.034,55.2982,148.9599],[27.0339,55.301,152.9286],[27.0241,55.3173,150.1848],[27.0235,55.3391,133.7725],[27.0279,55.3473,153.906],[27.0325,55.3527,141.9729],[27.0466,55.3528,149.7964],[27.0464,55.3582,143.6978],[27.032,55.3664,132.2391],[27.0318,55.3718,132.0995],[27.041,55.3773,136.2432],[27.0361,55.3828,155.2525],[27.0266,55.3855,141.0826],[27.0264,55.3883,147.4821],[27.0403,55.3938,143.9986],[27.0402,55.3966,144.9029],[27.0497,55.3966,144.8389],[27.05,55.3883,152.9786],[27.0784,55.3884,150.7931],[27.0829,55.3939,145.4262],[27.082,55.4131,157.7721],[27.0866,55.4159,160.4393],[27.1153,55.4104,150.6795],[27.1199,55.4132,150.6397],[27.1375,55.4407,141.7534],[27.1513,55.4489,149.8232],[27.1558,55.4544,150.3611],[27.1604,55.4572,149.3783],[27.1886,55.4627,136.8035],[27.1932,55.4655,137.6783],[27.1977,55.471,138.4652],[27.1973,55.4765,139.3271],[27.1924,55.4793,143.349],[27.1918,55.4876,144.0395],[27.2014,55.4876,142.6076],[27.2498,55.4765,139.7236],[27.2502,55.4683,140.4356],[27.2458,55.4628,139.6976],[27.2467,55.4436,134.0021],[27.2516,55.4408,135.0284],[27.266,55.4381,134.3448],[27.2707,55.4409,133.1932],[27.2704,55.4463,133.4517],[27.2797,55.4518,136.6617],[27.2892,55.4518,138.1262],[27.2987,55.4546,136.176],[27.313,55.4546,132.8536],[27.3224,55.4574,138.2705],[27.3271,55.4601,137.0837],[27.3269,55.4629,136.1335],[27.3171,55.4683,135.3067],[27.3169,55.4711,134.5138],[27.331,55.4766,136.7825],[27.3261,55.4793,139.3571],[27.321,55.4848,141.6945],[27.3255,55.4903,141.1273],[27.344,55.5013,152.9854],[27.3483,55.5095,150.1105],[27.3623,55.515,160.8464]]]]}}