{"type":"Feature","properties":{"GID_2":"BLR.1.2_1","GID_0":"BLR","country":"Belarus","GID_1":"BLR.1_1","province":"Brest","NL_NAME_1":"Брэсцкая","county":"Biaroza","VARNAME_2":"Bereza","NL_NAME_2":"Бярозаўскіраён","TYPE_2":"Raion","ENGTYPE_2":"District","CC_2":"NA","HASC_2":"BY.BR.BZ","name":"Biaroza.county"},
"geometry":{"type": "MultiPolygon","coordinates": [[[[25.4534,52.4208,144.5842],[25.4618,52.429,144.2011],[25.4706,52.4319,146.069],[25.4842,52.4294,145.738],[25.4935,52.4242,142.6287],[25.5158,52.4247,143.1018],[25.5201,52.4274,141.9576],[25.5063,52.4325,142.6066],[25.5052,52.4487,142.2758],[25.5006,52.4513,142.3303],[25.4998,52.462,142.2843],[25.4946,52.4726,143.6464],[25.5028,52.4836,143.6536],[25.5071,52.4863,143.8785],[25.5017,52.4997,142.6494],[25.4968,52.5049,143.415],[25.4875,52.5101,143.1464],[25.4647,52.515,143.1412],[25.438,52.5118,142.8275],[25.4337,52.509,142.8152],[25.4246,52.5115,145.64],[25.4021,52.5111,153.5303],[25.3702,52.5185,154.2403],[25.3612,52.5183,154.1191],[25.3437,52.5126,155.0861],[25.339,52.5151,154.7192],[25.338,52.5285,156.9169],[25.3417,52.5394,161.0035],[25.3354,52.5634,155.4879],[25.3342,52.5795,149.2189],[25.3296,52.5821,162.4103],[25.3071,52.5816,159.0505],[25.2934,52.584,161.258],[25.2718,52.5727,154.9906],[25.2622,52.5806,159.4565],[25.2387,52.5935,155.2164],[25.2338,52.5987,156.9317],[25.2332,52.6068,145.5746],[25.2282,52.612,149.3208],[25.2188,52.6172,154.2984],[25.2143,52.6171,158.7459],[25.2002,52.6248,152.6481],[25.1771,52.6323,148.0343],[25.1677,52.6374,148.5048],[25.1578,52.6479,148.4962],[25.1437,52.6556,148.8882],[25.1158,52.6657,150.109],[25.102,52.668,150.8971],[25.0885,52.6677,152.3053],[25.0752,52.6647,161.4791],[25.0705,52.6673,157.3124],[25.066,52.6672,162.6566],[25.0529,52.6615,149.6174],[25.026,52.6581,150.3636],[24.9759,52.6622,159.353],[24.9529,52.6669,157.1704],[24.9447,52.656,155.0338],[24.9357,52.6558,161.6785],[24.926,52.6636,153.3091],[24.9257,52.6662,162.6532],[24.9165,52.6687,161.2372],[24.8939,52.668,161.4364],[24.885,52.6651,168.0753],[24.8436,52.672,167.7378],[24.7933,52.6759,164.8484],[24.7647,52.6911,164.7882],[24.7556,52.6908,172.5049],[24.747,52.6852,164.4485],[24.7305,52.666,170.2994],[24.7168,52.6656,168.9036],[24.7128,52.6602,154.1715],[24.7135,52.6522,162.2559],[24.7183,52.6497,169.2008],[24.7207,52.623,155.0546],[24.7395,52.6156,177.0194],[24.7448,52.6077,157.6111],[24.7362,52.6022,159.5054],[24.7097,52.5934,161.5173],[24.7011,52.5878,159.8766],[24.693,52.5769,158.8888],[24.6842,52.5739,159.552],[24.6706,52.5735,160.5682],[24.6708,52.5709,159.2531],[24.6809,52.5605,158.7431],[24.6826,52.5419,156.0594],[24.6879,52.5341,157.3671],[24.6795,52.5258,158.6235],[24.6798,52.5232,162.8614],[24.7039,52.5079,170.2527],[24.7049,52.4973,161.0482],[24.6961,52.4944,156.3786],[24.6963,52.4917,155.3026],[24.692,52.4889,155.7551],[24.6882,52.4809,153.3715],[24.6935,52.473,157.8186],[24.7275,52.4474,154.688],[24.7278,52.4447,154.6206],[24.7235,52.4419,154.6351],[24.719,52.4418,154.9633],[24.7147,52.439,155.0951],[24.7152,52.4337,160.97],[24.7202,52.4285,150.9429],[24.7383,52.429,151.7672],[24.7573,52.4189,149.8113],[24.7757,52.414,148.1865],[24.7805,52.4115,148.8776],[24.7954,52.3959,169.3971],[24.8001,52.3934,154.0088],[24.8094,52.3909,163.0137],[24.8361,52.3942,162.388],[24.8408,52.3917,163.3721],[24.8415,52.3837,162.7664],[24.8463,52.3812,159.0569],[24.8642,52.3816,159.4868],[24.8779,52.3792,157.6385],[24.8826,52.3767,149.1901],[24.8831,52.3714,159.1978],[24.888,52.3662,150.0742],[24.9154,52.3614,148.6343],[24.9159,52.3561,149.1866],[24.9208,52.3509,156.878],[24.9215,52.3429,163.1311],[24.9398,52.338,150.0128],[24.9667,52.3386,148.79],[24.9797,52.3442,151.7241],[25.0285,52.3506,148.112],[25.0413,52.3589,148.5457],[25.05,52.3617,149.7425],[25.0545,52.3618,147.4854],[25.055,52.3565,148.1681],[25.0596,52.3539,147.6604],[25.0641,52.354,147.0232],[25.0769,52.3623,161.7265],[25.0946,52.3653,151.5211],[25.1031,52.3708,145.8662],[25.1023,52.3815,153.0861],[25.0976,52.3841,155.5713],[25.0842,52.3838,164.0026],[25.084,52.3865,162.6527],[25.0882,52.3893,150.5937],[25.1106,52.3897,143.7707],[25.1194,52.3926,152.4146],[25.1322,52.4009,144.1289],[25.1317,52.4062,156.4917],[25.1405,52.4091,143.1639],[25.1495,52.4093,143.2034],[25.1541,52.4067,145.9372],[25.1641,52.3935,144.0313],[25.1688,52.3909,143.2517],[25.1778,52.3911,147.8226],[25.1873,52.3833,144.5269],[25.2142,52.3838,156.5951],[25.2404,52.3924,144.3167],[25.2593,52.3794,142.9278],[25.2636,52.3821,144.721],[25.2443,52.4005,142.6927],[25.2441,52.4032,142.6219],[25.262,52.4036,143.3987],[25.2756,52.4012,143.5465],[25.2846,52.4013,143.1302],[25.2889,52.4041,142.9478],[25.3023,52.4044,143.3386],[25.3108,52.4099,141.0],[25.3241,52.4129,141.0],[25.3371,52.4185,141.0],[25.355,52.4188,141.0],[25.382,52.4167,144.4488],[25.3954,52.417,143.4105],[25.4042,52.4198,142.6237],[25.4135,52.4146,143.8028],[25.418,52.4147,142.985],[25.431,52.4203,144.1211],[25.4534,52.4208,144.5842]]]]}}