{"type":"Feature","properties":{"GID_2":"BLR.4.14_1","GID_0":"BLR","country":"Belarus","GID_1":"BLR.4_1","province":"Mogilev","NL_NAME_1":"Магілёўская","county":"Klimavichy","VARNAME_2":"Klimovichi","NL_NAME_2":"Клімавіцкіраён","TYPE_2":"Raion","ENGTYPE_2":"District","CC_2":"NA","HASC_2":"BY.MA.KM","name":"Klimavichy.county"},
"geometry":{"type": "MultiPolygon","coordinates": [[[[31.642,53.4406,179.9098],[31.6397,53.4193,196.1119],[31.6436,53.414,202.4039],[31.6521,53.4114,183.8461],[31.6706,53.4167,195.8493],[31.6842,53.4166,185.4202],[31.689,53.4193,165.2735],[31.7356,53.4269,194.571],[31.7627,53.4186,180.7833],[31.781,53.4156,179.2992],[31.8385,53.433,199.051],[31.8811,53.4398,183.0577],[31.9004,53.4473,176.6335],[31.9424,53.4486,186.2951],[31.9468,53.4457,181.7678],[31.9466,53.443,176.4211],[31.9552,53.4345,172.7878],[31.9755,53.4556,188.112],[31.9759,53.461,189.3982],[31.9669,53.4641,183.7786],[31.9674,53.4695,191.3487],[31.9821,53.4799,194.229],[31.9914,53.4795,192.7997],[31.9955,53.474,194.1247],[31.9999,53.4711,193.191],[32.0089,53.4681,192.3051],[32.0181,53.4677,188.6213],[32.0413,53.4696,192.4629],[32.0742,53.4793,195.2908],[32.0831,53.4763,202.4502],[32.0774,53.4628,186.1512],[32.0818,53.4599,186.7894],[32.0863,53.4597,189.7198],[32.1005,53.4647,184.9943],[32.1091,53.4589,181.595],[32.1132,53.4532,186.1757],[32.131,53.447,179.2915],[32.1493,53.4462,184.4757],[32.1541,53.4488,183.7232],[32.1771,53.4478,165.7309],[32.1819,53.4504,165.973],[32.1834,53.4669,167.2411],[32.202,53.4689,185.0102],[32.2066,53.4687,186.5714],[32.2051,53.4522,187.3511],[32.2181,53.4433,179.5722],[32.2273,53.4429,169.4514],[32.2373,53.4507,170.9152],[32.2376,53.4535,169.8457],[32.2428,53.4588,178.2807],[32.2563,53.4554,186.8764],[32.2888,53.4539,199.8858],[32.3101,53.4807,205.6723],[32.3249,53.4884,201.5176],[32.3255,53.493899999999996,191.1315],[32.3167,53.5,196.7086],[32.3169,53.5027,202.8779],[32.3376,53.5214,203.4166],[32.3384,53.5298,182.92],[32.3342,53.5355,190.0793],[32.3344,53.5383,187.6428],[32.3536,53.5403,206.6018],[32.3585,53.5429,197.7255],[32.3591,53.5485,214.2166],[32.3688,53.5509,201.1937],[32.3973,53.5496,188.7356],[32.4166,53.5514,192.2979],[32.4268,53.5565,187.7745],[32.428,53.5678,184.1319],[32.4388,53.5784,187.9101],[32.4494,53.5863,186.5219],[32.441,53.5981,200.681],[32.4419,53.6066,204.1696],[32.4478,53.6147,200.4845],[32.453,53.6172,201.932],[32.4594,53.631,188.4191],[32.4604,53.6394,205.1507],[32.4557,53.6425,200.4529],[32.456,53.6453,191.6228],[32.4464,53.6486,191.4202],[32.4411,53.6461,206.8284],[32.4453,53.6374,205.6717],[32.445,53.6346,193.3587],[32.4394,53.6293,195.3875],[32.4342,53.6268,195.1344],[32.4248,53.6329,187.2217],[32.4164,53.6501,203.5551],[32.4169,53.6557,195.9352],[32.4489,53.6764,190.7035],[32.4741,53.678,179.2403],[32.4743,53.6808,184.8595],[32.4946,53.688,186.9551],[32.4993,53.6877,177.7529],[32.5042,53.693,183.2757],[32.5092,53.6957,186.5086],[32.4903,53.7124,189.8473],[32.4733,53.7207,183.799],[32.4679,53.735,188.1566],[32.465,53.7379,188.2548],[32.4555,53.7374,189.1932],[32.3868,53.725,199.7488],[32.3714,53.7261,192.7504],[32.3619,53.729,206.1708],[32.3543,53.7413,190.0217],[32.3498,53.7438,203.4005],[32.3415,53.7537,198.9962],[32.3271,53.7568,209.1324],[32.293,53.7554,203.6312],[32.2739,53.753,195.8238],[32.2649,53.7583,196.3898],[32.2947,53.7701,205.4376],[32.295,53.7725,205.1165],[32.2901,53.7727,202.81],[32.2856,53.7753,210.4165],[32.2566,53.7738,199.6119],[32.2371,53.7638,189.855],[32.2231,53.7639,189.0978],[32.2141,53.7692,186.7782],[32.2098,53.7771,187.8075],[32.2193,53.7822,197.7662],[32.2195,53.7848,193.2527],[32.2149,53.7874,176.7368],[32.2151,53.7899,179.7378],[32.1917,53.7903,171.2102],[32.1777,53.7879,178.1217],[32.1638,53.7907,156.396],[32.1456,53.7987,188.8472],[32.132,53.8067,183.2381],[32.1228,53.8095,184.0547],[32.0904,53.8075,180.2668],[32.0762,53.7974,190.8175],[32.0438,53.7955,191.9104],[32.0345,53.7931,197.2271],[31.9978,53.794,183.709],[31.9931,53.7916,167.557],[31.956,53.7822,155.4588],[31.9516,53.7849,149.9612],[31.9331,53.7803,156.9012],[31.9197,53.7885,149.2156],[31.9061,53.789,162.7153],[31.8921,53.7816,148.5361],[31.901,53.7787,151.771],[31.9005,53.7683,163.4932],[31.9094,53.7627,183.2377],[31.9089,53.7522,175.9378],[31.8993,53.7447,185.2211],[31.8943,53.7369,177.1182],[31.8849,53.732,188.2422],[31.8838,53.7135,175.9921],[31.888,53.7081,176.7158],[31.9059,53.6995,184.6782],[31.9001,53.6811,175.2902],[31.8951,53.676,176.2998],[31.8947,53.6706,188.3904],[31.9038,53.6677,191.8905],[31.913,53.6674,177.951],[31.9174,53.6646,169.343],[31.9122,53.6568,170.6888],[31.9074,53.6543,173.319],[31.9069,53.6463,171.6904],[31.9021,53.6438,176.2505],[31.8928,53.644,197.9052],[31.8884,53.6468,193.1495],[31.8613,53.6556,181.1208],[31.8521,53.6559,182.4698],[31.8333,53.651,168.6411],[31.8188,53.6432,157.5714],[31.7998,53.6381,171.4593],[31.7952,53.6382,170.2108],[31.7908,53.6409,167.8543],[31.791,53.6436,162.6586],[31.7961,53.649,160.8459],[31.7963,53.6516,164.3394],[31.7919,53.6544,162.0641],[31.7872,53.6544,158.4304],[31.7824,53.6518,170.6934],[31.7771,53.6437,148.8338],[31.7673,53.6358,141.2529],[31.7532,53.6306,141.0466],[31.7395,53.6281,162.4328],[31.6886,53.6128,142.4551],[31.6888,53.6155,140.5006],[31.6757,53.6212,140.1049],[31.6667,53.6214,139.0379],[31.6618,53.6161,138.4802],[31.6611,53.6079,138.8129],[31.6519,53.6054,142.8262],[31.6384,53.6057,139.5061],[31.6245,53.6006,139.8895],[31.62,53.6007,138.3388],[31.6114,53.6064,138.7207],[31.6073,53.6119,138.2558],[31.5979,53.6067,139.0136],[31.5876,53.5904,155.1104],[31.5874,53.5877,157.4292],[31.5917,53.5849,156.1555],[31.6511,53.5946,158.353],[31.6596,53.5889,164.0251],[31.6592,53.5835,167.1507],[31.6491,53.5701,171.3385],[31.6489,53.5674,167.7693],[31.6756,53.5643,162.1445],[31.6844,53.5614,177.2821],[31.6934,53.5613,181.0047],[31.6976,53.5586,183.3025],[31.7108,53.5557,182.3307],[31.7061,53.5531,191.3566],[31.6832,53.548,182.0866],[31.6783,53.5426,181.0923],[31.6769,53.5265,187.3121],[31.7119,53.5181,203.0372],[31.7202,53.51,181.3901],[31.7195,53.502,193.9317],[31.7104,53.502,194.2653],[31.7057,53.4994,200.2768],[31.6922,53.4995,198.1833],[31.6828,53.4942,202.8345],[31.6737,53.4915,202.4108],[31.6627,53.4701,186.1902],[31.6478,53.454,184.027],[31.6561,53.4487,192.8597],[31.6555,53.4433,188.6105],[31.6508,53.4406,177.3544],[31.642,53.4406,179.9098]]]]}}