{"type": "Feature","bbox": [26.0397,52.477,27.073,52.9042],"geometry": {"type": "MultiPolygon","coordinates": [[[[26.1901,52.5287,149.1745],[26.2115,52.5452,149.1376],[26.2203,52.5481,149.4913],[26.2385,52.5403,151.2517],[26.2564,52.5379,160.217],[26.2739,52.5435,166.5052],[26.2953,52.5601,152.6263],[26.2997,52.5602,151.0139],[26.3043,52.5575,150.3244],[26.3055,52.5332,156.934],[26.3144,52.5334,158.1784],[26.3705,52.5612,167.7423],[26.3838,52.5587,164.3149],[26.3927,52.5588,153.9981],[26.4012,52.5643,153.6407],[26.4144,52.5645,152.5],[26.4189,52.5619,152.7004],[26.4277,52.562,153.1402],[26.4407,52.5649,155.3269],[26.441,52.5594,153.6383],[26.4325,52.5539,152.1653],[26.4294,52.5268,152.0023],[26.4513,52.5271,153.8376],[26.4643,52.53,151.3207],[26.4774,52.5301,157.8887],[26.4777,52.5247,148.6973],[26.4736,52.5192,155.9497],[26.474,52.5111,146.0256],[26.4785,52.5085,146.1471],[26.4915,52.5113,146.3776],[26.522,52.5116,166.8862],[26.531,52.5063,163.5137],[26.5311,52.5036,164.8054],[26.5584,52.4795,163.6659],[26.567,52.4823,162.699],[26.5804,52.477,151.7023],[26.6107,52.4799,147.4261],[26.6412,52.4802,155.3136],[26.6626,52.4884,147.9615],[26.6844,52.4885,147.5148],[26.7058,52.4967,148.8695],[26.7185,52.5049,146.2985],[26.7141,52.5076,147.1989],[26.7008,52.5102,154.5959],[26.7001,52.5264,144.9599],[26.7167,52.5454,154.5451],[26.7166,52.5481,148.6452],[26.7076,52.5534,145.5448],[26.7075,52.5561,145.8965],[26.7247,52.5616,157.5683],[26.7378,52.5616,155.5391],[26.7376,52.567,149.1384],[26.7331,52.5697,147.8545],[26.7326,52.5805,152.6384],[26.7281,52.5832,151.2504],[26.6978,52.5777,148.2348],[26.6971,52.5912,153.4238],[26.6884,52.5912,160.1617],[26.6799,52.5857,155.495],[26.6712,52.5857,148.4345],[26.6666,52.5911,160.427],[26.6708,52.5938,164.209],[26.6704,52.6019,164.32],[26.6657,52.61,159.5992],[26.6653,52.6181,153.4994],[26.6739,52.6208,166.5759],[26.6828,52.6181,165.6314],[26.7047,52.6182,166.239],[26.7046,52.6209,162.4941],[26.7088,52.6236,166.0856],[26.7087,52.6263,162.4319],[26.7171,52.6345,165.1349],[26.7169,52.6399,152.8971],[26.7255,52.6453,149.3854],[26.7342,52.648,170.3727],[26.7687,52.6724,147.1879],[26.8127,52.6861,148.0419],[26.8393,52.6915,163.1893],[26.8659,52.6997,161.7709],[26.8835,52.7106,151.1522],[26.888,52.7106,155.4257],[26.9016,52.7052,151.6276],[26.9195,52.7053,151.8243],[26.9559,52.6891,150.3787],[26.9875,52.6811,150.4593],[27.0191,52.6812,159.5161],[27.0371,52.6839,161.1881],[27.0596,52.6894,145.4676],[27.073,52.6976,154.1856],[27.0684,52.703,152.3067],[27.0681,52.7165,150.569],[27.0545,52.7219,149.66],[27.0409,52.7219,150.9394],[27.0363,52.7246,150.5229],[27.0317,52.73,156.3367],[27.0316,52.7327,161.5399],[27.036,52.7408,162.2792],[27.0359,52.7462,165.6001],[27.0448,52.7571,155.1618],[27.0447,52.7598,162.6929],[27.0262,52.7787,161.3734],[27.0261,52.7868,173.1463],[27.017,52.7895,152.2036],[27.0034,52.7868,175.1443],[26.9721,52.7704,167.19],[26.9724,52.7569,162.973],[26.9679,52.7542,149.5868],[26.9499,52.7541,167.0572],[26.9407,52.7622,167.3589],[26.9362,52.7622,165.1661],[26.9316,52.7649,163.1759],[26.9046,52.7648,159.8064],[26.8863,52.7756,149.3427],[26.8816,52.7837,148.9212],[26.877,52.7864,157.0344],[26.8636,52.7863,149.2609],[26.8413,52.7781,153.3955],[26.8234,52.778,156.9418],[26.8144,52.7807,150.9476],[26.8007,52.7888,150.0],[26.7778,52.8049,150.5],[26.7683,52.8238,151.0],[26.7545,52.8373,164.8587],[26.7544,52.84,164.4063],[26.7497,52.8481,154.0488],[26.7541,52.8508,163.0176],[26.7537,52.8616,167.8898],[26.7269,52.8615,175.6192],[26.7226,52.8561,159.2299],[26.7136,52.856,165.6607],[26.7091,52.8587,178.8967],[26.6778,52.8613,157.368],[26.6732,52.864,158.3548],[26.6638,52.8774,158.7453],[26.6593,52.8801,160.1995],[26.6369,52.8827,185.3067],[26.6279,52.8854,165.9725],[26.6144,52.8907,192.5524],[26.6006,52.9042,191.8504],[26.5962,52.9042,184.7942],[26.5831,52.8987,173.3777],[26.579,52.8906,168.8826],[26.5751,52.877,163.7448],[26.5708,52.8743,178.3408],[26.5669,52.8635,175.8033],[26.5627,52.8581,173.8947],[26.5499,52.8499,186.0741],[26.5369,52.8471,178.9801],[26.5323,52.8525,175.6872],[26.5274,52.8633,183.5277],[26.5229,52.8659,175.2057],[26.5098,52.8659,175.7104],[26.5015,52.855,182.8359],[26.493,52.8495,174.9225],[26.4763,52.8304,166.1981],[26.455,52.8167,159.2709],[26.4462,52.8166,158.679],[26.4415,52.8219,162.5032],[26.4413,52.8273,174.2133],[26.4498,52.8328,179.6029],[26.4273,52.8434,174.7107],[26.4234,52.8325,166.3358],[26.4061,52.8269,160.4987],[26.384,52.8266,178.3879],[26.3529,52.8288,169.2997],[26.3308,52.8258,172.1517],[26.3217,52.831,179.5623],[26.3081,52.8362,175.838],[26.3036,52.8361,170.6347],[26.2993,52.8334,166.7434],[26.2954,52.8225,171.0355],[26.2868,52.8142,168.5175],[26.2779,52.8141,165.0113],[26.2644,52.8165,165.9068],[26.2427,52.8026,171.5412],[26.2296,52.797,168.5443],[26.2082,52.7777,159.18],[26.2084,52.775,157.0148],[26.1958,52.7585,156.505],[26.192,52.7449,169.9382],[26.1878,52.7395,166.9723],[26.152,52.7388,164.0829],[26.1345,52.7304,154.6565],[26.1255,52.7302,155.5927],[26.1212,52.7274,155.0403],[26.1213,52.7247,156.8497],[26.1125,52.7219,154.7061],[26.1128,52.7165,154.3984],[26.0738,52.6914,163.5269],[26.0439,52.6639,155.681],[26.0397,52.6584,156.5231],[26.0814,52.6348,156.5822],[26.0958,52.618899999999996,151.3572],[26.1009,52.6082,151.2552],[26.1246,52.5843,151.0804],[26.157,52.5632,149.9805],[26.1664,52.5553,150.7762],[26.1809,52.5339,149.717],[26.1901,52.5287,149.1745]]]]}
,"properties": {"GID_2": "BLR.1.5_1","GID_0": "BLR","country": "Belarus","GID_1": "BLR.1_1","province": "Brest","NL_NAME_1": "Брэсцкая","county": "Hancavichy","VARNAME_2": "Gancevichi","NL_NAME_2": "Ганцавіцкіраён","TYPE_2": "Raion","ENGTYPE_2": "District","CC_2": "NA","HASC_2": "BY.BR.GA","name": "Hancavichy.county","area_km2": 1638.906,"hist_schema_id": "Elevation0-9000","hist_area_km2": {"150": 1032.782,"175": 582.631,"200": 23.467,"225": 0.026}}}