{"type": "Feature","id": "2345","bbox": [26.07565,52.36073,29.49193,55.00207],"geometry": {"type": "Polygon","coordinates": [[[27.18747,54.98982,180.1269],[27.11548,55.00176,193.0051],[27.10618,55.00207,195.836],[27.07435,54.98791,194.1082],[27.07202,54.98509,200.7469],[27.07187,54.98186,197.8292],[27.07295,54.9785,184.4361],[27.07791,54.96832,185.6373],[27.07884,54.96471,187.1393],[27.07931,54.96093,178.8877],[27.07838,54.95742,180.3575],[27.07559,54.95463,184.2947],[27.07094,54.95303,188.6093],[27.05946,54.95086,190.2415],[26.98355,54.94833,184.5984],[26.94402,54.95044,171.9932],[26.93684,54.95251,174.7975],[26.93172,54.95499,176.8614],[26.92536,54.9614,185.5152],[26.9125,54.97174,172.9566],[26.90459,54.97416,169.0279],[26.89699,54.9754,176.6608],[26.79519,54.96553,203.0724],[26.78434,54.9629,209.5122],[26.75375,54.94853,206.4747],[26.74088,54.94507,200.479],[26.73003,54.94388,192.9897],[26.72352,54.94492,196.5757],[26.71912,54.94711,195.6371],[26.71344,54.95429,194.9011],[26.70812,54.95887,205.933],[26.69664,54.96561,217.5589],[26.68812,54.96863,212.5555],[26.67959,54.97034,199.5474],[26.649,54.97163,193.263],[26.62652,54.97055,194.3803],[26.61737,54.96923,201.8889],[26.61505,54.96814,185.8943],[26.61055,54.96305,192.0826],[26.60523,54.95895,190.5538],[26.59624,54.95507,175.0],[26.58585,54.95272,175.0],[26.57143,54.95225,175.0],[26.56182,54.95422,186.7087],[26.55376,54.95727,195.3335],[26.54441,54.9622,200.5258],[26.53495,54.96398,200.6008],[26.48048,54.96218,195.6513],[26.4518,54.96468,206.6985],[26.43098,54.9691,184.9727],[26.3933,54.98083,204.325],[26.38323,54.98254,208.1963],[26.3762,54.98186,192.1158],[26.37015,54.9798,202.8747],[26.36535,54.97608,179.935],[26.3624,54.97132,202.0629],[26.36163,54.96657,199.4806],[26.36271,54.9622,189.103],[26.36488,54.95845,180.2042],[26.36597,54.95551,182.9728],[26.36535,54.95287,197.0923],[26.36209,54.95003,174.1977],[26.35837,54.94789,172.6679],[26.34814,54.94331,166.1345],[26.33977,54.93807,182.7908],[26.32163,54.93249,174.2446],[26.31786,54.9305,157.327],[26.31615,54.92755,148.5242],[26.31708,54.92375,149.2444],[26.33,54.91014,149.4389],[26.33682,54.89949,148.1315],[26.33899,54.89076,158.4609],[26.33713,54.87042,160.6365],[26.3376,54.86347,151.8061],[26.34411,54.85515,148.8415],[26.35031,54.84947,142.288],[26.35992,54.84316,144.539],[26.37077,54.83771,142.7401],[26.38292,54.83306,143.791],[26.39454,54.82994,158.5805],[26.40462,54.82828,159.2936],[26.41935,54.8274,154.8213],[26.42509,54.82557,153.4556],[26.44731,54.81004,152.2662],[26.501,54.76234,168.6951],[26.50642,54.75916,176.8871],[26.51325,54.75681,160.0584],[26.53371,54.75183,169.624],[26.53913,54.74994,169.9328],[26.54177,54.74749,170.0191],[26.54441,54.74126,158.3039],[26.54487,54.73457,159.5799],[26.53976,54.71997,150.9335],[26.53898,54.71384,155.5269],[26.54146,54.70591,158.9682],[26.54477,54.70059,155.5778],[26.55764,54.6856,155.8894],[26.56694,54.67175,161.2626],[26.57159,54.66643,161.1665],[26.57655,54.66168,166.7773],[26.58042,54.65682,158.3147],[26.58321,54.65144,172.0069],[26.58616,54.64333,154.9395],[26.59004,54.63886,154.9821],[26.59484,54.6362,155.2132],[26.61396,54.63251,162.8059],[26.63148,54.62592,152.5578],[26.63799,54.62524,165.6016],[26.64574,54.62641,164.0111],[26.67044,54.63372,154.1292],[26.67525,54.63387,154.3884],[26.67696,54.63005,154.7336],[26.67665,54.62245,158.3482],[26.67277,54.60558,155.3551],[26.67541,54.59481,167.0526],[26.67928,54.58814,167.7238],[26.68254,54.58365,171.5013],[26.68238,54.57946,171.8472],[26.67634,54.57398,154.9692],[26.67013,54.57243,155.5293],[26.66342,54.57248,162.2364],[26.65784,54.57341,160.7604],[26.65272,54.57365,155.1736],[26.64915,54.57109,155.5512],[26.64636,54.56592,155.4393],[26.64543,54.5392,165.0171],[26.64373,54.53352,165.8062],[26.6383,54.53083,170.0069],[26.63164,54.53119,170.7596],[26.62342,54.53326,167.679],[26.59314,54.54551,164.4668],[26.58926,54.54602,160.7702],[26.58647,54.54571,160.1047],[26.58492,54.54401,160.1868],[26.58523,54.54137,160.7137],[26.58973,54.53331,162.8321],[26.5905,54.53037,163.4862],[26.59112,54.52019,160.1854],[26.59376,54.51484,159.0431],[26.59825,54.50959,162.5366],[26.60792,54.50006,161.3164],[26.61148,54.49321,161.3564],[26.61381,54.48365,158.1385],[26.61241,54.46802,165.8366],[26.60978,54.45805,166.4719],[26.60368,54.45099,162.3741],[26.59872,54.44779,158.5625],[26.58027,54.43988,156.783],[26.5767,54.4373,166.221],[26.57391,54.4342,162.7001],[26.56229,54.41058,153.606],[26.50038,54.31444,259.4319],[26.48126,54.29038,280.4485],[26.46886,54.27875,259.0183],[26.42974,54.25498,202.6245],[26.4195,54.24646,211.8516],[26.41609,54.24439,215.0605],[26.41175,54.24243,201.7736],[26.40633,54.24108,189.9101],[26.29538,54.22871,182.3625],[26.24758,54.23405,193.7484],[26.23362,54.2339,183.1701],[26.21673,54.2307,197.4017],[26.15864,54.20062,215.7745],[26.15368,54.19912,208.0014],[26.14794,54.19819,199.5061],[26.14143,54.19773,192.2379],[26.11322,54.1993,206.3903],[26.10795,54.19871,200.2343],[26.10454,54.19633,194.6011],[26.10159,54.19338,189.558],[26.08511,54.1646,189.7604],[26.07596,54.14036,178.0262],[26.07565,54.13639,185.446],[26.07689,54.13272,177.7254],[26.08278,54.12972,174.8063],[26.08852,54.12757,176.1605],[26.11663,54.11993,170.3875],[26.1219,54.11946,186.0695],[26.12593,54.12047,178.7267],[26.12841,54.12349,189.553],[26.13353,54.13489,180.3978],[26.13601,54.13825,197.9898],[26.13942,54.14044,178.3242],[26.14345,54.14142,181.9341],[26.14825,54.14065,188.9904],[26.17017,54.13463,189.939],[26.17497,54.13246,178.3829],[26.17854,54.12941,180.9535],[26.17776,54.12316,185.1516],[26.1728,54.10905,172.1374],[26.16939,54.07489,168.4858],[26.1697,54.0667,162.936],[26.17203,54.06081,161.6158],[26.17606,54.05365,157.6153],[26.18706,54.04102,142.7241],[26.19544,54.03655,147.2378],[26.20334,54.03451,145.8218],[26.26665,54.04009,159.0554],[26.27181,54.04156,164.2907],[26.276,54.04357,163.3808],[26.27817,54.04683,162.8667],[26.27879,54.05117,156.2106],[26.27801,54.05691,147.9865],[26.28282,54.0599,146.9284],[26.28887,54.06063,146.6135],[26.33357,54.05722,163.0511],[26.33961,54.05549,162.0697],[26.34364,54.04869,163.4243],[26.35481,54.01696,164.9643],[26.36178,54.009,165.4349],[26.368289999999998,54.00479,160.9897],[26.42772,54.00363,150.6671],[26.43284,53.99856,161.2633],[26.43428,53.98939,164.7361],[26.42943,53.96684,155.5555],[26.42478,53.95753,157.3879],[26.41919,53.9518,156.697],[26.38338,53.94694,149.7307],[26.37858,53.94534,151.224],[26.37449,53.94299,151.48],[26.37124,53.94035,147.0986],[26.36597,53.93387,164.5072],[26.35543,53.91604,154.5762],[26.35031,53.90942,158.3052],[26.34442,53.90348,149.3959],[26.34085,53.9009,151.797],[26.33279,53.89661,145.4636],[26.32328,53.89299,158.4637],[26.31274,53.8901,152.4945],[26.24463,53.8778,150.5401],[26.22556,53.8711,138.4582],[26.22153,53.86875,142.7213],[26.21843,53.86601,139.7935],[26.21642,53.86095,144.5267],[26.21518,53.85413,148.4557],[26.21435,53.83534,146.5261],[26.2158,53.82953,146.5415],[26.22215,53.82488,147.3582],[26.23393,53.82013,148.5083],[26.30266,53.80312,145.5683],[26.307,53.8009,146.7817],[26.30995,53.79811,151.4649],[26.30762,53.79284,143.7394],[26.30514,53.78902,136.9883],[26.30189,53.78545,142.0842],[26.29879,53.78258,136.4941],[26.29476,53.78028,135.9201],[26.28949,53.77902,136.018],[26.26809,53.77925,150.9185],[26.26168,53.77871,143.158],[26.2575,53.7745,147.6381],[26.25548,53.76716,147.91],[26.25548,53.75202,148.5863],[26.253,53.73837,133.2291],[26.25331,53.73408,133.4487],[26.25827,53.72871,136.4769],[26.2623,53.72509,152.1062],[26.27006,53.71972,147.9609],[26.28313,53.71357,156.0253],[26.29398,53.71037,156.6685],[26.32861,53.70776,145.8801],[26.33388,53.70623,151.6558],[26.33791,53.70414,154.1838],[26.34023,53.69998,152.3467],[26.34132,53.69429,158.9798],[26.33977,53.68396,146.8193],[26.33961,53.676519999999996,156.0172],[26.34085,53.6697,162.7762],[26.34612,53.66215,161.5036],[26.35124,53.65838,156.897],[26.35698,53.65577,158.1337],[26.42043,53.64468,162.1798],[26.46203,53.63109,144.244],[26.46591,53.62866,147.6317],[26.46917,53.62608,153.4217],[26.47444,53.62024,156.3713],[26.4763,53.61621,163.1371],[26.47785,53.6114,164.0657],[26.4811,53.59435,148.1673],[26.4825,53.59073,151.0564],[26.48668,53.58458,160.1483],[26.50208,53.57037,141.449],[26.50689,53.56484,150.1633],[26.51418,53.55309,149.1321],[26.51325,53.54696,171.8898],[26.50952,53.53818,160.1889],[26.49573,53.52035,165.9302],[26.49278,53.5095,176.8507],[26.49319,53.50358,157.6794],[26.4979,53.50175,179.2751],[26.50131,53.50139,189.8741],[26.50642,53.50154,188.8953],[26.52921,53.50428,169.4992],[26.5351,53.50405,170.0763],[26.53945,53.50278,175.6201],[26.54301,53.50133,180.7406],[26.54456,53.50033,178.6106],[26.5457,53.49924,178.6106],[26.54694,53.49663,178.6909],[26.54797,53.49286,169.7886],[26.54849,53.48702,185.0626],[26.54797,53.48196,190.6779],[26.54208,53.45033,210.7401],[26.54208,53.44214,209.1502],[26.54394,53.43467,209.5076],[26.54704,53.42795,208.9312],[26.55076,53.42134,204.5257],[26.55531,53.41509,190.0019],[26.5612,53.40966,190.7427],[26.56771,53.40475,184.8061],[26.5595,53.40119,184.0926],[26.37651,53.36455,176.5994],[26.3748,53.35674,180.1211],[26.37232,53.31933,196.7904],[26.37449,53.31504,192.3027],[26.37858,53.31075,185.4466],[26.38772,53.30388,184.3928],[26.39315,53.29804,185.9591],[26.39749,53.28889,185.0297],[26.39827,53.28295,200.5019],[26.39873,53.26538,188.5379],[26.39827,53.26148,187.8256],[26.39656,53.25778,189.1577],[26.39361,53.25489,189.4151],[26.38989,53.25251,191.4252],[26.3854,53.25076,196.3025],[26.38023,53.24933,192.6226],[26.37449,53.24838,196.0431],[26.33341,53.24776,191.467],[26.32752,53.24639,183.9866],[26.31631,53.24109,175.3082],[26.30793,53.23592,185.2862],[26.29398,53.2252,188.8437],[26.27708,53.20693,205.0861],[26.26964,53.19644,199.3757],[26.26789,53.19314,199.3642],[26.26665,53.18921,196.8299],[26.26623,53.18507,195.7973],[26.26871,53.18099,195.475],[26.27398,53.1773,189.5469],[26.28623,53.17365,194.2213],[26.29522,53.17231,197.8267],[26.30297,53.17213,203.0775],[26.32049,53.17396,206.7926],[26.32597,53.17303,207.23],[26.32907,53.17024,204.8547],[26.33047,53.16068,194.2633],[26.33264,53.15686,187.4107],[26.34798,53.15076,184.0308],[26.35248,53.14735,188.1729],[26.35419,53.14208,186.088],[26.3562,53.12957,191.8093],[26.35915,53.1259,190.6012],[26.36364,53.1226,191.5328],[26.37403,53.11945,195.9641],[26.3823,53.1179,195.8944],[26.45134,53.11552,209.2211],[26.45754,53.11469,209.0147],[26.46327,53.11262,207.3171],[26.49697,53.08854,201.3074],[26.50115,53.08425,204.3013],[26.51511,53.0642,215.1948],[26.51712,53.05697,218.8855],[26.51619,53.0519,213.9034],[26.51169,53.0501,210.6403],[26.50689,53.04909,213.4734],[26.4979,53.04855,209.5454],[26.45723,53.05141,199.5367],[26.44452,53.0503,199.0745],[26.43397,53.04754,194.1365],[26.42927,53.0457,195.7469],[26.4254,53.04361,187.1898],[26.41919,53.0379,193.0642],[26.41361,53.03165,197.7929],[26.40664,53.02167,190.7257],[26.39889,53.00705,206.8675],[26.39687,53.00416,209.6301],[26.39237,53.00023,215.8191],[26.38912,52.99857,219.9994],[26.37558,52.99428,225.7336],[26.37248,52.99144,202.9942],[26.37232,52.98633,200.6913],[26.37465,52.9794,210.4636],[26.38338,52.96785,200.5217],[26.42617,52.92401,184.616],[26.43051,52.9176,187.2219],[26.43144,52.91388,185.2077],[26.43191,52.9099,171.179],[26.43284,52.90618,172.0192],[26.4347,52.90158,169.8221],[26.44219,52.88928,168.9148],[26.4411,52.8853,186.7016],[26.43842,52.88228,189.817],[26.41315,52.87026,166.1496],[26.40974,52.86763,182.596],[26.40726,52.86463,183.4283],[26.40741,52.86008,185.6941],[26.41098,52.8546,168.2888],[26.44002,52.82874,173.3799],[26.44405,52.8267,172.1878],[26.44839,52.82564,176.668],[26.45552,52.82722,179.6461],[26.46405,52.83243,177.4184],[26.46715,52.83525,173.9629],[26.47413,52.84034,177.6777],[26.48188,52.84491,181.0422],[26.48637,52.84659,182.5653],[26.49133,52.8477,182.3383],[26.52487,52.84758,193.1453],[26.52782,52.84832,172.4207],[26.53076,52.85016,175.3875],[26.53278,52.85326,175.6872],[26.53417,52.85714,178.2798],[26.53712,52.87047,187.8972],[26.53851,52.8746,171.1328],[26.54038,52.87837,178.0096],[26.54379,52.88101,185.5829],[26.54849,52.88256,165.6287],[26.57794,52.88618,166.2597],[26.58647,52.88494,165.9685],[26.59717,52.88197,165.3729],[26.61598,52.87378,163.4021],[26.64171,52.86659,155.8062],[26.64605,52.86334,175.7928],[26.64915,52.85683,162.4246],[26.6507,52.84292,175.1591],[26.65179,52.83931,176.6518],[26.65551,52.83595,183.0107],[26.66125,52.8329,172.7495],[26.67324,52.82995,177.0919],[26.6813,52.82933,158.4828],[26.68858,52.82949,155.4377],[26.72042,52.83657,150.9865],[26.72569,52.83716,151.3643],[26.7322,52.83481,151.0648],[26.73871,52.83006,151.0674],[26.7632,52.80138,152.0],[26.78558,52.77985,150.5],[26.79039,52.7766,150.5],[26.79969,52.77319,149.5995],[26.90071,52.75368,147.6906],[26.93529,52.74146,147.6887],[26.94666,52.739,147.207],[26.95193,52.73867,147.6856],[26.95642,52.73988,150.2908],[26.96045,52.74195,158.9899],[26.96402,52.74438,155.0976],[26.97658,52.75562,152.4637],[26.97999,52.75787,156.5708],[26.98433,52.75885,162.6079],[26.98898,52.75807,151.1156],[27.02097,52.74479,170.186],[27.02469,52.742,166.3548],[27.02732,52.73867,158.5016],[27.02748,52.73296,158.3549],[27.02546,52.72924,154.8525],[27.02004,52.72267,148.9914],[27.01973,52.71838,146.1034],[27.02143,52.71337,146.8342],[27.05388,52.68118,161.4096],[27.06195,52.67671,160.6502],[27.06954,52.67384,149.0977],[27.1038,52.66971,157.4746],[27.15672,52.66971,148.8541],[27.16282,52.66865,144.3252],[27.1684,52.66611,153.5915],[27.17817,52.65728,144.0543],[27.18917,52.64531,143.7586],[27.19088,52.64092,144.0532],[27.19196,52.63544,145.9173],[27.1915,52.62594,154.3395],[27.18995,52.6202,154.1327],[27.18793,52.61539,142.7834],[27.1853,52.61224,142.8029],[27.18127,52.61017,155.3777],[27.176,52.60893,154.912],[27.05729,52.60542,147.505],[27.05182,52.60436,150.4474],[27.0481,52.60204,155.6935],[27.04531,52.59881,151.2911],[27.03817,52.58361,153.0755],[27.03802,52.57945,153.6804],[27.03972,52.57527,156.1802],[27.05978,52.56398,154.2806],[27.06303,52.56118,153.918],[27.06489,52.55785,151.4905],[27.06334,52.55292,152.3932],[27.06009,52.54987,148.5135],[27.04081,52.53821,142.6158],[27.04608,52.5309,145.1793],[27.05978,52.51953,144.5023],[27.10318,52.49186,143.0403],[27.14277,52.47271,139.5389],[27.14819,52.46837,138.205],[27.15424,52.45938,137.5658],[27.15625,52.45349,137.541],[27.15672,52.4483,137.0966],[27.15548,52.44445,137.0923],[27.15346,52.4408,136.9166],[27.15114,52.43737,136.8176],[27.14835,52.43427,136.7586],[27.13114,52.42181,136.2291],[27.1285,52.41918,136.1381],[27.12819,52.41623,136.1601],[27.14308,52.40889,135.5947],[27.27139,52.36073,134.0305],[27.3349,52.41623,149.1653],[27.34606,52.43305,145.5399],[27.34002,52.44251,154.7239],[27.33676,52.44915,150.0043],[27.33438,52.45633,148.3815],[27.33366,52.46073,145.5959],[27.33335,52.46579,160.2154],[27.33469,52.47287,147.5838],[27.33831,52.47638,140.0528],[27.34389,52.47799,139.6198],[27.37164,52.47892,155.5541],[27.37908,52.48052,146.9125],[27.38265,52.48346,151.0503],[27.38813,52.49674,149.3649],[27.39557,52.51036,155.7065],[27.40239,52.51555,154.2589],[27.40952,52.51814,150.0077],[27.43572,52.51739,140.0397],[27.44022,52.51555,140.0992],[27.4429,52.51276,140.1556],[27.44456,52.50946,149.4472],[27.44662,52.503,154.2753],[27.44828,52.5015,155.669],[27.4505,52.50165,155.263],[27.51908,52.53747,149.4589],[27.52791,52.53933,150.7231],[27.53365,52.53871,139.6501],[27.54838,52.52111,155.4203],[27.55039,52.51798,151.2214],[27.55535,52.51178,154.4158],[27.55814,52.5093,157.5739],[27.56176,52.50775,158.1623],[27.56378,52.5099,156.6857],[27.57013,52.52049,159.2954],[27.57804,52.52938,152.9073],[27.58501,52.53266,146.934],[27.59215,52.53369,162.6718],[27.59773,52.5324,155.6176],[27.60098,52.52997,157.1584],[27.60222,52.52638,160.5489],[27.60238,52.52227,169.7447],[27.59974,52.49876,165.8765],[27.59974,52.48799,166.197],[27.60005,52.48403,166.9416],[27.60114,52.48047,168.6433],[27.60331,52.47737,148.0888],[27.6061,52.47473,140.8089],[27.6092,52.47235,138.0608],[27.64243,52.45618,143.1931],[27.69333,52.43944,146.5683],[27.69922,52.43835,150.7732],[27.70589,52.43778,144.2053],[27.7849,52.43907,135.3198],[27.81745,52.43463,135.37],[27.92856,52.44093,135.9783],[27.94127,52.4444,136.3956],[27.94484,52.44739,135.8334],[27.94995,52.44982,135.629],[27.96256,52.45396,148.9604],[27.96675,52.45623,152.4875],[27.96938,52.45923,142.7191],[27.97016,52.46284,143.6357],[27.97,52.46657,150.2389],[27.96737,52.48186,151.8661],[27.96597,52.48527,153.2086],[27.96427,52.48853,144.4575],[27.95481,52.49938,144.1794],[27.95419,52.50124,161.455],[27.9559,52.50491,151.2267],[27.96039,52.50928,157.2541],[27.97186,52.51524,159.6267],[27.97993,52.51778,151.6497],[27.98768,52.51897,165.3456],[28.07336,52.50744,157.6036],[28.08405,52.50439,164.2264],[28.08777,52.50258,162.0685],[28.09103,52.50041,161.6918],[28.09165,52.49977,163.7285],[28.09723,52.49,166.0315],[28.10622,52.47799,155.259],[28.11459,52.46946,160.4019],[28.1224,52.46755,158.8156],[28.13433,52.46641,167.1239],[28.34073,52.48062,153.1006],[28.4045,52.51483,145.3623],[28.4076,52.51752,130.8867],[28.40946,52.52077,135.2761],[28.40977,52.52439,144.7284],[28.40931,52.53204,131.817],[28.40326,52.56188,133.5687],[28.40119,52.58144,133.0347],[28.4031,52.61493,133.339],[28.40496,52.62811,133.4162],[28.4062,52.63237,149.0649],[28.41179,52.63725,143.5482],[28.42109,52.64247,141.2713],[28.44295,52.65027,133.8582],[28.45214,52.65464,142.5038],[28.45556,52.65865,134.1347],[28.45276,52.66108,135.0402],[28.45132,52.66449,136.9406],[28.44992,52.66691,135.6675],[28.46532,52.67901,134.4296],[28.4692,52.68012,136.5564],[28.41148,52.71322,150.4355],[28.31339,52.75122,139.9007],[28.29836,52.75978,140.7856],[28.292,52.76567,142.9148],[28.40931,52.83791,159.0766],[28.4307,52.8583,158.0269],[28.43349,52.8614,159.5427],[28.43814,52.86835,163.1377],[28.43985,52.87228,146.5363],[28.44496,52.88954,159.2665],[28.44667,52.89346,149.8647],[28.45194,52.90003,143.9421],[28.48098,52.91959,171.052],[28.48486,52.92287,171.9433],[28.48858,52.9269,165.1185],[28.49245,52.93346,168.4424],[28.49276,52.93822,175.8986],[28.49106,52.94189,166.0856],[28.48749,52.94437,164.8979],[28.4585,52.95641,164.2585],[28.45401,52.95966,172.8626],[28.45349,52.96276,177.7928],[28.45525,52.96584,175.1989],[28.4647,52.97429,183.0571],[28.47307,52.98369,186.6577],[28.49059,53.01248,154.3088],[28.49338,53.01532,155.5326],[28.4971,53.01682,156.7523],[28.50098,53.01718,156.1761],[28.53328,53.0147,153.6064],[28.53824,53.01568,153.6854],[28.53808,53.0178,154.1792],[28.53638,53.02043,153.5132],[28.53095,53.02604,153.2276],[28.52863,53.02906,152.5528],[28.52615,53.03271,152.3727],[28.52429,53.03738,152.3037],[28.52227,53.0441,152.3643],[28.52227,53.04891,152.6338],[28.5232,53.05242,154.1542],[28.53343,53.07728,173.9117],[28.53467,53.08374,171.4968],[28.5339,53.08849,152.9454],[28.51354,53.12105,175.8468],[28.51126,53.12565,172.1835],[28.5094,53.13288,151.5861],[28.5123,53.13714,152.0872],[28.52335,53.14565,157.7034],[28.52335,53.14885,152.0055],[28.52025,53.15154,154.3001],[28.51514,53.15309,160.2051],[28.50909,53.15366,159.826],[28.49106,53.15257,163.2654],[28.48098,53.15004,165.3708],[28.46858,53.14381,177.6049],[28.45866,53.14099,161.5149],[28.4214,53.1382,161.5306],[28.41396,53.14342,175.5431],[28.40636,53.15314,164.0509],[28.39592,53.18042,157.9957],[28.38832,53.19112,175.4438],[28.38057,53.19722,172.405],[28.34548,53.19998,160.5473],[28.3398,53.19952,173.7844],[28.33572,53.19737,177.1844],[28.33262,53.19453,166.1693],[28.33029,53.19102,187.9825],[28.32425,53.1798,182.8533],[28.32177,53.17686,166.1862],[28.31851,53.175,163.3027],[28.31432,53.17546,163.2172],[28.28389,53.1858,176.826],[28.2721,53.18854,165.1008],[28.23629,53.19146,177.6861],[28.22901,53.19283,177.8172],[28.22167,53.1958,174.6338],[28.2026,53.21603,160.6743],[28.19547,53.22016,158.9891],[28.18911,53.22285,159.7602],[28.16782,53.22846,168.3076],[28.12612,53.23458,161.9731],[28.11759,53.23784,160.9968],[28.11366,53.24352,158.8584],[28.10715,53.25946,170.3551],[28.10452,53.2638,169.5165],[28.08901,53.28181,175.576],[28.08917,53.28621,174.4374],[28.09181,53.28918,172.2385],[28.12131,53.29832,164.9581],[28.13247,53.30026,176.3488],[28.15123,53.30129,171.1165],[28.1579,53.30067,175.1801],[28.1734,53.29584,173.0659],[28.18245,53.29181,158.6531],[28.1902,53.28714,158.7836],[28.21609,53.26659,157.5067],[28.21981,53.26548,157.3752],[28.22461,53.26605,157.3235],[28.22973,53.27029,157.1072],[28.23598,53.27153,157.0512],[28.24265,53.27225,156.8304],[28.35871,53.26755,159.8646],[28.36491,53.26807,160.5008],[28.36957,53.26967,162.5903],[28.37282,53.27251,167.304],[28.37515,53.27595,167.2386],[28.37732,53.27959,175.0896],[28.37995,53.28285,171.009],[28.38383,53.28509,165.9629],[28.38894,53.28641,169.6596],[28.43845,53.29042,157.0388],[28.44434,53.2921,157.5869],[28.44946,53.29468,158.6723],[28.45401,53.30042,158.9787],[28.45442,53.30458,157.5835],[28.45256,53.30812,165.5982],[28.44434,53.3168,164.6219],[28.43845,53.32579,154.0589],[28.43287,53.33013,168.6192],[28.42682,53.33297,162.4874],[28.37329,53.34594,157.5935],[28.36771,53.34827,161.8843],[28.3629,53.35186,160.8453],[28.36181,53.35571,176.8767],[28.36259,53.35943,179.0393],[28.36445,53.36307,175.1355],[28.36678,53.36594,174.4601],[28.3936,53.38297,160.782],[28.39654,53.38594,172.4565],[28.39892,53.38945,181.489],[28.40088,53.39338,176.6122],[28.40264,53.39948,158.7064],[28.4045,53.43007,164.4824],[28.40171,53.45245,171.6979],[28.40233,53.46811,177.6151],[28.41225,53.48004,161.7402],[28.42434,53.49188,176.0953],[28.43442,53.50017,178.9814],[28.44977,53.5094,164.322],[28.45432,53.5112,176.9629],[28.45943,53.5125,177.7079],[28.47168,53.51356,174.8943],[28.48532,53.51322,181.5911],[28.50578,53.51033,176.166],[28.51095,53.51017,173.7178],[28.51607,53.51123,168.3451],[28.52304,53.51642,169.2721],[28.52677,53.51867,170.7472],[28.53142,53.52035,170.6621],[28.56449,53.52717,168.8452],[28.56986,53.52903,173.2018],[28.57534,53.5319,167.1147],[28.57627,53.53508,169.9041],[28.57395,53.53761,168.3705],[28.568,53.53906,172.1575],[28.55343,53.54138,169.826],[28.54707,53.54335,171.5685],[28.54738,53.54528,171.7436],[28.55095,53.54676,170.3975],[28.59131,53.5527,175.0983],[28.59643,53.5541,163.8505],[28.60123,53.55665,165.7182],[28.60542,53.56037,169.9417],[28.60991,53.5667,168.6697],[28.61115,53.57146,179.2174],[28.61053,53.57549,172.1104],[28.60588,53.58262,169.6421],[28.6034,53.58753,165.6311],[28.60077,53.5957,164.4058],[28.60154,53.60071,168.1309],[28.60371,53.60487,171.6218],[28.60697,53.60805,186.4548],[28.61115,53.61104,180.5033],[28.61735,53.61383,166.9061],[28.62392,53.61487,170.0898],[28.63074,53.61461,180.9661],[28.64144,53.61143,180.4744],[28.66035,53.60386,171.3562],[28.68304,53.59771,168.4568],[28.77331,53.58743,166.5101],[28.77952,53.58807,165.7571],[28.78463,53.58934,173.7355],[28.79771,53.59528,177.4466],[28.80313,53.59632,189.9765],[28.80949,53.59642,194.8779],[28.816,53.5957,184.0802],[28.82142,53.59404,175.9627],[28.82577,53.59197,178.8683],[28.83259,53.58691,169.4865],[28.83786,53.58141,172.3326],[28.84111,53.57957,173.5065],[28.84561,53.57968,172.7791],[28.85868,53.58836,180.4937],[28.86302,53.58986,179.2558],[28.86814,53.58996,179.6302],[28.87217,53.58846,171.0788],[28.87434,53.58552,172.2374],[28.87481,53.58179,174.1609],[28.87357,53.57745,170.1919],[28.87031,53.57301,169.1566],[28.86488,53.56753,176.9907],[28.86287,53.56363,176.0575],[28.86349,53.56019,170.3441],[28.87605,53.54963,171.3568],[28.89403,53.52539,163.7267],[28.89713,53.52273,174.7958],[28.90121,53.52071,174.9697],[28.9071,53.51989,168.421],[28.94276,53.51865,167.9148],[28.94912,53.51927,147.5069],[28.95501,53.521,143.6351],[28.95563,53.52366,142.1586],[28.95516,53.52666,143.0188],[28.94757,53.54381,157.6647],[28.94726,53.54792,158.4588],[28.94757,53.55262,156.0874],[28.94927,53.55854,154.2518],[28.94958,53.56324,142.7923],[28.94912,53.56789,145.2223],[28.94757,53.57167,142.6566],[28.94664,53.57668,143.7383],[28.95036,53.57854,143.0847],[28.95578,53.57968,143.5025],[29.0458,53.58422,164.2168],[29.05231,53.58588,162.9315],[29.05898,53.58872,165.3962],[29.06782,53.59464,165.6736],[29.07144,53.59957,165.5865],[29.07299,53.60412,159.4869],[29.07216,53.60789,163.4464],[29.07082,53.61135,164.2108],[29.06146,53.62404,162.439],[29.05976,53.62835,156.9201],[29.05929,53.63492,163.1529],[29.06131,53.63913,162.2163],[29.06456,53.64238,161.5759],[29.10353,53.66592,158.095],[29.11252,53.66962,162.414],[29.11748,53.67086,164.4096],[29.1229,53.6714,164.7236],[29.12849,53.67055,163.736],[29.13954,53.66784,161.8713],[29.15877,53.66551,166.1774],[29.16357,53.6638,172.124],[29.16729,53.66132,171.5058],[29.1704,53.65859,170.0234],[29.17443,53.65636,168.6501],[29.17939,53.6545,176.0035],[29.19215,53.65259,166.8498],[29.19866,53.65249,166.399],[29.21013,53.65404,166.0191],[29.28739,53.67941,171.0343],[29.30419,53.68768,165.304],[29.3138,53.69515,163.3092],[29.32573,53.70685,183.6948],[29.33349,53.713,183.2829],[29.33752,53.71522,185.3266],[29.34232,53.71688,181.2494],[29.34775,53.71786,187.1542],[29.35349,53.71817,187.1166],[29.35927,53.71734,188.1693],[29.36361,53.71548,188.9948],[29.36718,53.71295,186.0178],[29.37338,53.70732,189.7561],[29.37695,53.70484,182.9543],[29.38191,53.70313,187.0554],[29.38811,53.70277,184.6588],[29.39493,53.7053,170.7318],[29.39881,53.70959,171.4176],[29.40144,53.71631,171.5831],[29.40516,53.71987,189.5429],[29.40981,53.7223,181.7265],[29.42258,53.72587,177.0875],[29.43048,53.72974,176.9442],[29.43343,53.73315,177.0256],[29.4325,53.73605,176.9959],[29.42785,53.73791,177.8958],[29.41452,53.73998,176.0259],[29.40857,53.74147,175.7312],[29.40361,53.74364,175.358],[29.40067,53.74677,174.557],[29.39974,53.75129,180.0951],[29.40206,53.75434,175.1634],[29.40609,53.75659,194.9927],[29.43777,53.76457,192.7345],[29.45188,53.76959,174.2506],[29.46459,53.77754,184.6019],[29.47611,53.78643,178.699],[29.48045,53.79196,176.6179],[29.48185,53.7962,179.2717],[29.47782,53.79798,180.5791],[29.45947,53.80002,211.2838],[29.45513,53.80199,204.2023],[29.44769,53.80685,196.1043],[29.4432,53.80876,194.1401],[29.43792,53.80982,207.1948],[29.43219,53.80969,194.6264],[29.4156,53.80736,190.0316],[29.40971,53.80809,177.3659],[29.40568,53.81005,179.5302],[29.39881,53.81511,181.7227],[29.39446,53.81713,180.9003],[29.38873,53.81842,175.0596],[29.36888,53.8192,182.2962],[29.36315,53.82023,184.6917],[29.3602,53.82199,188.5374],[29.36206,53.82385,203.0164],[29.36594,53.82555,193.6312],[29.38795,53.83253,195.5458],[29.39617,53.83643,185.4888],[29.39989,53.84038,186.2914],[29.4016,53.84462,186.6861],[29.40113,53.84834,201.553],[29.39943,53.85124,188.4873],[29.39524,53.85211,179.4947],[29.39059,53.85144,175.5959],[29.37137,53.84503,173.4835],[29.36609,53.84441,175.5734],[29.36113,53.84503,175.4187],[29.35741,53.84855,204.015],[29.35819,53.85144,189.9313],[29.36113,53.85408,179.849],[29.37028,53.85927,178.5236],[29.38346,53.8687,196.5076],[29.38516,53.87242,188.3719],[29.38284,53.87519,186.5367],[29.36036,53.88198,188.2921],[29.35586,53.88495,194.8093],[29.35431,53.89087,191.8763],[29.35741,53.89539,194.1021],[29.36423,53.90159,174.5573],[29.36516,53.90534,179.2221],[29.36346,53.90831,181.069],[29.36113,53.91071,194.64],[29.35989,53.91283,199.862],[29.35958,53.9149,193.2781],[29.36129,53.92978,184.9957],[29.36113,53.95392,191.5584],[29.35943,53.96136,186.6136],[29.35648,53.96808,187.2764],[29.34914,53.97694,198.4079],[29.34279,53.98229,184.2726],[29.34,53.98585,184.8092],[29.33798,53.98993,182.9863],[29.33845,53.99683,187.4014],[29.33907,53.99991,193.5573],[29.34077,54.00316,189.2105],[29.35069,54.01492,184.9273],[29.35442,54.01794,183.5811],[29.3585,54.02019,184.0022],[29.37323,54.02492,184.9869],[29.38129,54.02931,187.9892],[29.39121,54.03763,185.0031],[29.41012,54.04859,184.9662],[29.41824,54.05489,185.411],[29.42134,54.05949,185.4829],[29.42242,54.06383,185.449],[29.42196,54.06755,198.7505],[29.42087,54.07112,201.4866],[29.41932,54.07448,204.684],[29.41715,54.07753,209.3505],[29.4142,54.08037,194.9659],[29.40599,54.08523,201.276],[29.40268,54.08828,201.0849],[29.40113,54.093,180.5654],[29.40284,54.09657,181.3391],[29.4063,54.09918,178.8842],[29.41188,54.10078,180.5596],[29.41839,54.10187,179.0338],[29.42506,54.10435,193.9819],[29.42769,54.10778,182.8507],[29.42893,54.11179,178.3708],[29.42971,54.14856,186.4089],[29.42769,54.16558,191.4048],[29.42955,54.16874,191.5675],[29.43343,54.17096,205.7433],[29.45436,54.17858,191.9957],[29.46139,54.18274,196.5285],[29.46273,54.18605,197.493],[29.46056,54.18871,198.3675],[29.45637,54.19085,204.7579],[29.45343,54.19354,208.7287],[29.45203,54.197,200.4083],[29.45172,54.20899,192.4417],[29.44955,54.21204,189.441],[29.44459,54.2139,197.2672],[29.42459,54.21731,193.9646],[29.41948,54.21969,195.3551],[29.41684,54.22217,194.9347],[29.41452,54.23126,196.5228],[29.38315,54.22506,194.6146],[29.3771,54.22542,195.2509],[29.36935,54.227,194.9011],[29.3647,54.23026,214.2152],[29.35881,54.23553,201.7685],[29.35617,54.23979,192.8185],[29.35535,54.24426,212.4606],[29.35803,54.26553,200.6546],[29.35896,54.2694,199.9002],[29.36098,54.27291,189.134],[29.36392,54.27599,189.7481],[29.36718,54.27865,188.7377],[29.39695,54.29328,198.0078],[29.40144,54.29622,192.5515],[29.40537,54.30015,188.3452],[29.4095,54.306399999999996,190.0707],[29.40971,54.31072,185.1408],[29.40826,54.3142,183.7121],[29.38795,54.33317,199.1995],[29.38129,54.33702,195.6855],[29.37633,54.33906,198.6131],[29.36671,54.34459,211.6556],[29.36671,54.34697,205.8485],[29.36764,54.34836,201.8121],[29.37478,54.35208,213.5584],[29.37865,54.35549,197.3571],[29.38191,54.35989,210.3576],[29.38501,54.36712,204.6973],[29.38826,54.37115,211.3147],[29.39291,54.37363,211.9098],[29.3985,54.37461,211.9173],[29.40506,54.38495,203.3599],[29.41167,54.40327,194.0625],[29.4249,54.48698,222.5728],[29.42723,54.49052,214.7984],[29.43265,54.49662,228.6414],[29.43653,54.49977,230.9191],[29.44397,54.50468,229.4803],[29.44785,54.50786,219.1989],[29.45172,54.51189,227.5723],[29.45606,54.51817,214.5769],[29.45637,54.52267,213.3981],[29.45451,54.52618,197.7764],[29.44025,54.53703,205.3207],[29.43684,54.54096,198.9188],[29.43699,54.54424,202.193],[29.43916,54.54724,186.9466],[29.45405,54.55719,190.5051],[29.48774,54.57527,206.1287],[29.49177,54.57915,200.2653],[29.49193,54.5847,204.4595],[29.48526,54.60597,200.3675],[29.47921,54.61181,198.2269],[29.47301,54.61568,198.9812],[29.46009,54.6176,201.3516],[29.45436,54.61739,201.2754],[29.4511,54.61532,204.9413],[29.45033,54.61207,204.731],[29.45095,54.60039,210.0],[29.45033,54.59631,213.3354],[29.44893,54.59233,213.9868],[29.4463,54.58905,211.2791],[29.44289,54.58638,215.5914],[29.43854,54.58439,215.1861],[29.43312,54.58313,207.2874],[29.42692,54.58266,204.7701],[29.39912,54.58607,198.3385],[29.37493,54.59173,195.2524],[29.36144,54.59313,186.1346],[29.35504,54.59279,179.6554],[29.34434,54.59026,179.0031],[29.33473,54.58688,196.0302],[29.30884,54.57476,192.4539],[29.30403,54.57362,194.3213],[29.2984,54.57414,194.1505],[29.27747,54.58044,187.0892],[29.266,54.58194,179.0581],[29.23246,54.5823,185.0032],[29.22734,54.58331,180.0061],[29.22579,54.58638,187.1549],[29.22548,54.59016,186.4804],[29.22657,54.59871,207.8569],[29.22626,54.60571,198.6697],[29.22486,54.61455,175.6691],[29.21897,54.63129,174.8058],[29.21246,54.63765,190.7557],[29.20548,54.64085,176.106],[29.19913,54.64039,182.9057],[29.19339,54.63946,175.9917],[29.17303,54.63375,178.4508],[29.15009,54.62974,179.1933],[29.14358,54.62964,183.4459],[29.13706,54.63057,191.3318],[29.13133,54.63313,186.3627],[29.12993,54.63651,180.7818],[29.13066,54.63961,180.7914],[29.13381,54.6424,184.2764],[29.14187,54.6469,179.4128],[29.1442,54.64961,176.1101],[29.14094,54.65031,181.9756],[29.13598,54.6502,184.7924],[29.11407,54.6455,173.4738],[29.09438,54.6392,163.5],[29.09035,54.63687,163.5],[29.08694,54.63434,163.5],[29.07237,54.61858,169.8521],[29.06864,54.61605,173.2508],[29.06425,54.61408,173.901],[29.05991,54.61269,183.4881],[29.04162,54.60992,185.3731],[29.01418,54.60979,187.3054],[28.88457,54.62375,191.4493],[28.87899,54.62323,206.9092],[28.87465,54.62142,192.3115],[28.87202,54.61853,168.8964],[28.86783,54.60726,167.8718],[28.86442,54.60023,171.9483],[28.86504,54.59698,176.9513],[28.86721,54.59419,183.185],[28.88411,54.58142,204.3974],[28.88612,54.57868,201.1954],[28.88519,54.57543,203.5489],[28.88318,54.57222,203.0585],[28.8745,54.56277,204.9196],[28.87109,54.56011,207.6366],[28.86659,54.55817,207.9177],[28.85527,54.55615,198.6814],[28.84111,54.55507,195.5574],[28.83181,54.55595,192.4018],[28.82856,54.55894,198.6558],[28.82763,54.56277,210.5245],[28.82778,54.56732,219.7899],[28.82654,54.57163,223.0209],[28.82422,54.57651,221.3236],[28.81848,54.57863,225.2594],[28.8115,54.57977,226.8634],[28.76789,54.58313,209.4337],[28.76138,54.58277,199.4166],[28.75611,54.58142,199.0984],[28.74494,54.57403,184.3545],[28.74076,54.57194,185.6745],[28.73595,54.57031,183.5023],[28.73032,54.56954,183.4434],[28.72443,54.56977,204.4848],[28.66469,54.58246,216.8249],[28.65756,54.58613,231.9777],[28.65291,54.58969,210.7806],[28.6481,54.59977,217.1295],[28.64733,54.60354,219.495],[28.64717,54.60731,210.4791],[28.6481,54.6114,206.7691],[28.65012,54.61491,205.8258],[28.66453,54.63067,213.7483],[28.66485,54.63563,205.1354],[28.66236,54.64173,210.8007],[28.65027,54.65333,206.3707],[28.64237,54.65728,182.7311],[28.63663,54.65796,183.1175],[28.63244,54.65604,185.2273],[28.61146,54.64008,182.2274],[28.60681,54.63762,184.1896],[28.6017,54.63594,185.603],[28.59472,54.63532,178.9749],[28.591,54.63723,182.5763],[28.58883,54.64026,171.859],[28.58619,54.64731,181.3086],[28.58418,54.65124,178.8489],[28.58139,54.65517,174.1756],[28.57658,54.66002,177.029],[28.57116,54.66098,173.4884],[28.56552,54.6609,179.623],[28.4861,54.64654,179.8267],[28.48129,54.64483,182.7007],[28.47788,54.64209,179.2839],[28.47524,54.63871,174.0309],[28.46501,54.61992,178.8293],[28.46238,54.61661,182.1591],[28.45783,54.60938,164.7714],[28.45618,54.6054,162.0492],[28.42496,54.55465,158.2553],[28.42109,54.55109,157.2243],[28.41179,54.54941,156.2934],[28.3936,54.55,156.6318],[28.35515,54.56179,156.1938],[28.34786,54.56574,156.5148],[28.34362,54.57194,158.7904],[28.34228,54.57538,157.1424],[28.3399,54.57951,156.8675],[28.33386,54.58439,156.6008],[28.32223,54.59173,156.1487],[28.28792,54.60344,160.6856],[28.28048,54.60819,157.1357],[28.27396,54.61341,156.7619],[28.26652,54.62225,156.9633],[28.26466,54.62548,157.15],[28.26063,54.63021,156.8852],[28.25505,54.63568,157.1967],[28.24125,54.64447,158.119],[28.23428,54.64775,160.9045],[28.22725,54.64961,161.2798],[28.1995,54.65085,174.3999],[28.15015,54.64545,177.3647],[28.12844,54.64057,212.1618],[28.10591,54.63108,230.2397],[28.10204,54.62866,222.8682],[28.09522,54.627,233.6461],[28.08622,54.62618,234.1096],[28.04013,54.63344,243.2368],[28.03377,54.63377,235.8953],[27.92453,54.6147,221.1176],[27.90872,54.61362,227.3858],[27.90484,54.61589,224.173],[27.90267,54.61912,217.1534],[27.90205,54.62302,222.3214],[27.90189,54.63158,208.053],[27.90112,54.63599,210.9334],[27.89802,54.64059,216.5273],[27.8929,54.64312,205.1899],[27.88029,54.64589,201.1825],[27.87409,54.64666,203.8084],[27.8682,54.64643,202.7575],[27.86355,54.64488,204.3337],[27.84603,54.6317,219.9661],[27.84216,54.62928,220.322],[27.83063,54.62827,211.4749],[27.81311,54.62886,210.1386],[27.75632,54.63873,188.5391],[27.74966,54.64271,192.7593],[27.74671,54.64741,199.4553],[27.73989,54.65349,196.4664],[27.71534,54.66547,190.5874],[27.70697,54.6709,194.7004],[27.7034,54.6763,178.6713],[27.70247,54.68072,175.0325],[27.6986,54.68638,175.9916],[27.68372,54.69581,186.9106],[27.6786,54.70157,198.3844],[27.67705,54.70612,183.7046],[27.68232,54.71253,181.8913],[27.68697,54.71961,179.4064],[27.69038,54.72756,177.7895],[27.69162,54.73162,178.3691],[27.69193,54.73557,178.1836],[27.68635,54.74059,180.3829],[27.6755,54.74656,181.6095],[27.62382,54.76599,182.3906],[27.52698,54.77518,198.0705],[27.51985,54.778,191.604],[27.51737,54.78193,203.1997],[27.51846,54.78611,194.6051],[27.52357,54.79803,193.8639],[27.52481,54.80187,192.1223],[27.52466,54.8056,196.1792],[27.52311,54.8089,202.2699],[27.51954,54.81185,196.381],[27.44177,54.84978,176.4731],[27.43898,54.8519,177.5061],[27.43293,54.85862,184.3279],[27.42378,54.8659,188.2774],[27.41448,54.87135,174.2746],[27.40673,54.87329,175.3065],[27.39913,54.87414,174.6622],[27.34513,54.87089,181.8177],[27.32493,54.87166,181.0938],[27.31935,54.87396,183.1504],[27.3164,54.87722,180.8929],[27.31563,54.88104,180.5857],[27.315,54.88892,181.1151],[27.31423,54.89267,180.7095],[27.31268,54.89618,180.4565],[27.31082,54.89944,180.4819],[27.30586,54.90533,180.6825],[27.28756,54.92218,203.378],[27.27961,54.92755,211.0921],[27.25356,54.9397,216.7488],[27.25,54.94259,199.7548],[27.24969,54.94543,195.2262],[27.2517,54.94833,192.2975],[27.27795,54.97075,170.9122],[27.28023,54.97401,167.1275],[27.28121,54.97747,166.9563],[27.27826,54.98186,168.6852],[27.27217,54.98664,179.5836],[27.25868,54.99406,167.9582],[27.24969,54.9968,167.0094],[27.24209,54.99757,162.2369],[27.18747,54.98982,180.1269]],
[[27.68823,53.98932,248.1655],[27.71324,53.98932,256.7391],[27.75326,53.99683,242.0732],[27.78077,54.00683,219.0495],[27.80828,54.02184,253.2155],[27.83579,54.01684,231.493],[27.83829,53.98182,215.9537],[27.80828,53.96181,228.11],[27.78077,53.9318,252.7731],[27.77577,53.90679,241.5148],[27.78827,53.87428,249.3929],[27.82078,53.85927,237.6721],[27.83079,53.83426,195.1051],[27.80328,53.80925,194.6244],[27.76076,53.80425,215.5315],[27.71324,53.80675,190.9025],[27.68823,53.81175,196.779],[27.65071,53.80925,187.8263],[27.58319,53.80425,219.9783],[27.55568,53.78424,225.3126],[27.53317,53.78924,226.731],[27.51566,53.80925,217.7163],[27.47814,53.81675,238.3804],[27.42312,53.83176,246.9187],[27.38311,53.83676,235.9252],[27.3706,53.86427,259.7429],[27.3706,53.89429,261.6155],[27.3756,53.9218,246.6943],[27.38561,53.96431,209.5],[27.40812,53.99683,209.5],[27.44063,54.00933,220.7508],[27.50315,54.01684,222.5664],[27.56568,54.01183,231.382],[27.6057,54.00683,220.7595],[27.63821,53.99933,230.4492],[27.64851,53.99826,231.8604],[27.68823,53.98932,248.1655]]]}
,"properties": {"ISO3166-1-Alpha-3": "BLR","country": "Belarus","fill": "#00F","name": "Minsk","area_km2": 39290.55,"hist_schema_id": "Elevation0-9000","hist_area_km2": {"125": 657.88,"150": 7908.19,"175": 16484.81,"200": 8500.68,"225": 2724.84,"250": 1533.4,"275": 892.22,"300": 447.87,"325": 132.1,"350": 8.56}}}