{"type":"Feature","properties":{"featurecla":"River","scalerank":7,"rivernum":470,"dissolve":"470River","name":"Neris","name_alt":"Vilija","note":null,"min_zoom":6.0,"strokeweig":0.2,"name_en":"Vilija","min_label":7.0},
"geometry":{"type": "LineString","coordinates": [[27.883544921875,54.680047918744116,210.0789],[27.845703125,54.680047918744116,193.4088],[27.839453125,54.67694733280662,192.6101],[27.83359375,54.66278717655662,191.623],[27.8251953125,54.65961334843162,197.479],[27.814697265625,54.65851471561912,192.3692],[27.796142578125,54.65387604374412,193.952],[27.787841796875,54.65277741093162,186.9884],[27.77099609375,54.654559637494117,192.3326],[27.71533203125,54.670770574994116,191.0965],[27.6796875,54.67560455936912,177.3574],[27.644921875000023,54.66913483280662,172.2233],[27.60986328125,54.64655182499412,170.722],[27.577392578125,54.638055731244116,174.3079],[27.56875,54.632928778119116,173.1726]]}}