{"type": "Feature","bbox": [26.8543,53.308,27.7346,53.6612],"geometry": {"type": "MultiPolygon","coordinates": [[[[26.9527,53.5411,204.5649],[26.9528,53.5384,203.0353],[26.9483,53.5303,204.7738],[26.9487,53.5112,207.5457],[26.9396,53.503,209.4984],[26.9353,53.4867,206.3047],[26.9355,53.4786,207.532],[26.9449,53.465,175.6568],[26.9542,53.4596,154.2387],[26.9543,53.4569,165.4045],[26.9452,53.4514,153.5281],[26.9454,53.4405,153.6538],[26.9224,53.4432,153.4162],[26.904,53.4431,172.6665],[26.895,53.4349,164.6214],[26.8768,53.4267,159.2693],[26.8723,53.4185,175.9559],[26.8724,53.413,174.6514],[26.8634,53.4076,152.4042],[26.8588,53.4075,153.4681],[26.8543,53.4021,178.4468],[26.8544,53.3994,169.5284],[26.8774,53.394,156.1562],[26.9053,53.3779,205.2859],[26.9654,53.3509,201.6975],[26.9794,53.3428,176.4341],[26.9841,53.3374,174.0629],[26.9932,53.3402,173.599],[27.0023,53.3456,165.4279],[27.0069,53.3456,167.3625],[27.0301,53.3294,162.6513],[27.053,53.3349,159.7609],[27.0621,53.3404,161.7912],[27.0665,53.3485,157.8021],[27.0711,53.3512,157.8858],[27.0803,53.3513,174.2066],[27.0849,53.3486,165.7871],[27.0987,53.3486,161.2012],[27.1124,53.3568,160.0743],[27.1262,53.3568,161.8469],[27.1399,53.3622,159.2403],[27.1493,53.3514,162.1348],[27.1447,53.3487,159.2025],[27.1494,53.3378,159.9771],[27.168,53.327,176.6366],[27.1865,53.3188,187.1953],[27.1866,53.3161,180.9726],[27.2097,53.308,168.6277],[27.2281,53.308,168.5956],[27.2326,53.3107,180.044],[27.2556,53.3134,167.1426],[27.2648,53.3162,162.316],[27.2831,53.327,166.6483],[27.2922,53.3379,178.8095],[27.3014,53.3379,163.2155],[27.3245,53.3297,163.2702],[27.343,53.327,164.1984],[27.4167,53.3269,166.3057],[27.4259,53.3351,179.5089],[27.4489,53.3405,170.8157],[27.4535,53.3459,168.4634],[27.4535,53.3486,168.4299],[27.458,53.3513,183.2273],[27.4534,53.354,183.8413],[27.4442,53.3541,176.9991],[27.4395,53.3568,166.3405],[27.4441,53.3622,169.3089],[27.4533,53.3622,175.2304],[27.4625,53.3703,168.9258],[27.4625,53.3758,184.2305],[27.4671,53.3785,182.4919],[27.4809,53.3757,189.3472],[27.481,53.3649,170.1501],[27.4903,53.3594,169.4569],[27.5088,53.3539,188.3634],[27.5134,53.3539,184.4438],[27.518,53.3566,174.74],[27.518,53.3594,186.4303],[27.5133,53.3675,185.3919],[27.4994,53.3757,182.9537],[27.4901,53.3866,190.6277],[27.4901,53.3893,192.6075],[27.5132,53.3892,190.3859],[27.5178,53.3865,192.3202],[27.5178,53.3811,188.5791],[27.5271,53.3729,170.489],[27.5271,53.3702,171.5292],[27.5318,53.3702,173.1657],[27.5364,53.362,179.4675],[27.5457,53.3566,173.691],[27.5549,53.3565,179.1733],[27.5549,53.3647,172.8056],[27.5595,53.3674,176.1825],[27.5641,53.3674,176.5404],[27.5826,53.3592,174.6309],[27.6103,53.3537,175.542],[27.6149,53.3564,173.6612],[27.6149,53.3591,174.0156],[27.6149,53.37,173.1156],[27.6102,53.3781,175.9801],[27.6101,53.389,170.3233],[27.624,53.3944,173.1538],[27.6378,53.3916,175.9201],[27.6517,53.3916,170.8402],[27.6563,53.3943,171.4598],[27.6609,53.3997,172.1802],[27.647,53.4079,174.8113],[27.6331,53.408,174.237],[27.6285,53.4134,184.4756],[27.6285,53.4188,170.4949],[27.647,53.4188,173.5029],[27.6516,53.4215,173.5771],[27.6516,53.4242,169.7917],[27.6469,53.4297,187.6709],[27.6237,53.4488,180.4423],[27.6283,53.4515,181.9624],[27.6376,53.4514,182.9396],[27.6422,53.4541,185.4833],[27.656,53.4568,181.3725],[27.6653,53.4568,187.601],[27.6653,53.4541,182.0554],[27.6607,53.4459,171.7569],[27.6607,53.4405,177.6637],[27.6654,53.4378,177.2786],[27.6746,53.4377,171.4882],[27.6885,53.4404,169.8655],[27.7023,53.4403,180.239],[27.7116,53.4376,183.4982],[27.7208,53.4376,185.0113],[27.7254,53.4403,178.3547],[27.7254,53.4511,195.9104],[27.7346,53.462,167.6815],[27.73,53.4674,164.0612],[27.7161,53.4648,165.431],[27.7115,53.4675,165.0795],[27.7022,53.4675,168.4479],[27.693,53.4621,176.4843],[27.693,53.454,178.9824],[27.6838,53.4486,179.2046],[27.6792,53.4486,192.2229],[27.6745,53.454,203.1352],[27.6744,53.4731,171.6121],[27.6698,53.4758,179.5953],[27.6606,53.4758,176.1266],[27.6513,53.4704,183.483],[27.6421,53.4704,181.6372],[27.6374,53.4732,181.8388],[27.6467,53.4759,176.8026],[27.642,53.4813,198.3842],[27.6327,53.4868,198.9311],[27.6235,53.4895,191.3278],[27.6142,53.4896,200.1733],[27.605,53.4869,205.3862],[27.5865,53.476,187.901],[27.5681,53.4707,193.363],[27.5588,53.4734,188.9506],[27.5588,53.4761,195.0696],[27.5634,53.4788,182.7629],[27.5726,53.4788,179.7657],[27.5773,53.4815,185.5139],[27.5818,53.4869,181.2504],[27.5772,53.4897,178.9337],[27.5587,53.4897,176.1921],[27.5541,53.487,182.2662],[27.5356,53.4816,174.5124],[27.5356,53.487,189.407],[27.5402,53.4897,181.3339],[27.5632,53.5142,190.9323],[27.5724,53.5196,183.0103],[27.5722,53.5468,180.5377],[27.5768,53.5522,204.3197],[27.5953,53.563,186.3393],[27.6092,53.563,179.5778],[27.6138,53.5657,178.5662],[27.6138,53.5684,176.7337],[27.5952,53.5739,173.8974],[27.5906,53.5739,182.7441],[27.5905,53.5793,174.8224],[27.6044,53.5847,184.0485],[27.5998,53.5875,184.0738],[27.5859,53.5848,175.1999],[27.5812,53.5875,175.5851],[27.5812,53.5902,175.6897],[27.5904,53.5984,177.7698],[27.5858,53.6011,180.0915],[27.5719,53.593,179.5348],[27.5719,53.5903,180.5402],[27.5673,53.5876,181.0795],[27.5581,53.5849,188.1283],[27.5488,53.5876,184.3536],[27.5487,53.5903,183.7337],[27.5441,53.593,186.5196],[27.5395,53.5931,176.6542],[27.5348,53.5958,183.867],[27.5348,53.6012,203.324],[27.5255,53.604,185.4128],[27.5162,53.604,192.9492],[27.5069,53.6013,181.9174],[27.4977,53.6013,183.6055],[27.4837,53.6095,185.2007],[27.4836,53.6149,186.4948],[27.4929,53.6203,186.2366],[27.5022,53.6176,182.9486],[27.5207,53.6176,183.1416],[27.53,53.623,183.0689],[27.5346,53.6284,184.1146],[27.5345,53.6339,186.6262],[27.5252,53.6393,191.454],[27.5159,53.6393,189.266],[27.5113,53.6421,188.0868],[27.5112,53.6475,189.3443],[27.5205,53.6502,191.3452],[27.5344,53.6502,189.638],[27.539,53.6529,190.7504],[27.539,53.6556,190.6889],[27.5343,53.6583,189.4468],[27.5158,53.6584,188.9825],[27.5019,53.6557,191.8792],[27.4879,53.6557,192.4114],[27.4693,53.6612,206.0775],[27.4415,53.6612,196.2187],[27.4137,53.6531,192.9252],[27.4138,53.6476,191.0954],[27.4231,53.6395,193.6334],[27.4232,53.6313,198.1303],[27.4372,53.6231,198.7046],[27.4372,53.6204,199.1957],[27.4326,53.6177,193.6727],[27.428,53.6177,192.5988],[27.414,53.6204,189.3686],[27.4094,53.615,186.5925],[27.4002,53.6096,186.4995],[27.3956,53.6041,185.0198],[27.3957,53.6014,183.7414],[27.4004,53.596,186.2084],[27.4004,53.5878,204.9118],[27.4051,53.5878,206.7825],[27.4097,53.5905,207.6982],[27.4189,53.5905,203.9463],[27.4144,53.5824,187.4369],[27.4144,53.5769,205.3292],[27.3914,53.5661,192.0206],[27.373,53.5498,196.4368],[27.3592,53.5417,171.6994],[27.3223,53.5308,171.1787],[27.3038,53.5308,168.9935],[27.2992,53.5335,169.1411],[27.2991,53.5417,172.6676],[27.3036,53.5498,198.4775],[27.3035,53.558,192.9336],[27.2989,53.558,177.4973],[27.2897,53.5525,192.4477],[27.2852,53.5417,174.0687],[27.2899,53.5308,184.6145],[27.2715,53.5254,175.9326],[27.2438,53.5254,196.2407],[27.2299,53.5226,197.5519],[27.2161,53.5172,196.0269],[27.1975,53.5308,190.7841],[27.1974,53.5335,203.1799],[27.2158,53.5389,203.0092],[27.2158,53.5444,183.6189],[27.2065,53.5498,182.2707],[27.1972,53.5498,172.144],[27.1696,53.5416,177.0638],[27.1604,53.5416,181.8791],[27.1511,53.5416,181.6745],[27.1233,53.5497,180.9707],[27.1187,53.5497,180.2432],[27.1234,53.5416,186.0161],[27.128,53.5416,183.7611],[27.1234,53.5388,185.5552],[27.1095,53.5415,187.9436],[27.105,53.5388,185.0471],[27.1096,53.5361,186.3286],[27.1235,53.5334,181.4081],[27.1236,53.5307,181.1234],[27.1098,53.5225,178.7942],[27.096,53.5225,181.1946],[27.0913,53.5252,179.1025],[27.0819,53.5361,186.0674],[27.0727,53.536,176.7592],[27.0681,53.5333,176.3527],[27.0682,53.5306,173.017],[27.0729,53.5252,167.9108],[27.073,53.5197,168.3507],[27.0869,53.5116,170.8252],[27.087,53.5062,166.9836],[27.0779,53.5007,167.8017],[27.0502,53.5007,178.518],[27.0363,53.5061,194.5786],[27.0543,53.5333,169.2347],[27.0542,53.536,168.7874],[27.0449,53.5414,170.0925],[27.031,53.5468,173.2125],[27.0264,53.5468,172.0703],[27.0264,53.5441,172.0639],[27.0174,53.5332,184.9699],[27.0036,53.5331,197.9283],[27.0034,53.544,183.6938],[26.9987,53.5494,206.941],[26.994,53.5494,201.3628],[26.9895,53.5467,182.7764],[26.9942,53.5386,173.0745],[26.9896,53.5385,174.0716],[26.9898,53.5304,183.0056],[26.9852,53.5304,181.0684],[26.9712,53.5385,194.5663],[26.9803,53.544,177.079],[26.9802,53.5521,202.7922],[26.9755,53.5548,206.2644],[26.9617,53.552,204.1276],[26.9618,53.5493,197.9609],[26.9527,53.5411,204.5649]]]]}
,"properties": {"GID_2": "BLR.5.20_1","GID_0": "BLR","country": "Belarus","GID_1": "BLR.5_1","province": "Minsk","NL_NAME_1": "Мінская","county": "Uzda","VARNAME_2": "NA","NL_NAME_2": "Уздзенскіраён","TYPE_2": "Raion","ENGTYPE_2": "District","CC_2": "NA","HASC_2": "BY.MI.UZ","name": "Uzda.county","area_km2": 1131.0685,"hist_schema_id": "Elevation0-9000","hist_area_km2": {"150": 64.3947,"175": 694.1888,"200": 367.1535,"225": 5.3315}}}