{"type": "Feature","bbox": [29.5208,55.3485,30.7607,55.8897],"geometry": {"type": "MultiPolygon","coordinates": [[[[29.5825,55.5877,148.6674],[29.5871,55.5793,156.8576],[29.6011,55.5737,147.828],[29.6293,55.5707,154.3966],[29.6434,55.5623,162.5408],[29.6433,55.5484,150.9845],[29.6383,55.5317,145.5454],[29.6474,55.515,169.959],[29.6566,55.5038,168.6193],[29.6565,55.4982,157.9862],[29.6468,55.4928,163.1537],[29.6417,55.4817,155.7631],[29.6416,55.4761,157.3477],[29.646,55.465,154.3389],[29.6506,55.4594,162.4128],[29.6601,55.4594,168.0877],[29.6697,55.4649,161.3591],[29.6887,55.4647,171.5016],[29.6981,55.4619,166.9199],[29.6979,55.4536,163.8771],[29.6833,55.4426,171.1121],[29.6831,55.437,176.5728],[29.7065,55.4258,172.3231],[29.6965,55.412,170.6762],[29.6868,55.4065,158.4275],[29.6817,55.3955,171.4066],[29.6815,55.3899,179.6272],[29.6958,55.3898,170.6101],[29.7052,55.387,163.0054],[29.7239,55.3786,172.7007],[29.7284,55.373,162.8563],[29.7377,55.3674,172.8325],[29.7519,55.3645,179.8652],[29.7662,55.3672,173.1762],[29.7709,55.3644,179.1898],[29.7756,55.3643,181.055],[29.7805,55.367,184.1],[29.8041,55.3669,189.893],[29.8184,55.3695,186.2577],[29.8468,55.3693,186.3175],[29.8467,55.3665,184.1182],[29.8562,55.3664,186.5096],[29.8705,55.3718,179.9931],[29.8755,55.3801,186.3072],[29.885,55.3828,191.9619],[29.8851,55.3856,187.091],[29.9038,55.3798,178.8654],[29.9037,55.3743,180.7218],[29.9174,55.3603,168.942],[29.9267,55.3574,177.5865],[29.9362,55.3601,188.0288],[29.9603,55.3737,164.5542],[29.9745,55.3735,184.5997],[29.9792,55.3707,190.282],[29.9693,55.3597,180.4287],[29.9692,55.357,181.2527],[29.9739,55.3569,184.9749],[29.9787,55.3596,170.5206],[29.9837,55.3651,172.9804],[29.9935,55.3705,163.5],[30.0026,55.3621,187.692],[30.0168,55.3591,183.021],[30.0408,55.3588,170.9591],[30.0657,55.3722,165.7703],[30.095,55.3746,175.6574],[30.1199,55.3826,176.4862],[30.1294,55.3797,178.8094],[30.1338,55.3741,181.3346],[30.1526,55.3656,192.3196],[30.1567,55.3572,180.0899],[30.1613,55.3544,180.7828],[30.1611,55.3516,177.2303],[30.1755,55.3487,173.078],[30.195,55.3485,174.1929],[30.2053,55.354,156.3841],[30.2154,55.3567,156.505],[30.2164,55.3651,173.4362],[30.2273,55.3735,160.8665],[30.2283,55.382,160.7131],[30.2488,55.3876,164.2545],[30.2637,55.3877,169.0513],[30.3158,55.4105,176.0562],[30.3316,55.4191,157.7988],[30.3431,55.4333,168.2351],[30.3536,55.4391,173.4465],[30.3841,55.4479,174.1222],[30.3988,55.4481,173.9456],[30.427,55.4372,182.1549],[30.4319,55.4373,163.0103],[30.4371,55.4403,164.1348],[30.4375,55.4431,183.9113],[30.443,55.4489,173.1331],[30.4617,55.4408,179.3571],[30.4666,55.4409,170.8011],[30.482,55.4469,173.9995],[30.4977,55.4559,174.6439],[30.5178,55.462,178.2751],[30.5474,55.4684,164.5882],[30.5576,55.4743,170.2509],[30.5581,55.48,166.8638],[30.5488,55.4826,180.0459],[30.5397,55.4881,180.1349],[30.5403,55.4938,182.3351],[30.5368,55.5079,182.0579],[30.5326,55.5134,182.9187],[30.5331,55.5191,185.2028],[30.5244,55.5274,186.241],[30.5251,55.5359,183.2724],[30.5448,55.5447,182.5007],[30.5591,55.5477,188.4741],[30.5776,55.5452,181.6137],[30.601,55.5482,179.1534],[30.6147,55.5456,174.007],[30.6333,55.5485,174.0026],[30.6561,55.5486,164.5276],[30.6699,55.5514,163.2567],[30.684,55.5625,160.0232],[30.698,55.5681,172.6579],[30.7119,55.5682,178.0877],[30.7213,55.5711,187.2321],[30.7215,55.5739,177.4715],[30.7315,55.5825,169.1248],[30.7277,55.5963,184.1639],[30.7467,55.5995,177.3799],[30.7607,55.6077,163.4003],[30.7592,55.6326,160.618],[30.7551,55.6381,156.4933],[30.7529,55.6387,154.7173],[30.7528,55.6413,155.2039],[30.7455,55.6511,153.365],[30.7358,55.659,155.2923],[30.7267,55.6601,163.2043],[30.7158,55.6575,163.5452],[30.71,55.6492,157.2772],[30.7102,55.6463,160.0284],[30.7009,55.6462,157.9167],[30.6978,55.6479,152.2164],[30.6814,55.6468,157.9901],[30.6754,55.6523,168.6118],[30.6738,55.6613,162.0422],[30.6556,55.6642,159.7797],[30.6456,55.6699,165.9607],[30.6402,55.6798,156.4215],[30.6452,55.6902,159.5779],[30.6441,55.6912,158.9326],[30.6456,55.6912,158.7239],[30.6488,55.6953,159.9792],[30.6482,55.7092,161.8605],[30.6381,55.7171,167.0573],[30.6301,55.7303,166.3398],[30.6153,55.7399,166.2784],[30.5905,55.743,175.69],[30.5573,55.7435,176.8856],[30.5316,55.7504,172.0032],[30.5167,55.7599,161.4471],[30.5081,55.7895,160.609],[30.5038,55.7986,167.7709],[30.4889,55.8074,186.126],[30.4691,55.8088,184.1793],[30.433,55.8071,160.5035],[30.4065,55.8081,159.11],[30.412,55.8212,153.3101],[30.4005,55.8293,152.0],[30.3965,55.8267,152.0],[30.3873,55.8269,152.0],[30.3831,55.8213,152.0],[30.3549,55.8214,153.2222],[30.3503,55.8272,157.8017],[30.3488,55.8352,170.2481],[30.3385,55.8405,173.3953],[30.3123,55.8387,172.4484],[30.2982,55.8416,183.4319],[30.2867,55.8492,173.8288],[30.2838,55.8594,186.5291],[30.2729,55.8673,180.656],[30.2677,55.87,180.5613],[30.2533,55.8727,180.8095],[30.2168,55.8733,181.9455],[30.1979,55.8763,194.8133],[30.1708,55.8768,196.0371],[30.1664,55.8741,193.6201],[30.1668,55.8714,193.6745],[30.1771,55.8661,186.2861],[30.1775,55.8634,182.8444],[30.1587,55.8526,180.0414],[30.1495,55.8497,173.7631],[30.1519,55.841,172.0344],[30.1439,55.8351,179.2535],[30.1351,55.8321,173.7219],[30.1196,55.8317,175.9388],[30.0807,55.8548,181.3641],[30.0712,55.8516,173.8169],[30.0611,55.8544,177.3194],[30.0559,55.8604,177.4359],[30.0416,55.8685,191.3056],[30.0175,55.8738,196.109],[30.0082,55.8791,210.6901],[29.9696,55.8897,166.5601],[29.9545,55.8844,161.0274],[29.9536,55.8764,162.3429],[29.9583,55.8737,170.9119],[29.9533,55.8737,165.5944],[29.9479,55.868,175.1677],[29.9383,55.8708,167.0244],[29.9284,55.8707,167.376],[29.9045,55.879,169.9046],[29.8795,55.8761,162.5],[29.8689,55.8696,162.5],[29.8586,55.8662,164.8299],[29.8523,55.8563,162.5],[29.8534,55.8306,178.4159],[29.8389,55.8129,162.6629],[29.8151,55.7949,177.2518],[29.8099,55.781,166.1282],[29.7965,55.7739,180.1372],[29.7671,55.7752,173.9593],[29.7571,55.7785,168.7333],[29.7565,55.7939,174.9971],[29.7518,55.7972,186.189],[29.7341,55.7974,175.7469],[29.7063,55.7867,174.437],[29.6746,55.7826,168.7867],[29.659,55.7834,163.6899],[29.6378,55.7789,171.6659],[29.627,55.7739,153.3173],[29.6218,55.7742,159.013],[29.6007,55.7697,164.8993],[29.5848,55.765,166.8729],[29.5688,55.7576,168.3002],[29.5683,55.7361,158.5733],[29.5578,55.7312,164.6105],[29.5314,55.7243,165.4901],[29.5208,55.7167,161.4247],[29.5312,55.7189,166.3129],[29.5567,55.7178,161.172],[29.556,55.7125,153.1284],[29.5509,55.7127,160.6087],[29.5448,55.7049,167.4125],[29.5394,55.7025,163.6471],[29.5387,55.6972,175.0264],[29.5484,55.6941,165.4803],[29.5643,55.6987,166.3125],[29.5755,55.7063,149.3458],[29.5837,55.6925,156.5942],[29.5834,55.6899,154.1676],[29.5617,55.6801,153.0656],[29.5417,55.6753,150.5],[29.5301,55.6612,167.5729],[29.5262,55.6499,160.9481],[29.5265,55.6414,151.6404],[29.5312,55.6329,154.9906],[29.5405,55.6301,148.8482],[29.5498,55.6244,165.472],[29.559,55.6243,168.4719],[29.568,55.6298,172.0575],[29.5726,55.6298,175.8591],[29.5866,55.6241,166.9207],[29.6002,55.6267,150.4677],[29.6097,55.6211,152.4354],[29.6101,55.6127,159.6263],[29.5965,55.5988,158.152],[29.5918,55.5905,152.5793],[29.5825,55.5877,148.6674]]]]}
,"properties": {"GID_2": "BLR.6.7_1","GID_0": "BLR","country": "Belarus","GID_1": "BLR.6_1","province": "Vitebsk","NL_NAME_1": "Вiцебская","county": "Haradok","VARNAME_2": "Gorodok","NL_NAME_2": "Гарадоцкіраён","TYPE_2": "Raion","ENGTYPE_2": "District","CC_2": "NA","HASC_2": "BY.VI.GD","name": "Haradok.county","area_km2": 3060.929,"hist_schema_id": "Elevation0-9000","hist_area_km2": {"150": 439.238,"175": 1459.412,"200": 806.588,"225": 308.896,"250": 46.651,"275": 0.143}}}