{"type":"Feature","properties":{"GID_2":"BLR.5.22_1","GID_0":"BLR","country":"Belarus","GID_1":"BLR.5_1","province":"Minsk","NL_NAME_1":"Мінская","county":"Vileyka","VARNAME_2":"Vyalyeyka","NL_NAME_2":"Вілейскіраён","TYPE_2":"Raion","ENGTYPE_2":"District","CC_2":"NA","HASC_2":"BY.MI.VI","name":"Vileyka.county"},
"geometry":{"type": "MultiPolygon","coordinates": [[[[26.6608,54.4382,157.688],[26.6846,54.4247,146.6168],[26.694,54.4247,153.9865],[26.7226,54.4112,155.436],[26.7693,54.4222,178.0549],[26.8069,54.4224,156.7512],[26.8115,54.4278,153.9794],[26.835,54.4279,143.7827],[26.8588,54.4198,164.9787],[26.859,54.4089,162.3719],[26.845,54.4034,152.8249],[26.831,54.4007,170.608],[26.8311,54.398,165.4265],[26.8264,54.3952,149.5863],[26.8266,54.3898,149.3706],[26.8313,54.3871,149.3958],[26.8688,54.3926,161.488],[26.8736,54.3899,158.6617],[26.8737,54.3845,159.612],[26.8785,54.3818,151.8337],[26.902,54.3819,171.4079],[26.9303,54.3792,165.3941],[26.949,54.3847,165.9138],[26.9866,54.3848,178.4009],[27.0055,54.3821,172.3938],[27.029,54.3822,193.4146],[27.0336,54.3849,190.9142],[27.0335,54.3904,188.594],[27.0382,54.3931,183.4953],[27.0429,54.3904,201.63],[27.043,54.3877,199.4237],[27.0384,54.3795,204.078],[27.0385,54.3768,199.7444],[27.0433,54.374,195.5502],[27.0527,54.3741,196.468],[27.0527,54.3713,201.1215],[27.0481,54.3659,190.6778],[27.0482,54.3604,190.7406],[27.0577,54.355,178.3368],[27.0578,54.3523,183.9419],[27.0485,54.3495,180.5344],[27.0486,54.3414,172.8915],[27.0534,54.3387,186.933],[27.0628,54.3387,170.6862],[27.0629,54.3332,169.5902],[27.0677,54.3251,163.1222],[27.082,54.3169,164.0789],[27.1101,54.3197,165.9802],[27.1149,54.317,170.8005],[27.1337,54.317,167.4346],[27.1525,54.3116,170.5927],[27.162,54.3061,167.5172],[27.1903,54.3007,184.646],[27.2044,54.3007,187.0881],[27.2137,54.3035,170.655],[27.2277,54.3116,180.3639],[27.2276,54.3144,184.3073],[27.2323,54.3171,186.2634],[27.2464,54.3171,180.4656],[27.2465,54.3116,188.3107],[27.2513,54.3035,189.8489],[27.2467,54.3008,185.1963],[27.2326,54.298,172.8481],[27.228,54.2953,183.8929],[27.2234,54.2898,187.107],[27.2235,54.279,186.698],[27.2283,54.2762,180.6448],[27.2283,54.2735,189.4466],[27.238,54.2545,176.5521],[27.2474,54.2517,177.1335],[27.2568,54.2517,192.768],[27.2708,54.2572,196.8164],[27.3037,54.2572,202.6943],[27.3131,54.2518,195.923],[27.3132,54.249,203.5518],[27.3179,54.2463,214.0141],[27.3367,54.2463,228.2101],[27.346,54.2518,204.0701],[27.3554,54.2518,240.7762],[27.3601,54.249,237.5241],[27.3742,54.249,234.3969],[27.3835,54.2572,230.9264],[27.3976,54.2572,253.5349],[27.4023,54.2545,239.2105],[27.4068,54.2708,259.418],[27.4114,54.2763,264.2225],[27.4254,54.2817,274.3416],[27.4348,54.2817,279.8932],[27.4348,54.2871,259.9508],[27.4301,54.2871,262.271],[27.4299,54.298,254.5771],[27.444,54.3062,263.8708],[27.4486,54.3144,251.562],[27.4532,54.3171,244.7724],[27.4579,54.3171,244.9481],[27.4721,54.3089,232.4115],[27.4816,54.3062,228.681],[27.491,54.3062,215.6375],[27.4956,54.3089,217.5587],[27.5004,54.3089,219.9311],[27.5003,54.3116,217.9166],[27.4862,54.3143,228.7138],[27.4767,54.3198,232.0454],[27.4861,54.3252,221.8656],[27.4954,54.3334,206.9662],[27.4906,54.3388,202.8236],[27.4952,54.3552,195.7835],[27.4904,54.3606,205.9941],[27.4903,54.3661,205.9731],[27.4997,54.3715,204.60059999999999],[27.5091,54.3742,215.0444],[27.509,54.3824,190.2874],[27.4995,54.3879,185.2554],[27.4901,54.3906,184.8964],[27.4663,54.4097,194.7875],[27.4568,54.4124,182.172],[27.4521,54.4179,190.478],[27.466,54.4315,195.1085],[27.466,54.4342,202.6388],[27.4707,54.4342,212.39],[27.4755,54.4288,204.4884],[27.4802,54.4288,197.7863],[27.5036,54.4478,250.7996],[27.5036,54.4505,246.7479],[27.4988,54.4533,245.9805],[27.4894,54.4533,221.3878],[27.4894,54.4505,239.1003],[27.48,54.4533,212.1506],[27.4799,54.4615,228.1581],[27.4845,54.4669,231.3172],[27.4987,54.4669,241.1544],[27.4985,54.4832,247.0937],[27.4937,54.4969,210.3862],[27.503,54.5023,224.188],[27.5077,54.5105,194.146],[27.5077,54.5132,188.5549],[27.4792,54.5241,200.6857],[27.465,54.5241,185.3616],[27.4556,54.5269,204.5991],[27.4365,54.5378,195.7438],[27.4411,54.5487,178.2944],[27.4506,54.5514,197.5752],[27.4505,54.5568,184.2883],[27.4458,54.5569,184.9298],[27.441,54.5596,180.6162],[27.441,54.5623,178.6116],[27.4457,54.5677,173.7104],[27.4598,54.5705,177.8894],[27.474,54.5705,178.2369],[27.4975,54.5814,170.5869],[27.5212,54.5813,182.6974],[27.5542,54.5922,192.848],[27.5684,54.5949,186.8158],[27.5731,54.5976,189.7341],[27.5778,54.6031,179.6601],[27.573,54.6031,184.7327],[27.5825,54.6085,187.2184],[27.5967,54.6085,188.6526],[27.6061,54.6112,170.626],[27.6108,54.6167,181.3098],[27.606,54.6303,175.6393],[27.6107,54.6385,171.3073],[27.6296,54.6439,172.9708],[27.6343,54.6466,177.2583],[27.6437,54.6548,179.8899],[27.6721,54.6711,172.8159],[27.6768,54.6766,177.8391],[27.691,54.682,174.7239],[27.7005,54.682,174.7621],[27.7147,54.6738,175.513],[27.7099,54.6874,176.0742],[27.7146,54.6983,177.3955],[27.7098,54.7038,177.0707],[27.7098,54.712,180.4699],[27.7145,54.7147,200.5775],[27.7144,54.7311,193.2055],[27.7001,54.7447,175.5994],[27.6716,54.7502,180.2649],[27.662,54.7612,180.8685],[27.6335,54.7612,189.58],[27.624,54.7639,182.8196],[27.6002,54.7667,185.9673],[27.567,54.764,180.4487],[27.5575,54.7694,193.5139],[27.5385,54.764,176.2127],[27.5338,54.7613,181.3356],[27.5291,54.7558,178.7679],[27.5197,54.7504,176.2486],[27.5055,54.7504,174.0677],[27.4912,54.7531,176.3955],[27.4675,54.7504,192.2929],[27.4674,54.7586,173.8376],[27.4626,54.7613,175.7972],[27.4532,54.7558,176.4203],[27.4485,54.7504,179.1689],[27.4533,54.7477,186.9697],[27.4391,54.7422,182.3004],[27.4297,54.734,184.7477],[27.4536,54.7204,198.7262],[27.4442,54.7149,183.9936],[27.4347,54.7122,201.9845],[27.4299,54.7149,202.6924],[27.4157,54.7149,194.244],[27.411,54.7122,197.4838],[27.4111,54.7095,200.2601],[27.4063,54.7068,198.5138],[27.3733,54.6986,176.3865],[27.3685,54.7013,175.9456],[27.3684,54.7068,192.0482],[27.3637,54.7095,193.4233],[27.3636,54.7122,194.9468],[27.3589,54.7122,196.6166],[27.3542,54.7095,178.8334],[27.3542,54.7067,192.4709],[27.3496,54.7013,173.7152],[27.3496,54.6986,187.7471],[27.3402,54.6958,188.5054],[27.3402,54.6931,176.0476],[27.3166,54.6849,174.7138],[27.3072,54.6795,176.3746],[27.2978,54.6767,189.6572],[27.2836,54.6767,198.2359],[27.2789,54.6795,196.7921],[27.2647,54.6795,182.2836],[27.26,54.674,189.0032],[27.2363,54.674,175.6249],[27.2365,54.6631,179.8369],[27.2413,54.6576,188.5132],[27.2461,54.6549,190.7802],[27.2367,54.6494,187.0386],[27.2368,54.644,180.6364],[27.2227,54.6385,185.2117],[27.2085,54.6385,195.3246],[27.1895,54.6412,207.8964],[27.1848,54.6385,203.5095],[27.1849,54.6358,202.6398],[27.1802,54.633,207.4768],[27.1661,54.6303,190.6755],[27.1472,54.6303,204.9447],[27.1425,54.6275,197.3922],[27.1378,54.6275,197.0788],[27.1235,54.633,211.1497],[27.1188,54.6302,207.1324],[27.1141,54.6302,201.047],[27.1141,54.6275,202.7335],[27.1095,54.6248,228.5835],[27.1047,54.6247,224.3546],[27.0999,54.6302,209.586],[27.0997,54.6438,196.4796],[27.1044,54.6465,194.1917],[27.1043,54.6493,202.5611],[27.0996,54.652,202.7695],[27.0901,54.652,208.4189],[27.0854,54.6492,204.5932],[27.0854,54.652,206.949],[27.0947,54.6601,200.9999],[27.0993,54.6683,197.8312],[27.0896,54.6819,186.7292],[27.066,54.6792,204.7003],[27.0469,54.6873,209.3001],[27.0422,54.6873,217.8353],[27.0421,54.6927,200.9981],[27.0468,54.6982,202.0865],[27.042,54.7009,176.9851],[27.0561,54.7037,182.0279],[27.0655,54.7091,172.9597],[27.0654,54.7119,171.4841],[27.0607,54.7146,179.3362],[27.037,54.7145,184.0432],[27.0274,54.72,190.6831],[27.0227,54.72,188.2596],[27.0087,54.7117,193.1167],[26.9992,54.7117,193.0821],[26.9852,54.7035,192.8516],[26.9758,54.7007,195.0532],[26.9568,54.7034,178.1726],[26.9568,54.7061,176.4227],[26.952,54.7089,175.7529],[26.9426,54.7088,171.6473],[26.9285,54.7061,179.133],[26.9282,54.7197,174.5142],[26.9234,54.7224,170.8016],[26.923,54.7415,193.5923],[26.9089,54.7415,195.8978],[26.9041,54.7469,186.1048],[26.9039,54.7551,183.757],[26.8991,54.7578,177.1968],[26.8802,54.7578,165.8983],[26.8755,54.7605,166.7411],[26.8658,54.7714,175.7839],[26.8564,54.7714,172.543],[26.8517,54.7686,166.801],[26.8614,54.755,163.1033],[26.8662,54.7523,163.3473],[26.8663,54.7468,178.3029],[26.857,54.7413,163.945],[26.8571,54.7359,173.728],[26.8477,54.7304,171.5344],[26.843,54.7304,165.1429],[26.8382,54.7358,171.9437],[26.8379,54.7522,184.757],[26.8331,54.7549,180.4895],[26.819,54.7549,170.6682],[26.8004,54.7412,176.0948],[26.7861,54.7493,174.5639],[26.7766,54.752,173.229],[26.7577,54.752,161.016],[26.7484,54.7465,162.1945],[26.7436,54.7519,160.9771],[26.7385,54.7683,170.624],[26.7291,54.7683,171.8373],[26.7245,54.7628,162.8371],[26.7198,54.7628,163.1165],[26.7054,54.7764,164.367],[26.7007,54.7764,164.1084],[26.696,54.7736,163.5786],[26.6821,54.7599,163.2701],[26.6823,54.7545,163.2611],[26.6776,54.7517,170.7956],[26.6634,54.7544,171.7683],[26.6588,54.7517,174.1213],[26.6497,54.7325,176.8642],[26.6451,54.7271,177.3764],[26.6358,54.7243,181.2234],[26.6122,54.727,169.3553],[26.612,54.7324,175.8855],[26.6025,54.7378,161.7723],[26.5931,54.7378,158.2435],[26.5789,54.7405,169.039],[26.5509,54.724,150.9248],[26.5512,54.7104,150.6255],[26.5608,54.7049,162.6981],[26.58,54.6886,163.6781],[26.5802,54.6777,156.0716],[26.5899,54.6668,156.8383],[26.5949,54.6532,161.3565],[26.6139,54.6424,168.5961],[26.6186,54.6451,164.8804],[26.6232,54.6506,159.5346],[26.6467,54.6507,152.8327],[26.6611,54.6398,152.8658],[26.6799,54.6399,157.6171],[26.6845,54.6453,153.8572],[26.6939,54.6454,153.5672],[26.7035,54.6399,153.7452],[26.7035,54.6372,153.8652],[26.6896,54.629,155.9767],[26.6803,54.6208,156.9997],[26.6807,54.6044,156.0004],[26.6855,54.599,157.5856],[26.6949,54.599,155.1105],[26.7044,54.5963,160.9228],[26.7045,54.5909,170.5987],[26.7092,54.5882,153.4734],[26.7046,54.5827,166.7045],[26.7,54.58,170.8616],[26.6953,54.58,170.3355],[26.6858,54.5854,169.9131],[26.6763,54.5881,162.3659],[26.6671,54.5771,156.1688],[26.6719,54.5744,153.9366],[26.6769,54.5608,159.3279],[26.6817,54.5527,161.4739],[26.6677,54.5499,162.5919],[26.6535,54.5553,189.0379],[26.6392,54.5634,162.852],[26.6297,54.5661,159.8926],[26.6251,54.5606,170.4277],[26.6252,54.5579,166.3209],[26.6394,54.5525,172.8555],[26.6395,54.5498,168.8108],[26.6255,54.5443,169.0726],[26.6255,54.5415,166.4356],[26.6209,54.5361,164.9738],[26.6352,54.5307,173.947],[26.6354,54.5225,161.0132],[26.6402,54.5171,165.6996],[26.6541,54.5253,159.7945],[26.6588,54.5253,159.1029],[26.6589,54.5226,159.0234],[26.6636,54.5199,159.0057],[26.6641,54.4981,157.2434],[26.6689,54.4927,155.7045],[26.6691,54.4818,152.8819],[26.6553,54.4709,153.1091],[26.6367,54.4626,153.1025],[26.6321,54.4571,174.5351],[26.6559,54.4463,160.0926],[26.6608,54.4382,157.688]]]]}}