{"type":"Feature","properties":{"GID_2":"BLR.1.1_1","GID_0":"BLR","country":"Belarus","GID_1":"BLR.1_1","province":"Brest","NL_NAME_1":"Брэсцкая","county":"Baranavichy","VARNAME_2":"Baranovichi","NL_NAME_2":"Баранавіцкіраён","TYPE_2":"Raion","ENGTYPE_2":"District","CC_2":"NA","HASC_2":"BY.BR.BA","name":"Baranavichy.county"},
"geometry":{"type": "MultiPolygon","coordinates": [[[[25.8436,52.8462,157.6479],[25.8647,52.8709,153.6606],[25.8645,52.8736,153.4748],[25.8552,52.8788,154.1031],[25.8588,52.8924,155.9428],[25.8769,52.8928,157.0444],[25.8903,52.8957,168.9166],[25.9121,52.9097,169.6676],[25.9166,52.9098,171.9544],[25.9213,52.9072,172.7183],[25.9215,52.9045,164.965],[25.9262,52.9019,170.5592],[25.9307,52.902,173.4198],[25.93,52.9128,170.5866],[25.925,52.9208,173.3136],[25.9289,52.9317,175.61],[25.9239,52.9397,176.2009],[25.9328,52.9426,178.8041],[25.9509,52.9429,175.0015],[25.9552,52.9457,181.8449],[25.9551,52.9484,178.2218],[25.9505,52.9483,176.6656],[25.9502,52.9537,169.039],[25.9638,52.954,165.3913],[25.9636,52.9567,171.654],[25.9727,52.9569,165.4305],[25.9735,52.9434,162.3974],[25.983,52.9355,185.6764],[26.0011,52.9359,169.4148],[26.0145,52.9389,164.731],[26.0189,52.9416,165.1964],[26.0183,52.9524,169.3549],[25.9905,52.9627,166.4],[25.9945,52.9709,166.0063],[26.0033,52.9765,168.6436],[26.0078,52.9765,165.7225],[26.0125,52.9739,176.933],[26.0175,52.9659,186.9627],[26.0268,52.9607,172.7373],[26.0356,52.9663,180.4596],[26.0396,52.9745,182.7621],[26.0393,52.9799,174.1813],[26.0435,52.9854,172.8068],[26.0567,52.9938,181.0272],[26.0884,52.9944,190.523],[26.0973,52.9973,191.4133],[26.0971,53.0,188.6166],[26.0924,53.0026,181.5698],[26.0879,53.0025,181.4927],[26.0832,53.0051,184.0052],[26.0831,53.0078,189.0422],[26.1007,53.0163,183.1999],[26.1139,53.0247,180.4249],[26.1177,53.0383,177.9224],[26.1171,53.0491,176.9809],[26.1213,53.0546,171.4568],[26.1166,53.0572,173.4066],[26.1165,53.0599,175.8611],[26.1252,53.0655,173.72],[26.1343,53.0657,180.398],[26.134,53.0711,179.92],[26.1292,53.0764,174.5954],[26.1246,53.0763,175.8848],[26.1199,53.0789,175.6273],[26.1198,53.0816,176.224],[26.1239,53.0898,180.8455],[26.1225,53.1141,207.6167],[26.1044,53.1138,199.8698],[26.0997,53.1164,188.9688],[26.0994,53.1218,186.7918],[26.1175,53.1221,192.6503],[26.1265,53.125,202.2029],[26.1262,53.1304,180.25],[26.1213,53.1357,184.4395],[26.1257,53.1385,181.8276],[26.153,53.1391,179.6492],[26.1573,53.1446,179.3482],[26.18,53.1451,177.5545],[26.1844,53.1479,180.0721],[26.1834,53.1668,181.3151],[26.1922,53.1724,181.5921],[26.2104,53.1727,187.4922],[26.2196,53.1702,188.0109],[26.2289,53.165,186.1742],[26.2424,53.168,184.5249],[26.2651,53.1684,185.5949],[26.2744,53.1632,184.7834],[26.2746,53.1577,184.5563],[26.2703,53.155,184.0486],[26.2705,53.1495,181.6939],[26.2797,53.147,182.7661],[26.2842,53.1471,184.063],[26.302,53.1528,182.101],[26.3061,53.161,189.3573],[26.3105,53.1638,196.0414],[26.3329,53.1669,196.8686],[26.3416,53.1725,197.7084],[26.332,53.1859,191.8091],[26.3135,53.1964,198.6484],[26.2864,53.1959,205.3086],[26.2771,53.2011,202.3299],[26.2722,53.2091,198.023],[26.272,53.2118,196.6744],[26.2763,53.2173,200.0826],[26.3076,53.2261,179.3711],[26.3069,53.2423,187.1389],[26.3113,53.2451,174.5051],[26.3249,53.2453,181.906],[26.3382,53.251,192.9126],[26.3425,53.2565,193.9122],[26.342,53.2673,197.9543],[26.3464,53.2701,196.6403],[26.3778,53.2706,199.453],[26.3909,53.2762,199.6862],[26.3897,53.306,185.7263],[26.398,53.3223,188.3541],[26.3978,53.3277,187.7775],[26.3932,53.3304,187.0116],[26.3843,53.3303,186.7762],[26.3707,53.3356,167.4148],[26.375,53.341,155.7903],[26.3744,53.3546,180.1229],[26.3697,53.3627,178.1236],[26.3694,53.3681,179.4407],[26.3646,53.3735,153.1068],[26.3555,53.3706,151.0942],[26.3464,53.3704,148.3458],[26.3101,53.3643,162.4195],[26.3005,53.3723,150.555],[26.2912,53.3748,153.8796],[26.2592,53.3742,178.2224],[26.2269,53.379,198.623],[26.2041,53.3758,206.6128],[26.1674,53.3778,181.5931],[26.1258,53.3823,206.3582],[26.1121,53.382,229.4187],[26.0899,53.3707,212.8695],[26.0853,53.3706,188.1074],[26.0848,53.3787,204.9537],[26.0892,53.3816,199.8621],[26.0935,53.3871,227.1246],[26.0886,53.3924,232.9351],[26.084,53.3923,217.9965],[26.0752,53.3867,206.1945],[26.0666,53.3756,212.6009],[26.0622,53.3728,206.1305],[26.0483,53.3752,229.5872],[26.0348,53.3722,241.8307],[26.0209,53.3746,226.2811],[26.0202,53.3855,239.9136],[26.0155,53.3881,226.1235],[26.0063,53.3879,223.0378],[25.9883,53.382,221.5202],[25.979,53.3845,228.172],[25.9695,53.3897,248.8027],[25.9466,53.3892,243.2959],[25.9185,53.3967,273.5479],[25.9138,53.3993,251.3543],[25.9134,53.4047,246.9162],[25.9039,53.4099,234.5596],[25.8946,53.4124,244.5702],[25.8856,53.4095,221.8421],[25.8547,53.3898,226.7393],[25.8457,53.3869,217.9877],[25.836,53.3948,213.1343],[25.8358,53.3975,209.4281],[25.8221,53.3971,214.293],[25.7995,53.3912,234.9137],[25.8001,53.383,225.4772],[25.7863,53.3827,205.2941],[25.7859,53.3881,214.6802],[25.7812,53.3907,208.5122],[25.7583,53.3901,219.03],[25.7487,53.3953,220.8411],[25.7482,53.4034,212.9956],[25.7388,53.4059,229.7469],[25.7204,53.4055,241.2251],[25.7117,53.3998,216.9509],[25.7025,53.3996,220.7532],[25.6937,53.394,228.1096],[25.6941,53.3886,237.4042],[25.6897,53.3857,220.6503],[25.6805,53.3855,239.8799],[25.6769,53.3719,230.0744],[25.6633,53.3688,215.0719],[25.659,53.366,213.0856],[25.6548,53.3605,226.1974],[25.6557,53.347,225.7242],[25.6607,53.3417,213.8188],[25.6573,53.3254,188.629],[25.6527,53.3253,192.3419],[25.6443,53.3143,176.1768],[25.6445,53.3116,183.0435],[25.6496,53.3036,200.1398],[25.6454,53.2981,231.2284],[25.6367,53.2925,230.8433],[25.6275,53.2922,210.8931],[25.6178,53.3001,209.0916],[25.6043,53.2971,210.1881],[25.6049,53.289,221.2892],[25.619,53.2839,224.7837],[25.6194,53.2785,210.4794],[25.6152,53.273,208.3698],[25.6106,53.2729,191.7249],[25.6062,53.2701,207.3614],[25.6066,53.2647,227.5538],[25.6023,53.2619,225.024],[25.6024,53.2592,222.4968],[25.5985,53.251,214.639],[25.5988,53.2456,212.9513],[25.5947,53.2401,212.5991],[25.5956,53.2266,221.2577],[25.6007,53.2186,208.9846],[25.5873,53.2156,210.4985],[25.5829,53.2128,205.4221],[25.5833,53.2074,201.8773],[25.5791,53.2019,186.827],[25.5746,53.2018,167.8688],[25.5702,53.199,173.8926],[25.5708,53.1909,211.0223],[25.5757,53.1856,206.9108],[25.5848,53.1858,201.7818],[25.5987,53.1835,212.3694],[25.6127,53.1784,209.4282],[25.6129,53.1757,204.5938],[25.6089,53.1675,202.3327],[25.6102,53.1486,204.2151],[25.6152,53.1434,198.6688],[25.6163,53.1272,200.2185],[25.6034,53.1161,200.8987],[25.5992,53.1106,190.4104],[25.6002,53.0971,202.9513],[25.6055,53.0864,192.9502],[25.6015,53.0782,193.8055],[25.5928,53.0726,205.4667],[25.5932,53.0673,203.4141],[25.589,53.0618,205.5846],[25.5846,53.059,206.5502],[25.5708,53.0613,208.0199],[25.5574,53.0583,188.4179],[25.5402,53.0444,195.0586],[25.5319,53.0334,195.1239],[25.5232,53.0278,194.3878],[25.4608,53.0129,144.4592],[25.4527,52.9992,147.2753],[25.4531,52.9938,165.4327],[25.4487,52.991,161.6138],[25.4537,52.9857,148.9941],[25.4538,52.983,157.8913],[25.4586,52.9805,173.5711],[25.4812,52.981,142.3517],[25.4946,52.984,136.5065],[25.518,52.9738,137.5155],[25.5316,52.9741,137.8566],[25.5456,52.9691,138.1177],[25.5637,52.9695,138.9289],[25.5778,52.9617,154.0321],[25.5869,52.9619,142.9126],[25.6099,52.9571,151.9823],[25.6103,52.9517,188.0354],[25.6061,52.9462,143.522],[25.6157,52.9383,153.3033],[25.6161,52.9329,142.1798],[25.6302,52.9252,173.1607],[25.653,52.923,197.7071],[25.6767,52.9073,193.1615],[25.6816,52.902,195.9509],[25.6952,52.9023,199.1399],[25.6999,52.8997,193.5163],[25.7006,52.889,192.37],[25.7142,52.8893,190.0442],[25.7319,52.895,194.4226],[25.7364,52.8951,196.7881],[25.7366,52.8924,197.1082],[25.7324,52.887,185.8091],[25.7326,52.8843,183.2666],[25.7462,52.8846,169.3618],[25.7641,52.8876,164.2757],[25.7733,52.8852,161.3849],[25.7827,52.88,158.0194],[25.7922,52.8721,165.1269],[25.8294,52.8567,153.6857],[25.8299,52.8486,151.3683],[25.8348,52.8433,151.3999],[25.8393,52.8434,151.8562],[25.8436,52.8462,157.6479]]]]}}