{"type":"Feature","properties":{"GID_2":"BLR.2.13_1","GID_0":"BLR","country":"Belarus","GID_1":"BLR.2_1","province":"Gomel","NL_NAME_1":"Гомельская","county":"Naroulya","VARNAME_2":"Narovlya","NL_NAME_2":"Нараўлянскіраён","TYPE_2":"Raion","ENGTYPE_2":"District","CC_2":"NA","HASC_2":"BY.HO.NA","name":"Naroulya.county"},
"geometry":{"type": "MultiPolygon","coordinates": [[[[29.5914,51.7929,112.5034],[29.5739,51.796,112.0686],[29.5694,51.7934,114.0854],[29.5606,51.7935,112.0131],[29.5345,51.7994,111.8766],[29.5263,51.813,112.765],[29.5267,51.8238,113.7379],[29.5182,51.8294,114.2775],[29.5048,51.8242,113.5252],[29.5045,51.8188,113.9006],[29.5,51.8162,114.3139],[29.4959,51.8217,112.5278],[29.4919,51.8326,113.3369],[29.5008,51.8351,114.3471],[29.501,51.8405,117.263],[29.4967,51.8433,114.6141],[29.4925,51.8488,114.4017],[29.488,51.8461,113.6636],[29.4703,51.8411,138.5743],[29.4617,51.8466,140.5471],[29.4709,51.8573,112.6915],[29.4754,51.8599,113.0785],[29.4711,51.8627,113.9976],[29.3831,51.8643,162.4062],[29.3741,51.8563,160.7024],[29.3517,51.8459,148.0182],[29.3469,51.8351,154.3869],[29.3425,51.8325,160.0799],[29.3336,51.8299,147.3238],[29.2984,51.8305,151.6577],[29.2895,51.8252,163.3644],[29.2891,51.8144,155.8795],[29.2803,51.8146,153.6765],[29.2801,51.8091,143.1078],[29.2933,51.8089,142.9697],[29.3019,51.8034,146.7339],[29.3014,51.7898,145.4153],[29.2971,51.7926,143.0538],[29.2839,51.7901,140.8741],[29.2749,51.7848,144.9572],[29.2746,51.7767,133.2392],[29.27,51.7714,123.3247],[29.2614,51.7742,149.7543],[29.2569,51.7716,128.1284],[29.2609,51.7607,138.341],[29.2519,51.7554,137.1987],[29.2427,51.7447,136.3156],[29.2513,51.7392,136.5326],[29.2468,51.7365,135.3215],[29.2206,51.7396,135.7986],[29.1896,51.7292,156.5447],[29.1938,51.7237,150.6649],[29.1932,51.7074,152.1689],[29.1975,51.7047,149.1373],[29.1843,51.7048,148.2183],[29.1841,51.6994,137.5541],[29.1884,51.6966,140.8429],[29.1883,51.6939,141.1202],[29.1969,51.6911,131.5635],[29.1963,51.6749,139.4449],[29.2047,51.6666,134.0278],[29.2042,51.6558,121.4646],[29.1737,51.6561,138.3239],[29.1607,51.659,137.018],[29.1562,51.6563,131.3423],[29.156,51.6518,127.8251],[29.1601,51.6507,126.1471],[29.1697,51.6386,136.814],[29.1791,51.6325,135.6428],[29.1792,51.6259,127.0366],[29.1888,51.6133,127.8577],[29.2077,51.5946,125.0842],[29.2172,51.5885,126.0],[29.2169,51.577,129.7197],[29.2456,51.5575,145.7547],[29.2648,51.5505,152.9268],[29.2629,51.523,148.9086],[29.2406,51.5072,163.0329],[29.2417,51.497,152.9138],[29.2634,51.481,170.6336],[29.2643,51.4757,162.8181],[29.2855,51.465,160.9997],[29.2956,51.4646,174.7229],[29.306,51.4593,168.558],[29.3169,51.4491,160.9498],[29.3245,51.402,154.5296],[29.3345,51.3967,167.5856],[29.3621,51.3964,173.6182],[29.3868,51.4192,164.4974],[29.3951,51.4247,181.0997],[29.4128,51.4303,172.5391],[29.4505,51.4303,157.8158],[29.4616,51.4187,174.911],[29.4806,51.4127,160.729],[29.5084,51.4124,163.4767],[29.5079,51.4182,161.7953],[29.5167,51.424,154.5757],[29.5247,51.4354,164.8138],[29.5202,51.4586,168.5214],[29.5284,51.4643,170.3943],[29.5227,51.493,150.6702],[29.5315,51.4983,156.7976],[29.5408,51.4985,144.0829],[29.5535,51.4813,147.8876],[29.5642,51.4754,162.1802],[29.5929,51.475,156.0289],[29.6014,51.4806,147.5734],[29.6081,51.4976,150.1441],[29.6171,51.503,150.2601],[29.6556,51.5024,152.6465],[29.702,51.5237,127.769],[29.7114,51.5237,128.6708],[29.7209,51.529,128.7041],[29.7302,51.5291,130.6179],[29.7305,51.5234,127.781],[29.7404,51.5178,132.4655],[29.7424,51.501,127.9279],[29.7525,51.4953,128.8627],[29.7531,51.4897,139.466],[29.7439,51.4843,135.7022],[29.7445,51.4787,134.6007],[29.7759,51.4501,135.3934],[29.7853,51.4443,139.1434],[29.7945,51.4442,139.2657],[29.8037,51.4498,140.112],[29.7943,51.4612,125.6736],[29.8126,51.4611,121.5387],[29.8128,51.4554,133.366],[29.8402,51.4552,121.4039],[29.8497,51.4494,124.2513],[29.8773,51.4492,126.6909],[29.886,51.4549,127.7522],[29.8812,51.4786,117.3684],[29.889,51.4844,114.5221],[29.9164,51.4843,131.5441],[29.9351,51.4898,112.5169],[29.9509,51.4807,108.6546],[29.9613,51.4929,103.5],[29.9617,51.4981,106.6317],[29.9492,51.5066,106.8984],[29.9404,51.5069,107.57],[29.9266,51.4995,109.0556],[29.9179,51.4998,109.0653],[29.8888,51.519,106.1275],[29.8809,51.5297,105.0],[29.8768,51.5324,106.7136],[29.8722,51.5299,109.656],[29.8679,51.53,108.8339],[29.8513,51.5409,108.6446],[29.8354,51.5596,107.9268],[29.8231,51.5704,106.0],[29.8233,51.573,106.8417],[29.8369,51.5805,109.1289],[29.8286,51.5859,109.7407],[29.8031,51.5944,109.5036],[29.8033,51.597,109.9885],[29.7949,51.6025,110.7592],[29.7864,51.6053,111.0678],[29.7734,51.6055,110.2564],[29.765,51.611,110.464],[29.7656,51.618899999999996,110.4674],[29.7706,51.6293,110.3729],[29.7664,51.6321,111.8306],[29.7575,51.6296,109.6791],[29.7445,51.6299,111.6263],[29.7359,51.6327,112.5078],[29.7106,51.6464,123.3727],[29.6983,51.6599,113.8053],[29.6944,51.6679,113.6799],[29.6913,51.6892,110.8525],[29.6749,51.7082,109.9016],[29.6752,51.7135,112.7633],[29.6932,51.7239,112.6114],[29.702,51.7237,112.9433],[29.7065,51.7263,112.5839],[29.7068,51.7317,112.2823],[29.7025,51.7344,112.5696],[29.6896,51.7373,111.0911],[29.6813,51.7455,111.5907],[29.6817,51.7536,112.1698],[29.6774,51.7563,111.3994],[29.6687,51.7565,111.3921],[29.6551,51.7487,111.8282],[29.6508,51.7488,112.387],[29.6381,51.7598,113.4617],[29.6338,51.7598,111.8796],[29.6115,51.7522,111.2221],[29.5896,51.7526,112.6565],[29.5768,51.7609,115.3815],[29.5953,51.7821,113.9087],[29.5955,51.7875,112.704],[29.5914,51.7929,112.5034]]]]}}