{"type": "Feature","bbox": [24.337,53.4252,25.086,54.0199],"geometry": {"type": "MultiPolygon","coordinates": [[[[25.0817,53.5308,113.4051],[25.086,53.5336,121.9619],[25.0856,53.539,133.3655],[25.076,53.5441,130.8645],[25.074,53.5683,150.5298],[25.0827,53.574,154.4818],[25.0731,53.5791,151.4018],[25.0681,53.5844,125.1716],[25.0677,53.5898,126.6597],[25.0627,53.595,121.6086],[25.0625,53.5977,128.4195],[25.0533,53.5974,119.3988],[25.0485,53.6,118.9316],[25.0479,53.6081,121.6649],[25.0522,53.6109,119.7247],[25.052,53.6136,119.7726],[25.0473,53.6162,120.9689],[25.0471,53.618899999999996,120.4364],[25.0244,53.6155,122.2018],[24.9925,53.6145,125.8917],[24.9782,53.6222,127.9918],[24.9778,53.6276,130.2456],[24.9866,53.6333,129.303],[24.986,53.6414,129.0767],[24.9812,53.6439,133.2232],[24.981,53.6466,133.2629],[24.9852,53.6522,131.4741],[25.0307,53.6536,130.6261],[25.0351,53.6564,142.8069],[25.03,53.6644,135.8756],[25.0298,53.6671,134.3322],[25.0341,53.6699,132.5802],[25.0656,53.6763,126.2605],[25.0652,53.6817,123.3624],[25.0518,53.6786,125.3241],[25.0421,53.6864,124.1883],[25.033,53.6862,123.4193],[25.0236,53.6913,125.1628],[25.0136,53.7046,125.2586],[25.0134,53.7073,125.1363],[25.0043,53.707,139.5582],[24.9999,53.7041,140.2912],[24.9909,53.7039,140.73],[24.9861,53.7064,139.0149],[24.9725,53.706,143.3464],[24.9681,53.7032,142.3585],[24.9685,53.6977,138.7157],[24.9594,53.6975,144.2202],[24.936,53.7076,145.0928],[24.9356,53.713,147.5099],[24.9402,53.7131,143.035],[24.9622,53.7247,151.8298],[24.9619,53.7301,151.0052],[24.9471,53.7486,142.5589],[24.9378,53.7511,136.4594],[24.9377,53.7538,132.5823],[24.9466,53.7568,140.2629],[24.9557,53.7571,128.6569],[24.9553,53.7625,128.0741],[24.9506,53.7651,128.096],[24.9321,53.7699,137.2286],[24.9316,53.7781,129.2081],[24.936,53.7809,129.3314],[24.9451,53.7812,136.7285],[24.9449,53.7839,139.2875],[24.9493,53.7868,156.7264],[24.949,53.7922,136.391],[24.9575,53.8034,144.0788],[24.9619,53.8062,146.2844],[24.9615,53.8117,141.3158],[24.9479,53.8113,149.1072],[24.9335,53.8245,154.6081],[24.9242,53.8269,155.6314],[24.9192,53.835,152.1545],[24.9059,53.8291,161.7456],[24.8923,53.826,155.5067],[24.8793,53.8147,138.6477],[24.8658,53.8115,151.2396],[24.8652,53.8224,143.6046],[24.8469,53.8219,145.3885],[24.8376,53.8244,149.46],[24.8373,53.8298,154.4359],[24.8235,53.8322,160.9535],[24.7961,53.8314,153.0102],[24.7679,53.8443,164.9027],[24.7677,53.847,166.322],[24.7721,53.8499,153.4618],[24.7947,53.856,154.237],[24.7989,53.8617,149.2702],[24.7988,53.8644,152.2971],[24.7937,53.8725,147.3911],[24.775,53.8803,149.0663],[24.7567,53.8798,149.227],[24.7428,53.8822,156.6707],[24.7336,53.882,156.9824],[24.7197,53.8844,155.5403],[24.715,53.887,153.9396],[24.7097,53.898,159.1454],[24.7086,53.9175,159.3944],[24.7174,53.9233,147.555],[24.7266,53.9235,148.1081],[24.7357,53.9265,140.2556],[24.7496,53.924,147.226],[24.754,53.9269,152.4173],[24.7536,53.9353,153.3969],[24.7577,53.9437,146.4671],[24.7708,53.9552,141.5157],[24.7704,53.9635,136.3335],[24.7656,53.9662,135.9166],[24.7606,53.9717,146.2758],[24.7514,53.9715,135.974],[24.7517,53.9659,131.8102],[24.7473,53.963,133.876],[24.7332,53.9655,133.3378],[24.7149,53.9623,136.3925],[24.7011,53.962,152.2487],[24.6963,53.9646,143.5632],[24.7051,53.9704,140.1544],[24.704,53.9871,131.6316],[24.7129,53.9929,128.7191],[24.7125,53.9985,127.5795],[24.7214,54.0043,130.5827],[24.7212,54.007,129.0109],[24.7166,54.0069,128.9876],[24.7117,54.0096,128.3241],[24.7115,54.0122,128.3369],[24.6995,54.0199,127.2415],[24.6951,54.0198,127.4691],[24.6947,54.0171,129.317],[24.6862,54.0168,134.4805],[24.6813,54.0113,134.4595],[24.6723,54.0055,131.8398],[24.6463,54.0047,147.1414],[24.6425,54.01,133.7932],[24.6422,54.0073,139.4036],[24.6292,54.0068,141.8558],[24.6245,54.0039,133.5451],[24.6243,54.0012,130.9507],[24.6285,53.9986,131.1508],[24.6197,53.9983,136.6122],[24.6194,53.9928,148.2697],[24.6148,53.9899,152.929],[24.6016,53.9894,148.5633],[24.6015,53.9867,148.9245],[24.597,53.9865,150.1745],[24.5969,53.9838,150.802],[24.5925,53.9836,142.1993],[24.5926,53.9864,145.4127],[24.5791,53.9804,147.6691],[24.579,53.9776,147.8944],[24.5744,53.9747,145.4872],[24.57,53.9746,145.3982],[24.5563,53.9658,136.6746],[24.5519,53.9656,145.3226],[24.5473,53.9627,147.3004],[24.5473,53.96,143.614],[24.5383,53.9596,146.0995],[24.5202,53.9452,149.1277],[24.5202,53.9425,148.109],[24.5067,53.9365,141.3252],[24.5067,53.9337,145.0589],[24.5022,53.9336,147.6926],[24.5022,53.9308,148.6653],[24.4977,53.9306,147.3401],[24.4977,53.9279,147.6742],[24.4886,53.9276,142.4385],[24.4887,53.9248,145.3977],[24.4842,53.9192,135.5891],[24.4797,53.919,140.5131],[24.4707,53.9132,143.9598],[24.4709,53.905,141.4126],[24.4756,53.9024,147.4389],[24.4804,53.8971,136.9613],[24.476,53.8914,143.7708],[24.4444,53.882,144.4835],[24.4265,53.8732,140.8627],[24.4129,53.8699,125.4438],[24.3813,53.8578,118.0],[24.3724,53.852,137.2301],[24.3678,53.8518,130.4686],[24.3412,53.8344,139.8474],[24.337,53.8288,135.9064],[24.3371,53.8261,133.4743],[24.3564,53.8132,132.9539],[24.3566,53.8104,148.3701],[24.3526,53.8021,143.6618],[24.353,53.7967,147.3507],[24.3578,53.7941,129.7171],[24.367,53.7945,120.026],[24.385,53.8006,142.4855],[24.384,53.8142,140.2211],[24.3932,53.8146,118.6392],[24.4026,53.8122,147.6673],[24.4076,53.8069,133.6493],[24.408,53.8015,139.3195],[24.3994,53.793,139.0852],[24.3906,53.7872,142.3808],[24.3913,53.7763,125.9872],[24.4165,53.743899999999996,130.5304],[24.4211,53.744,116.0],[24.4261,53.7386,140.2824],[24.4306,53.7387,139.0046],[24.4218,53.7329,148.5316],[24.4039,53.727,151.7668],[24.3731,53.7068,119.6956],[24.3688,53.7012,115.452],[24.3784,53.6959,135.1786],[24.3789,53.6876,134.0003],[24.3655,53.6818,126.5708],[24.3657,53.679,133.3079],[24.3886,53.6796,141.1456],[24.4021,53.6827,130.9906],[24.4069,53.6801,130.1078],[24.407,53.6773,132.0289],[24.3986,53.6661,129.1464],[24.4001,53.6441,140.5285],[24.3957,53.6412,150.4663],[24.3914,53.6356,150.4098],[24.3924,53.622,126.6948],[24.3658,53.6075,141.2437],[24.366,53.6047,117.4991],[24.4139,53.5762,121.0347],[24.4287,53.5631,124.7242],[24.4199,53.5574,120.4679],[24.4207,53.5465,119.6509],[24.4256,53.5412,119.2168],[24.431,53.5306,116.6581],[24.454,53.5314,135.4118],[24.4587,53.5288,137.0483],[24.4725,53.5293,137.0909],[24.4819,53.527,128.895],[24.4823,53.5216,127.8359],[24.4735,53.5158,115.9249],[24.4653,53.502,130.5668],[24.4655,53.4993,135.0012],[24.4703,53.4967,121.4953],[24.4884,53.5001,117.5524],[24.5024,53.4979,116.265],[24.5167,53.4903,119.6492],[24.5261,53.488,127.0467],[24.5348,53.4937,133.7368],[24.5394,53.493899999999996,127.658],[24.5444,53.4886,117.4323],[24.554,53.4836,133.4053],[24.5723,53.4842,118.9442],[24.5766,53.4871,119.9518],[24.5717,53.4923,121.6826],[24.5623,53.4947,127.1999],[24.5573,53.4999,136.8419],[24.5571,53.5026,121.3907],[24.5665,53.5002,120.111],[24.5659,53.5083,122.0143],[24.5565,53.5107,122.7868],[24.5516,53.5159,124.1369],[24.5649,53.5218,125.0017],[24.584,53.5117,121.2002],[24.5842,53.509,125.3948],[24.5886,53.5119,119.1521],[24.5884,53.5146,119.9153],[24.5832,53.5225,121.5984],[24.5876,53.5253,121.4764],[24.6015,53.5231,127.1874],[24.6106,53.5235,130.6158],[24.6283,53.5322,140.316],[24.6331,53.5297,139.8582],[24.6337,53.5216,137.5897],[24.6432,53.5165,136.3066],[24.6482,53.5113,132.8294],[24.6666,53.5092,135.126],[24.6714,53.5067,133.5916],[24.6718,53.5013,132.7123],[24.6813,53.4963,126.2226],[24.6855,53.5018,130.1554],[24.69,53.502,131.8794],[24.7089,53.4945,121.7418],[24.7093,53.4892,118.0426],[24.7051,53.4836,117.7905],[24.692,53.4751,117.4741],[24.7061,53.4702,124.623],[24.7335,53.4711,112.9456],[24.7526,53.4609,113.304],[24.7541,53.4421,115.4713],[24.7637,53.437,127.6023],[24.7689,53.4291,116.1138],[24.778199999999998,53.4267,129.047],[24.792,53.4272,115.057],[24.8005,53.4355,129.9117],[24.8096,53.4358,116.3668],[24.8144,53.4333,123.3094],[24.8151,53.4252,134.5671],[24.8242,53.4255,133.6236],[24.824,53.4282,137.0399],[24.8284,53.4311,121.3387],[24.8279,53.4364,126.3727],[24.832,53.442,127.8891],[24.8595,53.4429,119.4787],[24.8726,53.4514,125.1504],[24.8719,53.4594,127.7485],[24.8763,53.4623,115.7688],[24.9085,53.4606,123.0042],[24.9083,53.4633,124.905],[24.9127,53.4661,111.9384],[24.9168,53.4717,112.8385],[24.9305,53.4721,111.965],[24.9349,53.4749,113.9543],[24.9344,53.4803,114.8348],[24.939,53.4804,112.6711],[24.9569,53.4864,116.6289],[24.9612,53.4892,131.5093],[24.9704,53.4895,118.392],[24.9756,53.4816,126.6167],[24.9992,53.4743,114.9626],[24.9994,53.4716,115.5976],[25.0182,53.4668,116.9131],[25.0178,53.4721,136.9662],[25.0127,53.4774,136.7064],[25.0072,53.488,126.4182],[25.0159,53.4937,134.4563],[25.0153,53.5017,133.4467],[25.024,53.5074,137.243],[25.0235,53.5128,135.9128],[25.0141,53.5152,120.7218],[25.0185,53.518,118.574],[25.0226,53.5235,120.5784],[25.0361,53.5267,121.3875],[25.0455,53.5243,130.9083],[25.0684,53.525,124.0837],[25.0817,53.5308,113.4051]]]]}
,"properties": {"GID_2": "BLR.3.12_1","GID_0": "BLR","country": "Belarus","GID_1": "BLR.3_1","province": "Grodno","NL_NAME_1": "Гродзенская","county": "Shchuchyn","VARNAME_2": "Shchuchin","NL_NAME_2": "Шчучынскіраён","TYPE_2": "Raion","ENGTYPE_2": "District","CC_2": "NA","HASC_2": "BY.HR.SC","name": "Shchuchyn.county","area_km2": 1870.193,"hist_schema_id": "Elevation0-9000","hist_area_km2": {"100": 12.62,"125": 511.214,"150": 955.641,"175": 336.068,"200": 54.412,"225": 0.239}}}