{"type": "Feature","bbox": [27.8963,53.552,28.8548,53.9911],"geometry": {"type": "MultiPolygon","coordinates": [[[[28.5262,53.983,167.9866],[28.5167,53.9668,191.0841],[28.5074,53.9614,185.5625],[28.498,53.9587,182.1396],[28.4933,53.9533,181.2488],[28.4933,53.9506,178.8221],[28.4979,53.9451,176.3613],[28.5025,53.9423,175.1364],[28.5118,53.9422,177.0001],[28.5257,53.9367,193.2458],[28.5256,53.9285,179.7137],[28.5068,53.9096,193.6549],[28.4974,53.9042,185.6828],[28.4834,53.9015,196.2194],[28.4508,53.9018,192.7859],[28.4415,53.9046,189.5115],[28.4182,53.9047,183.0631],[28.3996,53.9076,181.1639],[28.3904,53.9131,188.2522],[28.3857,53.9131,185.8392],[28.381,53.9104,195.239],[28.3717,53.9105,187.868],[28.3625,53.9214,192.9312],[28.3625,53.9242,191.7431],[28.3578,53.9269,190.1749],[28.3345,53.9271,192.3093],[28.3345,53.9216,190.7699],[28.3251,53.9162,182.7812],[28.3112,53.919,187.6438],[28.2971,53.9109,190.8856],[28.2971,53.9082,184.3736],[28.2737,53.9002,186.6415],[28.2598,53.8975,185.0351],[28.2551,53.8948,195.522],[28.2504,53.8894,216.6871],[28.241,53.8731,217.2738],[28.2363,53.8704,216.4832],[28.2363,53.8732,222.9236],[28.2317,53.8786,223.4024],[28.2131,53.8896,224.0195],[28.2038,53.8979,208.9145],[28.1992,53.8979,197.9235],[28.1945,53.8952,197.6405],[28.1945,53.8897,212.9607],[28.1898,53.8789,212.942],[28.1897,53.8625,220.7332],[28.185,53.8598,219.8985],[28.171,53.8572,217.6497],[28.1664,53.8545,205.6043],[28.1662,53.8218,185.8834],[28.1615,53.8164,193.2925],[28.1615,53.8109,193.089],[28.1708,53.8054,192.9301],[28.1754,53.7972,191.2107],[28.1753,53.7809,192.9462],[28.1707,53.7809,192.1316],[28.166,53.7782,182.1471],[28.1614,53.781,187.872],[28.1474,53.7811,195.2101],[28.1288,53.7594,193.6404],[28.1195,53.7594,202.7202],[28.1148,53.7649,205.2252],[28.1055,53.7677,194.4502],[28.0962,53.7677,195.7524],[28.0916,53.7705,186.9031],[28.0777,53.7706,198.6344],[28.0637,53.7652,199.5028],[28.0637,53.7679,192.6862],[28.0684,53.7733,197.5052],[28.0684,53.776,197.4982],[28.0591,53.7761,196.8323],[28.0544,53.7788,189.022],[28.0498,53.7789,191.8044],[28.0405,53.7735,192.3631],[28.0358,53.7762,181.433],[28.0358,53.7789,182.019],[28.0312,53.779,179.2986],[28.0312,53.7817,181.0634],[28.0451,53.7871,183.1766],[28.0358,53.7925,175.0407],[28.0172,53.7926,174.2979],[28.0173,53.8117,178.7505],[28.0079,53.8117,180.2845],[28.0033,53.8145,178.9614],[27.994,53.8145,178.5594],[27.9986,53.8009,176.8157],[28.0033,53.7927,175.8206],[27.994,53.79,183.3207],[27.9754,53.7956,172.085],[27.9614,53.7766,172.5659],[27.9521,53.7712,174.0453],[27.9149,53.7632,187.4806],[27.9056,53.7632,178.4359],[27.8963,53.7524,176.404],[27.9056,53.7387,173.0281],[27.9195,53.7332,170.8658],[27.9149,53.7305,172.0614],[27.9149,53.7278,172.827],[27.9242,53.725,171.9252],[27.9381,53.725,194.8828],[27.9428,53.7277,195.4641],[27.9474,53.7276,196.4758],[27.9707,53.7221,176.7824],[27.966,53.7167,176.0741],[27.966,53.714,175.3569],[27.9799,53.7139,172.2706],[27.9939,53.7111,175.7481],[27.9985,53.7083,178.9095],[27.9939,53.7056,172.3186],[27.9939,53.7029,174.597],[27.9985,53.7029,175.233],[28.0032,53.7002,177.1818],[27.9939,53.6948,181.0048],[27.9985,53.692,184.7725],[28.0264,53.6919,176.1353],[28.0356,53.6864,174.6007],[28.0449,53.6836,184.2672],[28.0449,53.6537,178.003],[28.0402,53.651,175.3576],[28.0402,53.6455,163.3944],[28.0495,53.64,170.7416],[28.0541,53.64,169.9561],[28.0727,53.6481,184.1558],[28.082,53.648,187.4385],[28.0912,53.6452,168.8158],[28.1144,53.6451,163.7404],[28.133,53.6505,182.3096],[28.1562,53.6394,164.6825],[28.1608,53.6421,169.5902],[28.1562,53.6476,164.6011],[28.1562,53.653,181.429],[28.1609,53.6557,171.8465],[28.1701,53.6557,178.5106],[28.1748,53.6529,175.5435],[28.1747,53.6366,177.826],[28.17,53.6312,183.9998],[28.1561,53.6313,184.6298],[28.1515,53.6286,176.5479],[28.1515,53.6231,163.8189],[28.1978,53.6147,173.8022],[28.2117,53.62,173.2364],[28.221,53.62,160.6589],[28.2303,53.6226,162.6801],[28.2257,53.6308,174.2417],[28.2303,53.6335,175.893],[28.2396,53.6335,161.5302],[28.2535,53.6306,177.4255],[28.2581,53.6279,179.8155],[28.2581,53.6252,182.0206],[28.2441,53.6144,161.1286],[28.2488,53.6116,162.4272],[28.2673,53.6088,182.7533],[28.2812,53.6087,158.1821],[28.2858,53.6114,178.0012],[28.2858,53.6141,180.99],[28.2951,53.6168,179.4397],[28.309,53.6167,181.6825],[28.3229,53.6138,184.502],[28.3276,53.6165,172.4169],[28.3323,53.6247,166.1999],[28.3416,53.6328,180.6866],[28.337,53.6355,180.2196],[28.337,53.6383,181.612],[28.3417,53.6437,184.3218],[28.3463,53.6409,178.3508],[28.3462,53.6355,181.5179],[28.3509,53.6327,176.7171],[28.3508,53.63,181.8342],[28.3601,53.6354,168.5749],[28.3648,53.6408,183.7447],[28.3648,53.6435,181.8244],[28.3695,53.6462,179.8931],[28.3741,53.6462,182.3191],[28.3787,53.6434,178.6102],[28.3787,53.6407,179.1876],[28.388,53.6379,173.9191],[28.4018,53.6296,180.6873],[28.4018,53.6269,181.8488],[28.3971,53.6215,163.1684],[28.3971,53.6188,166.6322],[28.4017,53.616,164.1905],[28.4156,53.6186,174.9691],[28.4202,53.6159,173.8391],[28.448,53.613,162.8159],[28.4386,53.6076,169.0692],[28.4247,53.605,167.5354],[28.4154,53.5996,165.9118],[28.42,53.5968,172.3298],[28.4199,53.5887,181.0207],[28.4245,53.5832,176.8486],[28.4338,53.5831,168.7728],[28.4384,53.5858,177.9806],[28.4755,53.5855,159.5737],[28.4801,53.5828,169.3139],[28.4754,53.5773,179.1653],[28.4753,53.5746,172.1652],[28.4985,53.5744,175.2933],[28.5123,53.5716,168.8459],[28.5307,53.5606,165.9966],[28.5353,53.5551,174.0107],[28.5398,53.5523,169.4279],[28.5768,53.552,170.8318],[28.5908,53.5601,163.535],[28.5862,53.5656,167.7202],[28.5909,53.5682,166.9058],[28.5956,53.5737,171.0909],[28.6094,53.5708,178.7514],[28.6187,53.5707,182.3555],[28.6233,53.5734,174.9917],[28.6189,53.5844,173.6679],[28.619,53.5925,173.6539],[28.6284,53.6034,186.8826],[28.6331,53.6115,189.9567],[28.6377,53.6115,182.7929],[28.6515,53.6032,176.1003],[28.6837,53.5947,179.5589],[28.6975,53.5891,186.6203],[28.7021,53.5864,176.5363],[28.7066,53.5782,179.9021],[28.7112,53.5754,183.2756],[28.7759,53.5748,176.5299],[28.7806,53.5775,176.8094],[28.7762,53.5912,182.957],[28.7808,53.5939,182.4798],[28.7947,53.5937,180.4768],[28.8133,53.599,178.8336],[28.8179,53.599,176.3175],[28.8225,53.5962,176.026],[28.8269,53.5853,185.8367],[28.8406,53.577,170.2788],[28.8545,53.5768,180.288],[28.85,53.5823,189.2277],[28.85,53.585,189.418],[28.8548,53.5904,176.8842],[28.8457,53.6014,176.2461],[28.832,53.6097,177.3414],[28.832,53.6125,180.978],[28.8415,53.626,164.2697],[28.837,53.6315,163.337],[28.814,53.6426,164.3722],[28.8095,53.6481,162.2528],[28.7866,53.6619,188.7404],[28.7868,53.6729,183.7227],[28.7777,53.6811,173.6409],[28.7733,53.7002,173.2146],[28.7734,53.7057,166.722],[28.7642,53.7112,167.8019],[28.7412,53.7169,170.2209],[28.732,53.7224,177.0996],[28.7459,53.725,176.4611],[28.7506,53.7277,188.386],[28.7461,53.7332,182.9204],[28.774,53.743899999999996,180.0367],[28.7788,53.7493,185.5974],[28.7742,53.7548,187.3921],[28.7743,53.7602,197.9856],[28.7697,53.763,183.4942],[28.7699,53.7739,191.4261],[28.7561,53.7795,198.8636],[28.7562,53.7849,210.2185],[28.7703,53.7957,188.437],[28.7473,53.8123,210.4534],[28.7334,53.8124,201.6953],[28.7287,53.8097,210.9014],[28.7241,53.8124,206.6468],[28.7241,53.8152,207.0928],[28.7289,53.8233,195.2312],[28.7336,53.8233,200.8097],[28.7382,53.8205,204.0544],[28.7475,53.8259,181.6726],[28.7523,53.8313,176.4525],[28.7523,53.834,174.3374],[28.7477,53.8368,186.7424],[28.7384,53.8369,207.001],[28.7244,53.8315,187.4927],[28.7151,53.8316,199.8192],[28.7105,53.8344,193.8544],[28.7059,53.8399,204.9503],[28.6966,53.8372,210.5816],[28.6967,53.8427,188.4489],[28.6829,53.851,183.246],[28.6829,53.8564,187.0305],[28.697,53.8618,179.0257],[28.7017,53.8672,179.7858],[28.7111,53.8726,171.1754],[28.7391,53.8778,184.4746],[28.7437,53.8805,176.044],[28.7439,53.8914,167.1909],[28.73,53.8915,166.9241],[28.702,53.8863,169.3478],[28.6928,53.8918,169.3508],[28.6975,53.8999,183.3167],[28.6883,53.9055,174.4536],[28.679,53.9083,186.0525],[28.6558,53.9084,183.861],[28.6558,53.9139,178.9095],[28.6653,53.9247,170.7311],[28.6793,53.9246,166.7572],[28.6932,53.9218,185.1712],[28.7166,53.9271,182.6802],[28.7166,53.9298,185.0683],[28.7027,53.9353,166.9308],[28.7028,53.9381,167.6268],[28.7075,53.9408,166.8896],[28.7075,53.9435,164.0206],[28.6843,53.9491,170.5789],[28.6797,53.9519,169.6078],[28.6845,53.9655,182.2841],[28.6753,53.971,180.4989],[28.666,53.9738,178.1702],[28.6567,53.9739,185.4699],[28.6473,53.9712,179.1201],[28.6473,53.9685,181.6473],[28.6426,53.9658,193.9696],[28.6425,53.9576,182.8772],[28.6377,53.9522,186.0875],[28.6237,53.9441,176.5554],[28.6098,53.9497,170.8955],[28.6098,53.9524,182.1612],[28.6146,53.9606,171.3774],[28.6007,53.9689,177.1594],[28.6007,53.9716,176.0829],[28.5961,53.9744,173.6546],[28.5821,53.9745,179.7609],[28.5728,53.9773,177.7457],[28.5636,53.9882,168.3459],[28.5543,53.991,167.0911],[28.5403,53.9911,165.9939],[28.531,53.9885,167.6267],[28.5262,53.983,167.9866]]]]}
,"properties": {"GID_2": "BLR.5.3_1","GID_0": "BLR","country": "Belarus","GID_1": "BLR.5_1","province": "Minsk","NL_NAME_1": "Мінская","county": "Chervyen","VARNAME_2": "Cherven","NL_NAME_2": "Чэрвеньскіраён","TYPE_2": "Raion","ENGTYPE_2": "District","CC_2": "NA","HASC_2": "BY.MI.CH","name": "Chervyen.county","area_km2": 1608.082,"hist_schema_id": "Elevation0-9000","hist_area_km2": {"150": 31.763,"175": 1188.671,"200": 360.867,"225": 26.768,"250": 0.012}}}