{"type":"Feature","properties":{"GID_2":"BLR.1.4_1","GID_0":"BLR","country":"Belarus","GID_1":"BLR.1_1","province":"Brest","NL_NAME_1":"Брэсцкая","county":"Drahichyn","VARNAME_2":"Drogichin","NL_NAME_2":"Драгічынскіраён","TYPE_2":"Raion","ENGTYPE_2":"District","CC_2":"NA","HASC_2":"BY.BR.DG","name":"Drahichyn.county"},
"geometry":{"type": "MultiPolygon","coordinates": [[[[24.8415,52.3837,162.7664],[24.8236,52.3833,149.9727],[24.7968,52.38,167.1939],[24.7881,52.3771,166.9194],[24.7568,52.3736,151.157],[24.7528,52.3682,150.302],[24.7722,52.3528,164.5981],[24.7729,52.3448,160.5693],[24.7689,52.3394,163.1407],[24.7699,52.3288,148.763],[24.7888,52.3186,148.9767],[24.789,52.3159,149.3044],[24.7598,52.2913,148.0944],[24.769,52.2889,146.2367],[24.7959,52.2895,161.4349],[24.814,52.2873,149.8802],[24.7926,52.2762,146.7505],[24.7886,52.2707,163.7069],[24.7761,52.2598,160.7159],[24.7763,52.2572,146.7495],[24.7855,52.2547,148.0555],[24.786,52.2494,146.5146],[24.7773,52.2466,145.7401],[24.7777,52.2413,145.7066],[24.757,52.2223,154.4093],[24.7575,52.217,158.924],[24.7672,52.2092,149.8181],[24.7811,52.2042,149.4331],[24.786,52.199,148.7041],[24.7862,52.1963,148.2987],[24.7651,52.1826,147.7164],[24.7521,52.1771,164.0051],[24.7526,52.1718,160.8487],[24.766,52.172,151.7049],[24.7747,52.1749,155.2145],[24.797,52.1753,147.1602],[24.8069,52.1649,147.0829],[24.8071,52.1622,146.1277],[24.7609,52.1295,145.4411],[24.7618,52.118899999999996,144.8801],[24.7672,52.1084,145.0959],[24.777,52.098,145.041],[24.7864,52.0928,145.6799],[24.7866,52.0902,145.2503],[24.778199999999998,52.0847,145.2418],[24.7651,52.0819,146.509],[24.7566,52.0764,145.4076],[24.7569,52.0738,146.1368],[24.7618,52.0685,145.2238],[24.7938,52.0585,145.6279],[24.8389,52.0512,145.3172],[24.8664,52.0409,145.3345],[24.8672,52.0327,145.4667],[24.8631,52.0299,145.4298],[24.8694,52.0131,146.1257],[24.8399,51.9986,145.3346],[24.8403,51.9957,145.5669],[24.8455,51.9899,146.2831],[24.8603,51.9783,149.8605],[24.8607,51.9754,148.8164],[24.8533,51.9636,163.7266],[24.8504,51.9517,164.068],[24.8464,51.9488,157.831],[24.8204,51.9427,159.5332],[24.8301,51.9367,161.1796],[24.8309,51.9308,161.7526],[24.8224,51.9277,153.8448],[24.8172,51.9337,157.9987],[24.801,51.9216,153.0234],[24.8022,51.9125,159.7112],[24.8099,51.9037,155.6392],[24.8128,51.9037,156.8058],[24.8405,51.9282,157.2303],[24.8594,51.9347,154.444],[24.8691,51.9292,155.3164],[24.8696,51.9177,156.8944],[24.8792,51.9181,153.8889],[24.8891,51.9129,154.9498],[24.8984,51.919,152.2652],[24.9268,51.926,161.1672],[24.946,51.9268,156.0431],[24.9654,51.922,155.1513],[24.9754,51.9168,145.0],[24.995,51.9123,152.0072],[25.0041,51.9181,149.996],[25.0321,51.9251,148.4179],[25.0411,51.9313,146.007],[25.0498,51.9432,152.4553],[25.0683,51.9498,145.5929],[25.0869,51.9623,150.0653],[25.1245,51.9641,162.2401],[25.1621,51.9717,157.3149],[25.2184,51.9744,154.0199],[25.2465,51.9816,155.3076],[25.2653,51.9825,156.9423],[25.2747,51.9772,148.6064],[25.2841,51.9834,148.5248],[25.295,51.984,152.6544],[25.2982,51.9949,153.2932],[25.3057,52.0094,145.5074],[25.3118,52.0379,143.5537],[25.3112,52.0435,143.9475],[25.3018,52.049,145.1098],[25.3141,52.0604,145.1394],[25.3218,52.0744,148.5603],[25.3202,52.0935,144.6182],[25.3105,52.1042,148.7957],[25.3096,52.1176,147.7431],[25.3177,52.1285,146.1552],[25.3221,52.1286,146.3521],[25.3223,52.1259,145.7689],[25.3405,52.1208,147.1623],[25.3538,52.121,146.431],[25.3531,52.1317,144.0817],[25.3562,52.1506,155.9616],[25.3607,52.1507,159.5801],[25.3597,52.1641,152.6163],[25.3638,52.1695,148.3644],[25.377,52.1724,157.8105],[25.3766,52.1778,156.0518],[25.372,52.1804,149.9428],[25.3799,52.1939,170.7914],[25.4018,52.1996,168.2939],[25.4103,52.2052,155.8153],[25.405,52.2185,153.7792],[25.4,52.2265,153.3495],[25.3996,52.2318,153.7177],[25.4131,52.2294,152.9085],[25.422,52.2295,153.4462],[25.4345,52.2432,150.3466],[25.4339,52.2512,151.7024],[25.4421,52.2621,152.4672],[25.4415,52.2701,148.6777],[25.4501,52.2757,147.5188],[25.4724,52.2761,162.5917],[25.4809,52.2816,162.8752],[25.4806,52.287,148.346],[25.4759,52.2896,147.2046],[25.4624,52.292,149.0439],[25.449,52.2918,149.608],[25.4443,52.2944,150.8211],[25.4442,52.297,150.628],[25.457,52.3053,148.0193],[25.4568,52.308,151.3852],[25.452,52.3133,151.1237],[25.4334,52.3237,146.4652],[25.4289,52.3236,148.141],[25.4207,52.3127,169.8655],[25.412,52.3099,159.2866],[25.4073,52.3125,154.942],[25.407,52.3178,154.2551],[25.3924,52.3337,142.2589],[25.3878,52.3363,142.3589],[25.3874,52.3416,142.4552],[25.3915,52.3471,142.12],[25.3907,52.3578,142.4529],[25.394,52.374,143.6058],[25.41,52.4011,143.6786],[25.4413,52.4017,144.1267],[25.4499,52.4073,143.5984],[25.454,52.4127,143.0167],[25.4534,52.4208,144.5842],[25.431,52.4203,144.1211],[25.418,52.4147,142.985],[25.4135,52.4146,143.8028],[25.4042,52.4198,142.6237],[25.3954,52.417,143.4105],[25.382,52.4167,144.4488],[25.355,52.4188,141.0],[25.3371,52.4185,141.0],[25.3241,52.4129,141.0],[25.3108,52.4099,141.0],[25.3023,52.4044,143.3386],[25.2889,52.4041,142.9478],[25.2846,52.4013,143.1302],[25.2756,52.4012,143.5465],[25.262,52.4036,143.3987],[25.2441,52.4032,142.6219],[25.2443,52.4005,142.6927],[25.2636,52.3821,144.721],[25.2593,52.3794,142.9278],[25.2404,52.3924,144.3167],[25.2142,52.3838,156.5951],[25.1873,52.3833,144.5269],[25.1778,52.3911,147.8226],[25.1688,52.3909,143.2517],[25.1641,52.3935,144.0313],[25.1541,52.4067,145.9372],[25.1495,52.4093,143.2034],[25.1405,52.4091,143.1639],[25.1317,52.4062,156.4917],[25.1322,52.4009,144.1289],[25.1194,52.3926,152.4146],[25.1106,52.3897,143.7707],[25.0882,52.3893,150.5937],[25.084,52.3865,162.6527],[25.0842,52.3838,164.0026],[25.0976,52.3841,155.5713],[25.1023,52.3815,153.0861],[25.1031,52.3708,145.8662],[25.0946,52.3653,151.5211],[25.0769,52.3623,161.7265],[25.0641,52.354,147.0232],[25.0596,52.3539,147.6604],[25.055,52.3565,148.1681],[25.0545,52.3618,147.4854],[25.05,52.3617,149.7425],[25.0413,52.3589,148.5457],[25.0285,52.3506,148.112],[24.9797,52.3442,151.7241],[24.9667,52.3386,148.79],[24.9398,52.338,150.0128],[24.9215,52.3429,163.1311],[24.9208,52.3509,156.878],[24.9159,52.3561,149.1866],[24.9154,52.3614,148.6343],[24.888,52.3662,150.0742],[24.8831,52.3714,159.1978],[24.8826,52.3767,149.1901],[24.8779,52.3792,157.6385],[24.8642,52.3816,159.4868],[24.8463,52.3812,159.0569],[24.8415,52.3837,162.7664]]]]}}