{"type":"Feature","properties":{"GID_2":"BLR.2.20_1","GID_0":"BLR","country":"Belarus","GID_1":"BLR.2_1","province":"Gomel","NL_NAME_1":"Гомельская","county":"Žlobin","VARNAME_2":"Zhlobin","NL_NAME_2":"Жлобінскіраён","TYPE_2":"Raion","ENGTYPE_2":"District","CC_2":"NA","HASC_2":"BY.HO.ZB","name":"Žlobin.county"},
"geometry":{"type": "MultiPolygon","coordinates": [[[[30.4077,52.8638,142.3995],[30.395,52.875,143.6422],[30.3868,52.8889,145.2349],[30.3795,52.9165,150.4092],[30.3807,52.9383,142.282],[30.3764,52.9412,142.3781],[30.3719,52.9413,145.9293],[30.3489,52.9308,145.8506],[30.3444,52.9309,143.7993],[30.3047,52.9426,139.8551],[30.2776,52.9404,138.1693],[30.2597,52.9408,149.7787],[30.242,52.9466,145.3292],[30.2423,52.9521,140.7821],[30.2515,52.9574,132.5089],[30.274,52.9569,134.5607],[30.2744,52.9651,133.2981],[30.2663,52.9817,142.1338],[30.2577,52.9901,139.0218],[30.2447,52.9985,147.3967],[30.2223,53.0017,162.202],[30.1861,52.9996,142.2882],[30.172,52.989,145.6233],[30.1175,52.9818,169.2381],[30.0859,52.9823,156.1655],[30.077,52.9852,142.5256],[30.0365,52.9887,125.7342],[30.0276,52.9915,126.2282],[30.0139,52.989,127.3893],[29.9913,52.9894,140.9321],[29.9736,52.9979,142.0198],[29.9738,53.0034,142.6477],[29.9694,53.0062,133.7525],[29.9603,53.0063,132.5418],[29.9466,53.0038,145.7357],[29.9375,53.0013,139.5485],[29.9281,52.9932,138.6002],[29.919,52.9934,145.5484],[29.9146,52.9962,143.491],[29.9149,53.0044,143.6168],[29.8973,53.0156,140.1822],[29.8888,53.0294,143.6127],[29.8842,53.0294,143.3835],[29.8749,53.0241,143.5552],[29.8705,53.0269,144.3853],[29.8614,53.0271,145.1702],[29.8567,53.0217,144.4622],[29.8561,53.008,143.4326],[29.8605,53.0025,142.0819],[29.8693,52.9969,141.1043],[29.8782,52.994,142.134],[29.8873,52.993899999999996,143.5901],[29.8917,52.9911,142.6133],[29.8915,52.9856,143.9628],[29.8958,52.9801,146.6619],[29.8909,52.972,140.267],[29.8863,52.9693,145.9986],[29.8818,52.9694,149.1932],[29.8639,52.9752,144.8548],[29.8595,52.978,146.7191],[29.8103,52.9951,139.9026],[29.8057,52.9952,136.6999],[29.7918,52.9872,136.6039],[29.7691,52.9876,162.1789],[29.7554,52.9851,140.1951],[29.746,52.977,145.6524],[29.7459,52.9743,145.9521],[29.732,52.9663,144.2736],[29.7318,52.9609,142.5778],[29.7361,52.9553,144.0369],[29.7314,52.95,140.2533],[29.7133,52.9502,138.4267],[29.6949,52.9451,136.9009],[29.6813,52.9453,135.3878],[29.6814,52.948,135.7655],[29.6861,52.9534,140.8951],[29.6862,52.9561,141.4679],[29.6818,52.9589,141.4962],[29.6682,52.9591,134.5362],[29.6501,52.9621,137.7157],[29.6322,52.9678,137.3881],[29.6092,52.96,139.2164],[29.5999,52.9547,137.312],[29.5908,52.9548,139.1712],[29.5819,52.9604,141.5932],[29.5729,52.9632,138.1954],[29.5638,52.9634,138.9042],[29.5637,52.9606,140.0009],[29.5593,52.9634,139.9295],[29.5364,52.9583,156.135],[29.5317,52.9556,159.8257],[29.5088,52.9505,160.4005],[29.481,52.9318,146.6376],[29.4488,52.9214,147.748],[29.4443,52.9214,149.0234],[29.44,52.9297,155.4866],[29.4355,52.9325,157.7943],[29.4219,52.9326,140.5821],[29.4174,52.9354,140.3355],[29.4176,52.9436,153.5849],[29.4132,52.9464,153.0775],[29.3993,52.9384,148.1243],[29.39,52.9304,145.6661],[29.3896,52.9167,152.2984],[29.3985,52.9112,146.7221],[29.4076,52.911,148.188],[29.4121,52.9083,136.7536],[29.412,52.9055,133.9602],[29.3983,52.903,137.4951],[29.3935,52.8976,135.2441],[29.3977,52.8839,136.1077],[29.4065,52.8756,148.3284],[29.4063,52.8675,139.796],[29.4108,52.8647,133.8019],[29.4243,52.8618,146.9882],[29.4285,52.8508,132.0535],[29.4329,52.8453,135.4489],[29.4507,52.8341,133.2793],[29.4506,52.8314,131.497],[29.4551,52.8286,137.6132],[29.4687,52.8284,152.8007],[29.4683,52.8148,147.6816],[29.477,52.8038,130.4821],[29.4903,52.7954,129.8067],[29.4948,52.7954,130.9141],[29.4995,52.8007,129.4139],[29.5131,52.8005,138.271],[29.5175,52.795,135.7424],[29.5082,52.7897,133.5948],[29.5035,52.7843,130.3421],[29.5262,52.784,135.3158],[29.535,52.7784,128.7689],[29.535,52.7757,128.7144],[29.5394,52.7729,128.8488],[29.553,52.7727,135.8318],[29.5663,52.7643,133.3094],[29.566,52.7561,137.3222],[29.5795,52.7532,138.5028],[29.5841,52.7559,138.6319],[29.5842,52.7586,145.9395],[29.5934,52.7639,149.6989],[29.6024,52.7638,142.6764],[29.6114,52.7609,137.9206],[29.6249,52.7607,153.3149],[29.6431,52.7631,142.6021],[29.6477,52.7658,142.6952],[29.6612,52.7656,135.6199],[29.6615,52.7738,149.5154],[29.6753,52.779,134.3602],[29.6755,52.7844,141.3921],[29.6801,52.7871,129.9222],[29.7073,52.7894,158.0324],[29.7072,52.7867,141.6064],[29.7025,52.7813,136.1172],[29.7067,52.773,141.8531],[29.7065,52.7676,144.5491],[29.6974,52.765,139.8762],[29.6973,52.7623,144.075],[29.7191,52.7428,140.4792],[29.7324,52.7372,140.9898],[29.7367,52.7316,150.4054],[29.7321,52.729,145.3987],[29.7318,52.7208,142.7888],[29.7494,52.7096,136.7477],[29.7668,52.693,137.6189],[29.7753,52.6819,144.0904],[29.7748,52.6683,135.5279],[29.7792,52.6655,130.0037],[29.7834,52.6599,126.5231],[29.7789,52.66,128.6463],[29.7786,52.6518,125.9322],[29.7874,52.6462,126.1758],[29.8007,52.6433,125.4066],[29.8188,52.6457,129.2081],[29.8277,52.6428,132.4778],[29.8275,52.6401,133.2065],[29.8183,52.6348,125.4332],[29.8181,52.6293,125.3955],[29.8313,52.6236,137.4145],[29.854,52.6287,123.0621],[29.863,52.6285,126.4164],[29.8673,52.6257,124.8896],[29.8672,52.623,123.8029],[29.8761,52.6201,124.983],[29.8759,52.6174,125.5377],[29.894,52.6198,123.4235],[29.9027,52.6141,125.3684],[29.9072,52.6141,125.3273],[29.9118,52.6167,125.137],[29.912,52.6222,124.5466],[29.9166,52.6248,161.3555],[29.9256,52.6246,154.3903],[29.9254,52.6219,158.1943],[29.9208,52.6193,124.2132],[29.9252,52.6165,128.111],[29.9251,52.6137,124.4095],[29.9342,52.6163,149.6269],[29.9385,52.6135,123.9858],[29.9293,52.6082,123.9252],[29.9291,52.6027,129.4167],[29.938,52.6026,129.975],[29.9561,52.6077,143.6353],[29.9606,52.6076,136.1842],[29.965,52.6048,146.1628],[29.9739,52.6046,156.0398],[29.9782,52.6018,151.2225],[29.9779,52.5936,125.2955],[29.9867,52.5907,123.3407],[30.0044,52.5876,124.4303],[30.0137,52.5956,123.0583],[30.018,52.5928,123.002],[30.0225,52.5927,123.0693],[30.0222,52.5873,122.9611],[30.0264,52.5817,122.9554],[30.0401,52.5869,124.9489],[30.0487,52.5813,121.8267],[30.0532,52.5812,127.4065],[30.0624,52.5865,121.5],[30.0713,52.5863,135.2468],[30.0976,52.5775,139.0457],[30.1379,52.5821,136.4202],[30.1466,52.5792,124.8503],[30.1552,52.5736,119.6549],[30.1689,52.5787,119.8354],[30.1777,52.5785,121.5911],[30.1869,52.5838,121.2383],[30.192,52.5947,120.5649],[30.1927,52.6083,133.8222],[30.1973,52.611,150.402],[30.2062,52.6108,141.6125],[30.2143,52.5969,123.4643],[30.2273,52.5911,121.3732],[30.227,52.5857,123.9742],[30.2313,52.5828,120.6623],[30.2708,52.5737,121.4396],[30.2758,52.5846,122.2971],[30.2804,52.5872,121.4205],[30.2935,52.5842,123.8795],[30.2981,52.5868,124.1799],[30.2984,52.5923,122.707],[30.2946,52.6033,121.2074],[30.3041,52.614,132.6347],[30.3045,52.6195,128.7239],[30.2957,52.6225,133.8378],[30.2869,52.6227,136.9065],[30.2737,52.6257,130.1636],[30.2563,52.6316,121.7294],[30.2481,52.6454,121.1752],[30.2483,52.6482,121.9182],[30.2621,52.6561,138.3986],[30.2622,52.6588,139.2477],[30.2579,52.6616,137.353],[30.2446,52.6619,121.7245],[30.2449,52.6674,140.0391],[30.2495,52.67,126.0888],[30.2498,52.6755,141.0927],[30.2411,52.6784,144.1901],[30.2366,52.6785,139.6418],[30.2319,52.6732,144.3656],[30.2276,52.676,123.4341],[30.228,52.6842,134.6096],[30.2328,52.6896,140.3715],[30.2329,52.6923,131.8318],[30.2286,52.6951,137.7583],[30.2241,52.6952,135.951],[30.2195,52.6926,141.1575],[30.2192,52.6871,130.6348],[30.2102,52.6846,122.2729],[30.2059,52.6874,122.9179],[30.1981,52.7095,138.5123],[30.2249,52.7089,130.8157],[30.2336,52.706,137.2362],[30.2518,52.7111,136.7582],[30.261,52.7163,160.7154],[30.2708,52.7326,142.2488],[30.2711,52.738,140.2588],[30.2758,52.7434,138.249],[30.2803,52.7433,138.6125],[30.2931,52.7321,155.5831],[30.302,52.7319,139.3323],[30.3073,52.7482,159.1252],[30.312,52.7508,139.8209],[30.366,52.7606,140.5925],[30.3749,52.7604,140.0935],[30.4156,52.7704,140.4445],[30.4202,52.7731,137.1227],[30.4205,52.7786,145.2897],[30.412,52.7842,143.6926],[30.4031,52.7844,141.238],[30.3988,52.7873,144.5695],[30.3989,52.79,144.1344],[30.4034,52.7899,140.2563],[30.4171,52.7951,142.2246],[30.4176,52.8033,142.0799],[30.4045,52.8091,145.2047],[30.4052,52.82,145.4215],[30.4009,52.8228,145.2244],[30.3964,52.8229,144.8165],[30.3829,52.8205,142.2406],[30.37,52.829,143.9337],[30.3706,52.84,143.3033],[30.3846,52.8506,144.8365],[30.4077,52.8638,142.3995]]]]}}