{"type": "Feature","bbox": [28.9589,51.8314,29.9164,52.537],"geometry": {"type": "MultiPolygon","coordinates": [[[[29.0705,52.4964,151.7168],[29.0567,52.4885,146.413],[29.0565,52.4803,135.5386],[29.0519,52.4722,135.73],[29.0427,52.4669,143.0867],[29.0427,52.4642,143.5158],[29.0471,52.4614,140.1431],[29.0517,52.4641,136.8863],[29.0561,52.4586,128.9033],[29.056,52.4559,128.5297],[29.0468,52.4478,127.6637],[29.0377,52.4452,145.837],[29.0373,52.4262,127.8728],[29.028199999999998,52.4209,127.8968],[28.9965,52.4132,134.172],[29.0009,52.4104,134.1996],[29.0099,52.4103,131.7295],[29.0098,52.4048,140.7699],[29.0141,52.3966,142.9473],[29.0096,52.394,143.045],[29.014,52.3912,146.8478],[29.0275,52.391,141.1104],[29.0274,52.3856,132.8169],[29.0228,52.3829,135.6636],[29.0138,52.383,144.4777],[29.0094,52.3858,144.4021],[29.0003,52.3805,141.8601],[29.0002,52.3778,137.6636],[28.9956,52.3751,133.6945],[28.9821,52.3753,125.1306],[28.9731,52.3727,125.566],[28.9684,52.3619,123.8186],[28.9637,52.3565,123.6393],[28.9636,52.3511,123.6485],[28.959,52.3457,123.5363],[28.9589,52.3403,123.0932],[28.9768,52.3346,122.9298],[28.9812,52.3318,122.754],[28.9811,52.3237,122.8574],[28.9673,52.3103,122.3935],[28.9672,52.3049,122.3756],[28.9717,52.3048,122.3914],[28.9853,52.3128,122.6914],[28.9898,52.3127,122.6038],[28.9943,52.3099,122.6486],[28.9897,52.3046,122.7551],[29.0031,52.3044,122.6628],[29.0121,52.3015,134.1152],[29.0116,52.2798,122.0327],[29.016,52.2743,121.9011],[29.0114,52.2717,122.0647],[29.0292,52.2633,139.3609],[29.0424,52.2522,142.7772],[29.0422,52.2441,135.3987],[29.0377,52.2414,137.4142],[29.0374,52.2305,134.459],[29.0329,52.2306,137.5651],[29.0193,52.2226,124.2737],[29.0193,52.2199,121.2678],[29.0369,52.2061,134.1334],[29.0278,52.2008,120.0799],[29.014,52.1874,119.6079],[29.0139,52.182,119.4928],[29.0228,52.1764,119.5688],[29.0271,52.1709,121.7256],[29.027,52.1682,119.8376],[29.0315,52.1654,121.1965],[29.0223,52.1574,120.3972],[29.0223,52.1547,117.2395],[29.0267,52.1519,118.4514],[29.0265,52.1465,116.3095],[29.0353,52.1382,115.8088],[29.0532,52.1406,116.9482],[29.0621,52.1378,116.3449],[29.0713,52.1458,116.5071],[29.0848,52.151,117.5291],[29.0892,52.1483,116.6192],[29.0937,52.1482,116.5947],[29.1023,52.1372,115.5304],[29.1113,52.1398,115.5345],[29.1203,52.1396,116.1419],[29.1469,52.1338,115.5164],[29.1514,52.1364,122.4351],[29.1515,52.1392,115.7863],[29.1383,52.1448,117.3626],[29.1383,52.1475,123.3671],[29.1429,52.1502,127.2584],[29.1518,52.15,133.7702],[29.1738,52.1361,118.5223],[29.1826,52.1333,119.8457],[29.1914,52.1277,130.3109],[29.2003,52.1275,131.7218],[29.2091,52.1247,120.2845],[29.2089,52.1165,132.6142],[29.2264,52.1054,116.9093],[29.2262,52.0999,114.8478],[29.235,52.0971,115.9618],[29.2485,52.1023,118.5265],[29.2488,52.1105,117.0899],[29.2533,52.1131,121.1167],[29.2622,52.113,124.5137],[29.2665,52.1074,126.0665],[29.284,52.0963,131.7439],[29.2928,52.0934,128.0022],[29.3057,52.0823,125.0327],[29.3234,52.0793,126.056],[29.3363,52.0682,126.7646],[29.3358,52.0546,116.5159],[29.3619,52.0405,115.7031],[29.3751,52.0376,115.4957],[29.4011,52.0235,115.6648],[29.3964,52.0154,133.9586],[29.3963,52.0127,127.2407],[29.3785,52.0103,125.8944],[29.374,52.0077,135.2962],[29.3783,52.0022,131.9294],[29.3781,51.9941,122.3344],[29.3825,51.9914,133.3921],[29.3824,51.9887,118.4754],[29.3912,51.9858,126.8578],[29.3911,51.9831,116.2292],[29.3866,51.9805,115.7782],[29.3865,51.9778,113.8889],[29.4259,51.9609,115.0052],[29.4304,51.9635,116.0718],[29.4348,51.9634,114.1355],[29.4523,51.9577,119.5722],[29.4696,51.9466,113.6886],[29.4695,51.9439,116.9816],[29.4738,51.9411,140.6278],[29.513,51.9241,114.1145],[29.5171,51.9159,117.037],[29.5166,51.9024,126.4754],[29.5296,51.8968,113.2451],[29.5249,51.8887,119.7275],[29.5331,51.875,114.5622],[29.5323,51.8534,114.0659],[29.5365,51.848,114.9855],[29.5409,51.8479,114.9551],[29.5452,51.8451,114.4797],[29.5491,51.8342,113.7625],[29.5534,51.8314,114.0198],[29.5536,51.8368,114.764],[29.5626,51.8421,116.5899],[29.5757,51.8391,115.6249],[29.5936,51.8469,116.8992],[29.5938,51.8523,116.4421],[29.5987,51.863,118.5319],[29.599,51.8711,122.9317],[29.6037,51.8791,132.3421],[29.6038,51.8818,131.2238],[29.5997,51.8873,127.9016],[29.5998,51.89,128.3018],[29.6043,51.8926,131.159],[29.6176,51.8951,117.2438],[29.6175,51.8924,116.9948],[29.6215,51.8842,127.0129],[29.6258,51.8814,131.5764],[29.6392,51.8838,130.0178],[29.6524,51.8836,124.4496],[29.6698,51.8805,116.9024],[29.6744,51.8831,116.8178],[29.6572,51.8943,117.1436],[29.6574,51.8997,117.1566],[29.6485,51.8971,117.191],[29.6442,51.8999,116.8107],[29.6533,51.9079,131.7819],[29.6489,51.908,133.9405],[29.6446,51.9107,130.1948],[29.6405,51.9162,124.6819],[29.6406,51.9189,118.0893],[29.6631,51.932,124.3471],[29.6632,51.9347,127.5564],[29.6589,51.9375,124.9667],[29.6636,51.9455,119.4734],[29.6728,51.9535,122.954],[29.6773,51.9561,121.0954],[29.6905,51.9558,124.4859],[29.7041,51.9663,129.1365],[29.6999,51.9718,148.7937],[29.7,51.9745,144.5211],[29.7137,51.9851,135.9337],[29.7184,51.9931,135.1993],[29.7189,52.0066,132.457],[29.7323,52.0118,125.0288],[29.7501,52.0141,128.8277],[29.7636,52.0219,124.1948],[29.8038,52.0346,145.8199],[29.8126,52.0344,138.6828],[29.8212,52.0288,139.511],[29.861,52.0306,127.6255],[29.8701,52.0386,141.102],[29.8702,52.0413,130.0471],[29.8659,52.0441,129.8212],[29.8977,52.0624,134.7962],[29.8979,52.0652,131.4726],[29.9115,52.073,139.6196],[29.9164,52.0811,130.521],[29.9123,52.0867,129.6261],[29.9124,52.0894,129.3888],[29.9038,52.0924,141.6975],[29.8948,52.0898,135.5019],[29.842,52.091,134.602],[29.8377,52.0939,145.9806],[29.8383,52.1048,133.1155],[29.834,52.1076,140.2114],[29.8252,52.1078,145.2283],[29.821,52.1107,130.086],[29.8214,52.1188,130.1712],[29.8127,52.1218,130.7266],[29.8129,52.1245,131.1651],[29.8174,52.1271,130.7273],[29.813,52.1272,130.8205],[29.8087,52.1301,130.5281],[29.8091,52.1382,130.9523],[29.814,52.1463,136.5932],[29.8053,52.1493,131.1738],[29.7875,52.1469,131.315],[29.7784,52.1416,145.2418],[29.7781,52.1362,142.9027],[29.7824,52.1334,138.1415],[29.7731,52.1254,142.4696],[29.7646,52.131,135.5894],[29.7604,52.1366,131.418],[29.7562,52.1394,131.7217],[29.7517,52.1395,146.7381],[29.7472,52.1368,146.5328],[29.7429,52.1397,145.3079],[29.743,52.1424,137.7454],[29.7477,52.1477,131.5761],[29.7479,52.1505,131.4086],[29.7436,52.1533,132.3947],[29.7302,52.1508,132.5161],[29.7259,52.1537,137.861],[29.7217,52.1592,133.5114],[29.7264,52.1646,138.6331],[29.7227,52.181,132.2861],[29.7319,52.1863,147.7611],[29.7408,52.1888,140.547],[29.7719,52.1909,135.8737],[29.7899,52.196,142.2981],[29.7947,52.2041,144.1457],[29.795,52.2095,142.3274],[29.7868,52.2234,132.5265],[29.7872,52.2315,143.4695],[29.7917,52.2342,134.1014],[29.8142,52.2392,133.8775],[29.8144,52.2446,135.7332],[29.8103,52.2502,133.5691],[29.7975,52.2614,135.9101],[29.7976,52.2641,135.4105],[29.8067,52.2694,134.8644],[29.8156,52.2692,133.4437],[29.8203,52.2745,133.2611],[29.8654,52.29,130.9278],[29.8745,52.2953,130.6797],[29.8747,52.298,131.9294],[29.8883,52.3059,131.6065],[29.884,52.3087,131.3968],[29.8843,52.3142,131.2223],[29.8933,52.3167,132.0547],[29.8936,52.3222,133.1451],[29.9027,52.3274,132.337],[29.9031,52.3356,132.0948],[29.8944,52.3385,132.4758],[29.8809,52.3361,144.2331],[29.8812,52.3415,132.1801],[29.8859,52.3469,132.0337],[29.886,52.3496,132.6655],[29.8593,52.3475,135.5502],[29.8463,52.3559,138.4776],[29.8465,52.3586,137.0439],[29.8739,52.3745,143.7464],[29.8828,52.3743,145.6828],[29.9056,52.3875,147.1205],[29.9058,52.3902,146.0892],[29.9103,52.3928,152.474],[29.9106,52.3983,137.8492],[29.9063,52.4011,147.8815],[29.8841,52.4016,144.0508],[29.8753,52.4045,144.4544],[29.862,52.4047,143.3502],[29.8529,52.4022,146.3988],[29.8351,52.4025,136.8667],[29.8264,52.4054,137.5041],[29.8041,52.4058,143.6255],[29.7997,52.4087,140.0467],[29.7999,52.4114,135.0218],[29.8046,52.4168,136.4588],[29.8052,52.4304,135.1281],[29.7961,52.4278,140.5102],[29.7738,52.4282,133.4634],[29.7646,52.4202,133.1887],[29.7512,52.4205,132.5291],[29.7421,52.4179,132.7972],[29.7378,52.4207,140.084],[29.7379,52.4235,137.3715],[29.7516,52.431399999999996,132.9088],[29.7517,52.4341,132.6207],[29.7474,52.4369,132.6773],[29.734,52.4372,132.7449],[29.7293,52.4318,132.9112],[29.7291,52.4263,135.7756],[29.7199,52.4211,133.2387],[29.7155,52.4211,132.8036],[29.7156,52.4239,135.6374],[29.7203,52.4292,137.8423],[29.7204,52.432,135.4992],[29.7159,52.432,133.1898],[29.7113,52.4294,133.4421],[29.7019,52.4187,133.8912],[29.6977,52.4242,135.9847],[29.698,52.4324,137.3617],[29.6805,52.4408,133.7411],[29.6759,52.4382,134.2379],[29.6579,52.4358,139.4007],[29.6398,52.4307,133.7968],[29.6306,52.4254,135.4164],[29.6217,52.4255,139.8515],[29.6131,52.4338,144.3138],[29.6133,52.4393,146.0345],[29.6089,52.4421,142.8207],[29.5999,52.4422,136.8454],[29.5953,52.4396,136.439],[29.5819,52.4398,136.2304],[29.5814,52.4262,139.1979],[29.5902,52.4206,145.0088],[29.5856,52.418,144.3125],[29.5725,52.4264,141.8879],[29.568,52.4264,140.5957],[29.5588,52.4211,144.3533],[29.5543,52.4212,165.3061],[29.5498,52.4186,163.7282],[29.5497,52.4158,167.5258],[29.554,52.4131,148.678],[29.5583,52.4075,139.3182],[29.558,52.3994,138.5077],[29.5535,52.3967,139.8954],[29.5578,52.3939,139.409],[29.5577,52.3912,140.6961],[29.5532,52.3885,147.1525],[29.5397,52.3888,141.9168],[29.5262,52.3863,139.0894],[29.5129,52.3892,144.3268],[29.5039,52.3894,142.4537],[29.4993,52.384,141.4275],[29.4947,52.3814,142.3783],[29.4902,52.3814,142.5518],[29.4816,52.3925,161.0837],[29.4727,52.3953,158.1057],[29.459,52.3874,153.642],[29.4546,52.3902,156.1205],[29.4548,52.3956,151.2668],[29.4641,52.4036,166.6257],[29.4642,52.4091,165.7078],[29.4599,52.4146,157.2804],[29.4379,52.4258,156.4576],[29.4243,52.4233,158.0255],[29.4199,52.4261,151.1207],[29.4021,52.4318,137.1457],[29.3977,52.4346,133.7621],[29.3978,52.4373,133.3813],[29.4071,52.4454,134.8627],[29.4166,52.4616,128.657],[29.444,52.4775,131.5044],[29.4667,52.4826,133.7078],[29.4714,52.4879,130.9329],[29.4715,52.4906,133.8875],[29.467,52.4934,129.4299],[29.4491,52.4937,148.5128],[29.44,52.4911,148.692],[29.431,52.4913,147.8952],[29.4315,52.5076,142.5172],[29.4364,52.5184,151.9535],[29.4319,52.5212,148.0483],[29.4274,52.5213,146.0107],[29.4182,52.5133,139.6561],[29.4138,52.516,135.4205],[29.4139,52.5188,142.4733],[29.4185,52.5241,136.9188],[29.4141,52.5269,133.0936],[29.4095,52.5243,132.7501],[29.4094,52.5216,132.7979],[29.3957,52.5136,132.9058],[29.3867,52.5137,137.1994],[29.3823,52.5192,156.2407],[29.3828,52.5328,134.2171],[29.3737,52.5303,143.6899],[29.3735,52.5248,147.6157],[29.3506,52.5115,145.7418],[29.3239,52.5228,147.4132],[29.3196,52.5311,145.1918],[29.3017,52.5368,143.672],[29.2882,52.537,145.4803],[29.2746,52.5344,151.9661],[29.2608,52.5265,137.6886],[29.2427,52.524,153.7916],[29.229,52.5187,139.7106],[29.22,52.5189,151.3127],[29.2109,52.5163,153.278],[29.2063,52.5136,152.1809],[29.2062,52.5109,153.5272],[29.2105,52.5027,152.0474],[29.1876,52.4867,148.7832],[29.1785,52.4868,146.1212],[29.1652,52.4952,149.0308],[29.1562,52.4953,149.9848],[29.1425,52.4873,132.0374],[29.138,52.4901,131.3456],[29.1382,52.4982,146.0257],[29.1429,52.5036,132.9855],[29.143,52.5118,137.9622],[29.1387,52.5173,134.7234],[29.1342,52.5201,133.7708],[29.1296,52.5174,132.9941],[29.1296,52.5147,133.8425],[29.1205,52.5121,132.0349],[29.1158,52.5067,148.9227],[29.1156,52.4986,139.8847],[29.1064,52.4905,154.6748],[29.1062,52.4824,130.3559],[29.0971,52.4771,135.1439],[29.0975,52.4934,140.2006],[29.1067,52.5041,148.1223],[29.1022,52.5042,147.8929],[29.1023,52.5069,149.5114],[29.0795,52.499,130.2121],[29.075,52.4991,130.8357],[29.0705,52.4964,151.7168]]]]}
,"properties": {"GID_2": "BLR.2.7_1","GID_0": "BLR","country": "Belarus","GID_1": "BLR.2_1","province": "Gomel","NL_NAME_1": "Гомельская","county": "Kalinkavichy","VARNAME_2": "Kalinkovichi","NL_NAME_2": "Калінкавіцкіраён","TYPE_2": "Raion","ENGTYPE_2": "District","CC_2": "NA","HASC_2": "BY.HO.KA","name": "Kalinkavichy.county","area_km2": 2752.504,"hist_schema_id": "Elevation0-9000","hist_area_km2": {"100": 0.17,"125": 1549.116,"150": 1184.323,"175": 18.895}}}