{"type": "Feature","bbox": [25.739,54.5411,26.455,54.9981],"geometry": {"type": "MultiPolygon","coordinates": [[[[26.1322,54.5546,154.9636],[26.1461,54.5628,150.6267],[26.1506,54.5683,149.7065],[26.1457,54.5736,154.1026],[26.1457,54.5764,154.1647],[26.1502,54.5818,151.0869],[26.1594,54.5873,152.2188],[26.1688,54.5901,152.0009],[26.192,54.6012,145.2822],[26.1916,54.6147,166.0448],[26.2009,54.6203,146.3788],[26.2008,54.623,145.8094],[26.2338,54.6233,139.6357],[26.2481,54.6153,140.8692],[26.2527,54.6181,154.3],[26.2572,54.6263,157.3547],[26.2711,54.6346,142.2617],[26.271,54.6373,152.3862],[26.2803,54.6428,161.196],[26.285,54.6429,161.737],[26.3035,54.654,162.0893],[26.3082,54.654,160.9733],[26.3177,54.6487,146.3438],[26.3322,54.6299,143.3922],[26.3696,54.6303,165.4927],[26.3835,54.6359,172.981],[26.388,54.6413,174.4891],[26.388,54.6441,175.7562],[26.3832,54.6495,174.614],[26.3831,54.6522,173.0695],[26.3877,54.6604,159.7989],[26.3923,54.6631,154.3657],[26.3922,54.6659,133.819],[26.3874,54.6713,147.3991],[26.3732,54.6792,151.8775],[26.3545,54.679,146.212],[26.3451,54.6816,159.7772],[26.3403,54.6897,162.506],[26.3355,54.6923,167.4333],[26.3168,54.6894,137.9462],[26.3072,54.6974,145.5172],[26.307,54.7055,148.3354],[26.3115,54.7137,129.8857],[26.3257,54.7112,160.5617],[26.3304,54.714,145.3315],[26.3302,54.7194,144.356],[26.316,54.7246,158.1271],[26.3159,54.7274,154.5496],[26.3112,54.73,155.7161],[26.2924,54.727,150.8007],[26.2592,54.7266,157.704],[26.2544,54.7293,148.4906],[26.2591,54.732,158.1362],[26.2589,54.7401,148.3943],[26.2682,54.7457,162.713],[26.2728,54.7512,153.3352],[26.2916,54.7568,153.3821],[26.2914,54.7623,140.0258],[26.2866,54.7649,137.4102],[26.2676,54.7673,141.9888],[26.2627,54.77,146.4444],[26.2627,54.7727,138.0073],[26.2767,54.781,152.7347],[26.2955,54.7867,167.34],[26.3193,54.7843,161.464],[26.3288,54.7818,163.2514],[26.3383,54.7819,168.5406],[26.3616,54.7931,178.4914],[26.4272,54.7995,143.6217],[26.4411,54.8078,159.7649],[26.4458,54.8079,155.1801],[26.455,54.8134,149.0],[26.4548,54.827,149.0],[26.45,54.8324,149.0],[26.4453,54.835,149.0],[26.436,54.8349,149.0],[26.4173,54.8319,154.0703],[26.408,54.8263,158.1637],[26.3892,54.826,149.6389],[26.3799,54.8205,140.7784],[26.3705,54.8176,140.1316],[26.3657,54.8203,142.393],[26.3657,54.823,148.6429],[26.351,54.8417,132.3066],[26.351,54.8444,134.8376],[26.3602,54.8554,152.7251],[26.3647,54.8663,156.4961],[26.3642,54.8853,165.8625],[26.3736,54.8881,166.7101],[26.3733,54.9016,164.54],[26.3587,54.9122,175.259],[26.3443,54.9173,151.5406],[26.33,54.9171,148.744],[26.2961,54.9299,148.0365],[26.2765,54.9484,152.9473],[26.2713,54.9644,182.48],[26.2663,54.9723,180.7262],[26.266,54.9831,175.4594],[26.2611,54.9883,168.4966],[26.2466,54.9934,178.9102],[26.2225,54.9981,175.0098],[26.2081,54.9951,191.839],[26.2033,54.9923,183.2082],[26.1888,54.9919,177.9533],[26.1839,54.9944,188.3544],[26.1645,54.9912,173.6682],[26.155,54.9857,170.4725],[26.1452,54.9854,186.9486],[26.1403,54.9879,177.8585],[26.1354,54.9878,186.3013],[26.1354,54.9904,182.568],[26.1306,54.9877,185.4989],[26.1308,54.9797,181.8501],[26.1212,54.9715,166.5332],[26.0871,54.9706,164.1697],[26.0873,54.9653,169.3243],[26.0825,54.9625,167.3364],[26.0874,54.9627,175.0075],[26.0875,54.96,167.2021],[26.0925,54.9548,166.2747],[26.0634,54.9488,158.4989],[26.0734,54.9437,155.1691],[26.0735,54.9411,154.375],[26.0685,54.9436,153.4877],[26.0338,54.9426,162.5034],[25.9967,54.9516,167.9124],[25.9961,54.9568,153.066],[25.9909,54.9566,153.1593],[25.9863,54.9512,161.7076],[25.9808,54.9535,159.6701],[25.9655,54.9503,165.3039],[25.9658,54.9477,159.0599],[25.9554,54.9473,159.0952],[25.9453,54.9444,161.1982],[25.9305,54.936,156.213],[25.9156,54.9302,156.1143],[25.8892,54.9319,170.2538],[25.8782,54.9342,158.7953],[25.8787,54.9315,159.7261],[25.8738,54.9287,145.7847],[25.8742,54.9261,149.1758],[25.8563,54.9247,162.0043],[25.8511,54.9137,145.1748],[25.8554,54.9145,144.2581],[25.8515,54.9087,152.8693],[25.8518,54.9062,163.3073],[25.8571,54.9038,142.8083],[25.8576,54.9012,143.7906],[25.8526,54.9009,143.8348],[25.8538,54.8929,144.6935],[25.849,54.8925,142.9767],[25.8446,54.8895,145.1534],[25.84,54.889,134.6079],[25.8403,54.8864,143.7409],[25.836,54.8857,144.2271],[25.8361,54.8832,140.5659],[25.8322,54.88,142.7393],[25.8243,54.8782,141.6498],[25.8244,54.8733,140.5855],[25.8205,54.8725,144.4387],[25.8166,54.8692,152.8066],[25.8166,54.8667,152.4228],[25.8127,54.8658,148.2121],[25.8128,54.861,146.7505],[25.8089,54.8576,137.5291],[25.805,54.8568,113.4415],[25.805,54.8543,134.9715],[25.801,54.8535,146.0547],[25.8012,54.851,143.7126],[25.7919,54.8505,133.0963],[25.7927,54.8475,142.7209],[25.7877,54.8476,139.0073],[25.7884,54.8445,138.297],[25.7857,54.8329,145.726],[25.7896,54.8338,154.1523],[25.7897,54.8289,144.4045],[25.7858,54.8256,141.805],[25.7859,54.8182,148.5342],[25.778199999999998,54.8116,170.1389],[25.7664,54.809,168.7997],[25.7619,54.8112,171.2112],[25.7584,54.8051,185.4515],[25.7587,54.8024,186.1126],[25.7541,54.8022,188.2583],[25.7549,54.7967,206.0506],[25.7467,54.7904,227.1889],[25.7511,54.7861,209.7082],[25.7468,54.7829,212.6673],[25.7512,54.7689,250.8859],[25.7593,54.7606,238.7556],[25.7593,54.7506,272.5277],[25.7553,54.7498,260.9594],[25.7555,54.7148,275.1592],[25.7514,54.7041,238.6241],[25.7473,54.6983,217.6559],[25.7431,54.6976,215.5423],[25.7474,54.6858,218.0292],[25.7474,54.6808,219.9304],[25.7432,54.6826,218.6967],[25.739,54.6794,213.8225],[25.7433,54.6776,216.3727],[25.7519,54.6415,169.5649],[25.752,54.629,171.1001],[25.7561,54.6297,173.6078],[25.7603,54.6254,172.9594],[25.7607,54.6053,183.4362],[25.7564,54.6046,175.7959],[25.7607,54.6029,178.6486],[25.7565,54.5996,177.7371],[25.7608,54.5979,194.5283],[25.761,54.5906,186.8289],[25.7659,54.5865,199.9412],[25.7567,54.5823,186.6376],[25.7611,54.5834,190.9117],[25.7526,54.5764,183.7123],[25.7526,54.5716,186.0688],[25.7399,54.5671,197.0574],[25.7572,54.5656,192.429],[25.7733,54.5599,188.2353],[25.7793,54.5517,218.5524],[25.7795,54.5489,212.025],[25.7903,54.5433,247.0991],[25.8004,54.5433,230.1546],[25.8052,54.5459,233.1764],[25.8047,54.5513,244.6223],[25.819,54.5594,234.0126],[25.8288,54.5594,242.81],[25.8388,54.5541,243.1893],[25.8389,54.5514,251.9297],[25.8439,54.5488,239.7627],[25.8534,54.5489,256.9144],[25.858,54.5516,235.118],[25.8675,54.5518,240.812],[25.8724,54.5491,256.8147],[25.8726,54.5464,271.17],[25.8776,54.5411,263.6668],[25.9057,54.5468,237.92],[25.9149,54.5523,258.0433],[25.9242,54.5551,244.0996],[25.9337,54.5552,233.8613],[25.9673,54.5448,267.4955],[25.9815,54.5449,202.099],[26.0139,54.5615,192.5094],[26.0137,54.5642,198.8478],[26.0183,54.5669,202.7977],[26.0278,54.567,210.6837],[26.0425,54.556399999999996,198.5473],[26.0519,54.5565,186.5233],[26.0846,54.5676,195.6301],[26.0893,54.5677,191.128],[26.1322,54.5546,154.9636]]]]}
,"properties": {"GID_2": "BLR.3.2_1","GID_0": "BLR","country": "Belarus","GID_1": "BLR.3_1","province": "Grodno","NL_NAME_1": "Гродзенская","county": "Astravyets","VARNAME_2": "Ostrovets","NL_NAME_2": "Астравецкіраён","TYPE_2": "Raion","ENGTYPE_2": "District","CC_2": "NA","HASC_2": "BY.HR.OV","name": "Astravyets.county","area_km2": 1534.852,"hist_schema_id": "Elevation0-9000","hist_area_km2": {"100": 1.307,"125": 100.071,"150": 656.924,"175": 443.955,"200": 183.622,"225": 78.441,"250": 41.744,"275": 22.447,"300": 6.342}}}