{"type": "Feature","id": "2338","bbox": [23.16564,51.51311,27.5999,53.39617],"geometry": {"type": "Polygon","coordinates": [[[25.82926,53.38656,212.1474],[25.82212,53.38739,215.2056],[25.80905,53.39349,224.9517],[25.80393,53.39509,230.6662],[25.79789,53.39617,230.7434],[25.78843,53.39591,215.9749],[25.75706,53.39155,220.4307],[25.74668,53.39139,223.8812],[25.73877,53.3923,226.4101],[25.73288,53.39356,224.3258],[25.72017,53.39473,227.1656],[25.71288,53.39287,235.6464],[25.70482,53.38945,215.5324],[25.69268,53.38129,216.8874],[25.68709,53.37612,225.7075],[25.68353,53.37165,240.1126],[25.68151,53.36816,238.1109],[25.67671,53.36155,230.405],[25.64787,53.33178,216.5719],[25.64394,53.32553,200.0255],[25.64286,53.32321,170.6591],[25.64084,53.31654,173.7135],[25.63557,53.28662,216.4274],[25.63433,53.28259,211.3504],[25.63201,53.27938,227.1854],[25.6272,53.27688,230.0051],[25.62038,53.27499,211.1048],[25.59041,53.27298,197.6986],[25.58374,53.27096,214.3929],[25.57785,53.26538,216.9973],[25.5749,53.26068,227.6371],[25.56886,53.24424,202.3059],[25.56917,53.24052,200.0361],[25.57165,53.23773,197.3521],[25.57521,53.23541,199.1083],[25.59433,53.22799,216.9961],[25.59837,53.22574,215.5303],[25.601,53.22285,222.9868],[25.60224,53.21931,211.8558],[25.60224,53.21546,209.6219],[25.601,53.21164,205.009],[25.59599,53.20745,208.2545],[25.58793,53.20306,200.9469],[25.57118,53.19587,205.6477],[25.54994,53.18414,201.2328],[25.54607,53.18099,199.2885],[25.54359,53.17748,205.4116],[25.54312,53.17365,184.24],[25.54498,53.1705,188.3613],[25.54948,53.16854,195.6923],[25.56979,53.16601,203.0345],[25.5749,53.1643,204.4392],[25.57925,53.16229,196.0134],[25.58948,53.15495,207.4479],[25.59247,53.1521,211.7416],[25.59744,53.14611,200.5619],[25.5993,53.14275,197.624],[25.60038,53.13916,214.666],[25.60085,53.13536,198.804],[25.60038,53.13118,194.5282],[25.5993,53.12725,211.3755],[25.59087,53.11283,196.948],[25.55909,53.07609,199.5305],[25.53439,53.03289,206.9398],[25.5316,53.02979,211.4631],[25.52478,53.02452,208.0998],[25.4731,53.00596,180.9154],[25.46907,53.00395,172.8366],[25.46271,52.99974,170.8191],[25.45233,52.99054,164.5907],[25.44101,52.97852,137.1071],[25.43465,52.97297,135.1121],[25.4238,52.96566,137.1355],[25.42081,52.96276,151.2792],[25.41848,52.95956,181.6575],[25.41724,52.95584,160.4076],[25.41724,52.95196,196.0804],[25.41336,52.94736,208.3657],[25.40515,52.94201,192.9035],[25.37957,52.93543,205.3212],[25.36401,52.93284,189.3559],[25.34355,52.93393,199.1452],[25.33533,52.93612,203.502],[25.32681,52.93729,193.4149],[25.3189,52.93641,194.4563],[25.30505,52.93067,178.9896],[25.29962,52.92561,176.6687],[25.29699,52.92075,170.2064],[25.2973,52.91667,168.9625],[25.29869,52.9132,171.2258],[25.30102,52.91021,176.3495],[25.30396,52.90747,173.99],[25.31983,52.89858,185.3848],[25.322,52.89579,177.445],[25.32231,52.89274,177.9526],[25.31983,52.89026,177.4136],[25.31156,52.88628,183.6432],[25.30784,52.88401,168.532],[25.30567,52.88111,166.3141],[25.30536,52.87755,167.1376],[25.30645,52.87414,165.0908],[25.30815,52.87078,176.4928],[25.31063,52.86778,172.9191],[25.31456,52.86546,175.7881],[25.33115,52.86124,172.716],[25.33425,52.85853,178.5406],[25.33564,52.85502,173.815],[25.33549,52.85109,171.3003],[25.3344,52.84752,166.9504],[25.3313,52.84489,161.5009],[25.32758,52.84272,165.4376],[25.32324,52.84075,177.366],[25.31714,52.8392,182.3406],[25.30893,52.83869,176.2054],[25.29342,52.84101,180.3505],[25.27792,52.84515,169.3867],[25.26877,52.84897,177.2853],[25.26552,52.85145,172.5454],[25.26273,52.8544,164.0203],[25.26102,52.86194,160.3023],[25.25895,52.86515,178.8345],[25.25074,52.86592,176.0651],[25.23865,52.86473,163.4177],[25.21632,52.85951,168.8267],[25.20004,52.85176,175.5913],[25.19658,52.84918,174.7908],[25.19193,52.84758,158.9438],[25.1848,52.84701,161.0203],[25.17565,52.84739,172.8507],[25.16092,52.84985,181.9624],[25.14945,52.85037,181.5723],[25.13808,52.84959,164.0973],[25.09793,52.83993,163.7722],[25.09276,52.837649999999996,164.5513],[25.08863,52.83522,167.5515],[25.08315,52.83342,167.4978],[25.07587,52.832769999999996,171.2585],[25.06284,52.83512,172.5093],[25.05618,52.837649999999996,172.7837],[25.05277,52.84112,167.9757],[25.05323,52.84479,165.843],[25.05416,52.84866,168.2536],[25.05587,52.85256,167.3625],[25.05633,52.85636,166.6899],[25.05556,52.85982,166.5716],[25.04982,52.86504,164.2111],[25.0492,52.8683,164.2906],[25.04982,52.87202,163.1436],[25.05106,52.87589,168.4738],[25.06532,52.90558,178.9628],[25.0661,52.90873,179.5817],[25.06424,52.91114,179.6145],[25.06021,52.91295,180.5761],[25.05447,52.91351,181.2952],[25.04827,52.91295,180.6652],[25.0416,52.90892,174.1923],[25.03773,52.90545,172.7354],[25.02992,52.89517,179.5487],[25.02713,52.89207,173.5417],[25.02248,52.88969,170.3588],[25.01597,52.88848,169.4897],[25.00403,52.88956,185.6833],[24.96197,52.90023,208.983],[24.95856,52.90186,213.1717],[24.95639,52.90426,207.4257],[24.95685,52.90747,208.8878],[24.95995,52.91465,201.3316],[24.96104,52.91848,192.3782],[24.9612,52.92209,180.4716],[24.96089,52.92584,159.6059],[24.9598,52.92943,157.0775],[24.95654,52.93625,149.4303],[24.95251,52.94276,155.4932],[24.9474,52.94868,146.7703],[24.94461,52.95139,140.0576],[24.93763,52.95635,136.7815],[24.92895,52.96049,135.7074],[24.9182,52.96343,135.5268],[24.89262,52.96723,137.8074],[24.88487,52.96659,156.5213],[24.87712,52.9646,167.7723],[24.86838,52.95873,173.5246],[24.86404,52.95429,179.863],[24.85722,52.94279,146.0314],[24.85459,52.93966,145.1251],[24.85149,52.93687,144.2528],[24.84451,52.93465,147.8235],[24.83428,52.93315,152.8425],[24.80136,52.93274,166.3635],[24.74782,52.94062,179.1412],[24.68591,52.95977,178.5439],[24.67615,52.95915,156.2832],[24.66251,52.9562,162.3315],[24.61377,52.93935,190.5078],[24.6099,52.93708,199.005],[24.6068,52.93444,199.7776],[24.60556,52.93134,187.8744],[24.60695,52.92835,197.1983],[24.61098,52.92633,194.8256],[24.61641,52.92488,199.2025],[24.64328,52.92245,187.7633],[24.64886,52.92116,193.7889],[24.65258,52.91881,192.5615],[24.65367,52.91532,198.4988],[24.65336,52.91134,195.5039],[24.65165,52.90773,202.821],[24.64499,52.90359,197.4505],[24.6347,52.89915,198.9962],[24.6116,52.89166,175.9343],[24.60153,52.88695,172.6689],[24.59471,52.88297,173.7639],[24.59176,52.88008,174.3635],[24.57093,52.86535,195.7753],[24.56861,52.86287,194.0931],[24.56923,52.86,177.937],[24.57202,52.8575,179.491],[24.58272,52.85026,177.3014],[24.5852,52.84739,168.5095],[24.58706,52.84406,181.7399],[24.58768,52.8405,190.7945],[24.58675,52.83672,183.0109],[24.58416,52.83393,189.5675],[24.56272,52.82409,193.1585],[24.55931,52.82153,184.3792],[24.55652,52.81848,173.8115],[24.54861,52.80427,185.1157],[24.54101,52.79533,162.0325],[24.5407,52.79223,161.8784],[24.54225,52.78934,161.1252],[24.55047,52.78086,168.0212],[24.55481,52.77456,160.3016],[24.55714,52.76722,177.3186],[24.55807,52.75921,165.0631],[24.55745,52.75538,158.8355],[24.55636,52.75239,159.0077],[24.55497,52.75014,158.6886],[24.55264,52.74784,158.478],[24.54784,52.74562,167.3734],[24.54086,52.74316,167.9761],[24.51864,52.73931,160.6367],[24.49399,52.73849,159.5956],[24.46851,52.74107,158.6024],[24.44619,52.74779,159.3346],[24.44123,52.75014,159.3465],[24.43286,52.75549,159.5229],[24.38816,52.77489,171.5017],[24.38288,52.77647,161.0684],[24.37544,52.77735,167.885],[24.36583,52.77709,160.9668],[24.34128,52.77226,160.8582],[24.33493,52.76996,161.3983],[24.3309,52.76776,169.0379],[24.32625,52.76608,163.937],[24.32129,52.7651,160.9495],[24.31601,52.76562,160.1985],[24.31152,52.76885,161.0315],[24.3095,52.77254,161.2891],[24.30888,52.77626,175.4275],[24.30759,52.779,172.8237],[24.30542,52.78065,176.2757],[24.30031,52.78133,168.5902],[24.29209,52.78086,168.3955],[24.25054,52.77161,161.2025],[24.23995,52.7714,160.0019],[24.19778,52.77582,159.112],[24.18533,52.77869,169.9509],[24.17711,52.78169,169.4355],[24.17168,52.78748,176.8694],[24.16719,52.79363,166.4116],[24.1644,52.79636,178.117],[24.16037,52.79853,176.9268],[24.1537,52.79926,176.991],[24.1444,52.79817,162.3878],[24.12156,52.7897,176.4761],[24.09148,52.77394,178.9492],[24.08197,52.77063,164.426],[24.07143,52.7682,173.159],[23.93862,52.77489,170.5086],[23.92043,52.77262,171.9297],[23.9225,52.7426,173.9675],[23.90875,52.69986,172.4908],[23.86896,52.67004,172.9027],[23.73615,52.6149,164.5785],[23.56903,52.58589,173.2915],[23.48046,52.55442,174.7766],[23.3923,52.50964,185.2256],[23.27055,52.39512,172.0558],[23.23045,52.36507,178.1753],[23.21205,52.3475,181.7013],[23.16564,52.28939,132.2739],[23.16875,52.28893,135.4315],[23.1761,52.28514,142.5818],[23.18353,52.28131,124.9982],[23.19448,52.27146,127.7436],[23.19768,52.25831,124.7216],[23.18973,52.24053,150.6415],[23.21226,52.23167,124.3459],[23.28419,52.21973,142.488],[23.29959,52.22343,131.9992],[23.31272,52.21529,125.3955],[23.37483,52.20095,130.8099],[23.39581,52.19958,129.5118],[23.39581,52.19338,132.749],[23.38847,52.18415,128.551],[23.39137,52.1825,130.0318],[23.40573,52.18591,135.0069],[23.41824,52.1825,131.6426],[23.42723,52.17679,132.6971],[23.43674,52.17568,127.272],[23.45049,52.18591,134.3364],[23.45441,52.18147,127.9976],[23.46433,52.17635,129.5958],[23.47095,52.17162,130.0294],[23.48769,52.18162,129.6927],[23.49152,52.1741,129.0348],[23.48873,52.16214,130.5323],[23.4847,52.15863,129.6485],[23.5125,52.12444,132.1627],[23.53193,52.12064,129.4639],[23.57937,52.12155,132.4378],[23.59818,52.11452,132.768],[23.60479,52.10677,131.6642],[23.60986,52.09863,131.1881],[23.61585,52.0923,131.2701],[23.62526,52.08972,135.1849],[23.63745,52.08447,134.221],[23.64148,52.07292,136.318],[23.64252,52.0614,132.9075],[23.65078,52.04894,133.4183],[23.66494,52.01117,135.3368],[23.67641,51.99409,138.0779],[23.66071,51.98688,136.5598],[23.64758,51.97409,138.0145],[23.62867,51.94634,140.0763],[23.62215,51.92794,139.7734],[23.62143,51.89557,140.7878],[23.61492,51.88425,142.0142],[23.61885,51.88327,142.0757],[23.6206,51.88322,142.4218],[23.62133,51.88203,142.608],[23.62184,51.87743,139.8699],[23.60986,51.87327,148.3632],[23.60572,51.85159,141.7412],[23.59456,51.8433,155.5005],[23.61027,51.82518,143.2168],[23.62867,51.80976,143.9667],[23.6175,51.7865,145.3806],[23.59828,51.77467,146.3043],[23.5773,51.76669,148.213],[23.56035,51.75454,147.9984],[23.55632,51.74736,146.5023],[23.55229,51.73664,148.1365],[23.5466,51.71359,148.4274],[23.55022,51.70842,150.1928],[23.55694,51.70139,152.0812],[23.55921,51.69517,153.8463],[23.55001,51.69243,149.2368],[23.54609,51.68964,149.2482],[23.54929,51.6832,149.5743],[23.55539,51.6763,151.603],[23.56035,51.67196,162.9222],[23.54753,51.66207,153.5873],[23.54144,51.65974,151.9808],[23.53244,51.65897,150.6321],[23.53244,51.6515,151.2196],[23.54381,51.6438,156.1112],[23.54516,51.63411,153.8874],[23.53989,51.60711,154.1487],[23.5434,51.59274,154.3947],[23.55208,51.57882,156.1523],[23.57399,51.5553,159.5179],[23.56717,51.55489,156.019],[23.56035,51.5553,171.3048],[23.57275,51.53967,155.6782],[23.58867,51.5359,156.7126],[23.60231,51.53078,161.9393],[23.60624,51.5174,159.9017],[23.61544,51.51311,164.6865],[23.62412,51.5159,170.1288],[23.62867,51.53122,181.1959],[23.62629,51.54089,177.5059],[23.59911,51.58897,154.1744],[23.59332,51.59696,159.584],[23.59435,51.60496,178.3075],[23.60644,51.61812,164.8475],[23.61668,51.62478,157.9514],[23.62898,51.62905,157.541],[23.72623,51.64486,159.9615],[23.74969,51.64447,160.3911],[23.82028,51.63127,169.1985],[23.84529,51.62982,171.8986],[23.88488,51.61987,171.2141],[23.91289,51.59858,164.9012],[23.94131,51.58192,162.7115],[23.98131,51.586,169.9915],[24.13075,51.66979,158.8468],[24.24413,51.71821,156.6269],[24.27235,51.74289,169.9655],[24.29612,51.80813,159.5107],[24.31152,51.82756,153.6996],[24.3479,51.86115,151.9968],[24.3696,51.8751,151.4678],[24.39079,51.88001,152.4009],[24.63977,51.89213,150.47],[24.70106,51.88291,148.5],[24.72183,51.88234,155.2634],[25.00274,51.91048,160.7565],[25.09266,51.93975,154.1675],[25.13803,51.94895,153.6219],[25.1833,51.94975,153.7109],[25.35197,51.92148,153.6276],[25.5474,51.91944,149.1806],[25.68348,51.91802,140.5557],[25.76792,51.92851,145.6192],[25.98113,51.90347,138.2236],[26.05059,51.90482,137.9241],[26.08076,51.90066,137.8012],[26.14536,51.86485,139.2468],[26.17533,51.85671,139.5033],[26.40777,51.85061,143.3687],[26.41976,51.84686,148.1502],[26.41997,51.83973,153.2758],[26.41697,51.83064,150.5371],[26.41924,51.82092,153.6501],[26.43154,51.81022,158.248],[26.4456,51.8056,148.9444],[26.66574,51.80139,141.2804],[26.85477,51.74935,135.7004],[26.92082,51.74253,144.0762],[27.02159,51.76454,136.3468],[27.10995,51.76242,139.1642],[27.15109,51.75676,139.0331],[27.17785,51.74708,139.5468],[27.18416,51.73144,141.386],[27.18147,51.71013,141.3659],[27.18106,51.68341,144.8223],[27.18902,51.66377,142.6011],[27.20359,51.65514,144.6624],[27.22364,51.6537,144.821],[27.24793,51.65566,145.1615],[27.27749,51.65114,155.2244],[27.27449,51.6338,151.7701],[27.25971,51.6123,160.7173],[27.25403,51.59538,158.8488],[27.26746,51.5875,158.156],[27.28927,51.58897,152.7874],[27.32906,51.59696,147.3045],[27.38838,51.59073,144.7796],[27.409,51.59171,144.4295],[27.43097,51.59843,143.5358],[27.45877,51.6175,152.0203],[27.47727,51.62367,151.518],[27.5123,51.62313,142.037],[27.51243,51.6231,142.037],[27.51241,51.62341,142.037],[27.5121,51.62902,140.873],[27.50946,51.7056,140.5643],[27.51923,51.72129,138.2229],[27.53148,51.72211,138.6063],[27.53628,51.72366,139.6292],[27.5414,51.72832,139.1373],[27.54652,51.73547,139.2556],[27.55504,51.75028,139.2372],[27.55752,51.76092,140.4898],[27.55907,51.79084,143.9648],[27.55814,51.79973,138.4181],[27.55628,51.80593,139.4855],[27.55132,51.81167,146.3271],[27.54497,51.81671,139.1232],[27.51442,51.83492,135.3746],[27.50683,51.84063,134.7403],[27.50306,51.84448,133.9563],[27.50295,51.84758,133.7441],[27.50481,51.85038,133.6074],[27.51117,51.85565,136.3768],[27.51396,51.85859,133.7358],[27.51877,51.86523,133.6628],[27.52652,51.8821,133.8084],[27.53194,51.90058,140.3957],[27.53225,51.90696,132.0954],[27.53179,51.91218,134.7246],[27.52543,51.92463,140.6623],[27.52311,51.93295,138.5381],[27.52373,51.9382,136.6088],[27.52559,51.94257,138.1853],[27.58501,51.99019,135.1784],[27.58905,51.99414,134.0059],[27.59323,51.99946,131.1011],[27.59897,52.00897,126.3261],[27.5999,52.01445,126.1352],[27.59912,52.01853,126.0154],[27.59664,52.02137,126.1767],[27.5937,52.02396,126.2694],[27.59029,52.02644,127.4198],[27.56564,52.03915,126.7165],[27.55225,52.04899,125.979],[27.53303,52.06034,126.5647],[27.52993,52.06292,125.7217],[27.52776,52.06597,126.9018],[27.52667,52.07269,126.5439],[27.5245,52.12245,125.2094],[27.52264,52.13511,126.4922],[27.52435,52.16157,134.113],[27.52373,52.16999,135.3083],[27.5214,52.17852,130.8641],[27.52078,52.18346,131.7252],[27.52171,52.18793,133.7715],[27.52373,52.19152,132.1397],[27.52636,52.1947,133.5574],[27.53287,52.20131,145.7933],[27.53644,52.20581,134.6687],[27.54016,52.21395,135.0538],[27.54109,52.21779,135.2292],[27.54062,52.22141,137.1403],[27.53907,52.2242,140.5778],[27.53675,52.22699,141.8216],[27.5307,52.23237,145.7052],[27.52311,52.23681,142.7388],[27.42409,52.27477,136.3781],[27.3965,52.28203,132.1611],[27.39061,52.2858,131.8464],[27.38482,52.2913,131.9817],[27.3735,52.30988,135.7475],[27.36978,52.31448,134.3743],[27.36637,52.31694,138.7462],[27.36219,52.31908,137.8562],[27.35707,52.32073,137.0803],[27.35133,52.3221,140.4361],[27.29857,52.32306,134.3789],[27.29206,52.32482,134.2608],[27.28601,52.32905,133.6867],[27.2793,52.33954,135.6649],[27.27702,52.34683,135.4635],[27.27702,52.35283,133.6434],[27.27139,52.36073,134.0305],[27.14308,52.40889,135.5947],[27.12819,52.41623,136.1601],[27.1285,52.41918,136.1381],[27.13114,52.42181,136.2291],[27.14835,52.43427,136.7586],[27.15114,52.43737,136.8176],[27.15346,52.4408,136.9166],[27.15548,52.44445,137.0923],[27.15672,52.4483,137.0966],[27.15625,52.45349,137.541],[27.15424,52.45938,137.5658],[27.14819,52.46837,138.205],[27.14277,52.47271,139.5389],[27.10318,52.49186,143.0403],[27.05978,52.51953,144.5023],[27.04608,52.5309,145.1793],[27.04081,52.53821,142.6158],[27.06009,52.54987,148.5135],[27.06334,52.55292,152.3932],[27.06489,52.55785,151.4905],[27.06303,52.56118,153.918],[27.05978,52.56398,154.2806],[27.03972,52.57527,156.1802],[27.03802,52.57945,153.6804],[27.03817,52.58361,153.0755],[27.04531,52.59881,151.2911],[27.0481,52.60204,155.6935],[27.05182,52.60436,150.4474],[27.05729,52.60542,147.505],[27.176,52.60893,154.912],[27.18127,52.61017,155.3777],[27.1853,52.61224,142.8029],[27.18793,52.61539,142.7834],[27.18995,52.6202,154.1327],[27.1915,52.62594,154.3395],[27.19196,52.63544,145.9173],[27.19088,52.64092,144.0532],[27.18917,52.64531,143.7586],[27.17817,52.65728,144.0543],[27.1684,52.66611,153.5915],[27.16282,52.66865,144.3252],[27.15672,52.66971,148.8541],[27.1038,52.66971,157.4746],[27.06954,52.67384,149.0977],[27.06195,52.67671,160.6502],[27.05388,52.68118,161.4096],[27.02143,52.71337,146.8342],[27.01973,52.71838,146.1034],[27.02004,52.72267,148.9914],[27.02546,52.72924,154.8525],[27.02748,52.73296,158.3549],[27.02732,52.73867,158.5016],[27.02469,52.742,166.3548],[27.02097,52.74479,170.186],[26.98898,52.75807,151.1156],[26.98433,52.75885,162.6079],[26.97999,52.75787,156.5708],[26.97658,52.75562,152.4637],[26.96402,52.74438,155.0976],[26.96045,52.74195,158.9899],[26.95642,52.73988,150.2908],[26.95193,52.73867,147.6856],[26.94666,52.739,147.207],[26.93529,52.74146,147.6887],[26.90071,52.75368,147.6906],[26.79969,52.77319,149.5995],[26.79039,52.7766,150.5],[26.78558,52.77985,150.5],[26.7632,52.80138,152.0],[26.73871,52.83006,151.0674],[26.7322,52.83481,151.0648],[26.72569,52.83716,151.3643],[26.72042,52.83657,150.9865],[26.68858,52.82949,155.4377],[26.6813,52.82933,158.4828],[26.67324,52.82995,177.0919],[26.66125,52.8329,172.7495],[26.65551,52.83595,183.0107],[26.65179,52.83931,176.6518],[26.6507,52.84292,175.1591],[26.64915,52.85683,162.4246],[26.64605,52.86334,175.7928],[26.64171,52.86659,155.8062],[26.61598,52.87378,163.4021],[26.59717,52.88197,165.3729],[26.58647,52.88494,165.9685],[26.57794,52.88618,166.2597],[26.54849,52.88256,165.6287],[26.54379,52.88101,185.5829],[26.54038,52.87837,178.0096],[26.53851,52.8746,171.1328],[26.53712,52.87047,187.8972],[26.53417,52.85714,178.2798],[26.53278,52.85326,175.6872],[26.53076,52.85016,175.3875],[26.52782,52.84832,172.4207],[26.52487,52.84758,193.1453],[26.49133,52.8477,182.3383],[26.48637,52.84659,182.5653],[26.48188,52.84491,181.0422],[26.47413,52.84034,177.6777],[26.46715,52.83525,173.9629],[26.46405,52.83243,177.4184],[26.45552,52.82722,179.6461],[26.44839,52.82564,176.668],[26.44405,52.8267,172.1878],[26.44002,52.82874,173.3799],[26.41098,52.8546,168.2888],[26.40741,52.86008,185.6941],[26.40726,52.86463,183.4283],[26.40974,52.86763,182.596],[26.41315,52.87026,166.1496],[26.43842,52.88228,189.817],[26.4411,52.8853,186.7016],[26.44219,52.88928,168.9148],[26.4347,52.90158,169.8221],[26.43284,52.90618,172.0192],[26.43191,52.9099,171.179],[26.43144,52.91388,185.2077],[26.43051,52.9176,187.2219],[26.42617,52.92401,184.616],[26.38338,52.96785,200.5217],[26.37465,52.9794,210.4636],[26.37232,52.98633,200.6913],[26.37248,52.99144,202.9942],[26.37558,52.99428,225.7336],[26.38912,52.99857,219.9994],[26.39237,53.00023,215.8191],[26.39687,53.00416,209.6301],[26.39889,53.00705,206.8675],[26.40664,53.02167,190.7257],[26.41361,53.03165,197.7929],[26.41919,53.0379,193.0642],[26.4254,53.04361,187.1898],[26.42927,53.0457,195.7469],[26.43397,53.04754,194.1365],[26.44452,53.0503,199.0745],[26.45723,53.05141,199.5367],[26.4979,53.04855,209.5454],[26.50689,53.04909,213.4734],[26.51169,53.0501,210.6403],[26.51619,53.0519,213.9034],[26.51712,53.05697,218.8855],[26.51511,53.0642,215.1948],[26.50115,53.08425,204.3013],[26.49697,53.08854,201.3074],[26.46327,53.11262,207.3171],[26.45754,53.11469,209.0147],[26.45134,53.11552,209.2211],[26.3823,53.1179,195.8944],[26.37403,53.11945,195.9641],[26.36364,53.1226,191.5328],[26.35915,53.1259,190.6012],[26.3562,53.12957,191.8093],[26.35419,53.14208,186.088],[26.35248,53.14735,188.1729],[26.34798,53.15076,184.0308],[26.33264,53.15686,187.4107],[26.33047,53.16068,194.2633],[26.32907,53.17024,204.8547],[26.32597,53.17303,207.23],[26.32049,53.17396,206.7926],[26.30297,53.17213,203.0775],[26.29522,53.17231,197.8267],[26.28623,53.17365,194.2213],[26.27398,53.1773,189.5469],[26.26871,53.18099,195.475],[26.26623,53.18507,195.7973],[26.26665,53.18921,196.8299],[26.26789,53.19314,199.3642],[26.26964,53.19644,199.3757],[26.27708,53.20693,205.0861],[26.29398,53.2252,188.8437],[26.30793,53.23592,185.2862],[26.31631,53.24109,175.3082],[26.32752,53.24639,183.9866],[26.33341,53.24776,191.467],[26.37449,53.24838,196.0431],[26.38023,53.24933,192.6226],[26.3854,53.25076,196.3025],[26.38989,53.25251,191.4252],[26.39361,53.25489,189.4151],[26.39656,53.25778,189.1577],[26.39827,53.26148,187.8256],[26.39873,53.26538,188.5379],[26.39827,53.28295,200.5019],[26.39749,53.28889,185.0297],[26.39315,53.29804,185.9591],[26.38772,53.30388,184.3928],[26.37858,53.31075,185.4466],[26.37449,53.31504,192.3027],[26.37232,53.31933,196.7904],[26.3748,53.35674,180.1211],[26.37651,53.36455,176.5994],[26.29925,53.35199,187.4092],[26.27305,53.35065,152.6924],[26.26696,53.35183,153.8394],[26.24587,53.35827,197.0724],[26.22122,53.36289,200.871],[26.1357,53.36586,159.8566],[26.08247,53.37359,194.0956],[26.06015,53.37261,201.992],[26.03917,53.3693,227.378],[25.89814,53.37628,211.0047],[25.89271,53.37772,206.5913],[25.88791,53.37953,213.3089],[25.88403,53.3817,220.2816],[25.88093,53.38442,214.9986],[25.87731,53.38677,211.2061],[25.87287,53.38883,214.6511],[25.86491,53.38953,223.1306],[25.85484,53.38922,226.7393],[25.83871,53.38682,214.6172],[25.82926,53.38656,212.1474]]]}
,"properties": {"ISO3166-1-Alpha-3": "BLR","country": "Belarus","fill": "#F0F","name": "Brest","area_km2": 32813.13,"hist_schema_id": "Elevation0-9000","hist_area_km2": {"0": 0.4,"25": 0.62,"50": 0.52,"75": 0.56,"100": 0.92,"125": 4522.32,"150": 18989.59,"175": 7005.04,"200": 1939.24,"225": 333.95,"250": 19.93}}}