{"type": "Feature","bbox": [23.1783,51.5075,27.6179,53.4124],"geometry": {"type": "MultiPolygon","coordinates": [[[[27.0193,52.6731,148.1379],[27.0191,52.6812,159.5161],[27.0596,52.6894,145.4676],[27.073,52.6976,154.1856],[27.0684,52.703,152.3067],[27.0681,52.7165,150.569],[27.0545,52.7219,149.66],[27.0409,52.7219,150.9394],[27.0363,52.7246,150.5229],[27.0317,52.73,156.3367],[27.0316,52.7327,161.5399],[27.036,52.7408,162.2792],[27.0359,52.7462,165.6001],[27.0448,52.7571,155.1618],[27.0447,52.7598,162.6929],[27.0262,52.7787,161.3734],[27.0261,52.7868,173.1463],[27.017,52.7895,152.2036],[27.0034,52.7868,175.1443],[26.9721,52.7704,167.19],[26.9724,52.7569,162.973],[26.9679,52.7542,149.5868],[26.9499,52.7541,167.0572],[26.9407,52.7622,167.3589],[26.9362,52.7622,165.1661],[26.9316,52.7649,163.1759],[26.9046,52.7648,159.8064],[26.8863,52.7756,149.3427],[26.8816,52.7837,148.9212],[26.877,52.7864,157.0344],[26.8636,52.7863,149.2609],[26.8413,52.7781,153.3955],[26.8234,52.778,156.9418],[26.8144,52.7807,150.9476],[26.8007,52.7888,150.0],[26.7778,52.8049,150.5],[26.7683,52.8238,151.0],[26.7545,52.8373,164.8587],[26.7544,52.84,164.4063],[26.7497,52.8481,154.0488],[26.7541,52.8508,163.0176],[26.7537,52.8616,167.8898],[26.7269,52.8615,175.6192],[26.7226,52.8561,159.2299],[26.7136,52.856,165.6607],[26.7091,52.8587,178.8967],[26.6778,52.8613,157.368],[26.6732,52.864,158.3548],[26.6638,52.8774,158.7453],[26.6593,52.8801,160.1995],[26.6369,52.8827,185.3067],[26.6144,52.8907,192.5524],[26.6006,52.9042,191.8504],[26.5874,52.9014,177.9285],[26.5831,52.8987,173.3777],[26.579,52.8906,168.8826],[26.5751,52.877,163.7448],[26.5708,52.8743,178.3408],[26.5669,52.8635,175.8033],[26.5627,52.8581,173.8947],[26.5499,52.8499,186.0741],[26.5369,52.8471,178.9801],[26.5323,52.8525,175.6872],[26.5274,52.8633,183.5277],[26.5229,52.8659,175.2057],[26.5098,52.8659,175.7104],[26.5015,52.855,182.8359],[26.493,52.8495,174.9225],[26.4763,52.8304,166.1981],[26.455,52.8167,159.2709],[26.4462,52.8166,158.679],[26.4415,52.8219,162.5032],[26.4413,52.8273,174.2133],[26.4498,52.8328,179.6029],[26.4273,52.8434,174.7107],[26.4096,52.8459,181.6213],[26.3957,52.8592,183.9784],[26.3953,52.8673,165.7824],[26.4038,52.8756,177.3575],[26.4167,52.8839,168.3899],[26.4296,52.8894,170.5086],[26.4293,52.8975,171.0411],[26.442,52.9085,176.0683],[26.4551,52.9114,183.4033],[26.468,52.9169,168.482],[26.4678,52.9223,165.3511],[26.4588,52.9276,175.1938],[26.45,52.9276,182.5822],[26.4454,52.9302,182.9366],[26.4451,52.9383,183.4034],[26.4357,52.9518,186.2759],[26.4222,52.957,217.755],[26.399,52.9811,211.7055],[26.3897,52.9918,218.2406],[26.3893,52.9999,226.6787],[26.4023,53.0055,205.5613],[26.4156,53.0057,195.367],[26.4243,53.0085,184.2366],[26.424,53.0166,184.1158],[26.4283,53.0193,189.2867],[26.4415,53.0195,187.4617],[26.446,53.0168,187.9443],[26.4593,53.0142,178.0324],[26.4636,53.017,180.6496],[26.463,53.0305,192.7723],[26.458,53.044,191.0148],[26.4621,53.0521,212.5675],[26.4575,53.0575,202.1198],[26.466,53.063,198.1575],[26.4927,53.0577,203.9465],[26.5108,53.0497,212.1306],[26.5196,53.0498,217.4448],[26.5239,53.0552,221.3392],[26.5277,53.0715,210.3626],[26.5276,53.0769,212.4135],[26.5229,53.0823,207.3752],[26.5139,53.0849,203.0699],[26.5135,53.0957,195.0671],[26.5089,53.0984,193.4919],[26.4912,53.0956,202.2389],[26.4778,53.0982,200.3565],[26.4684,53.1117,207.422],[26.4683,53.1144,208.8435],[26.4725,53.1198,205.8833],[26.4769,53.1226,204.1803],[26.4723,53.1252,205.6953],[26.4588,53.1306,197.6216],[26.4456,53.1278,198.2826],[26.4192,53.1275,194.0806],[26.3603,53.1538,185.2247],[26.351,53.1618,184.9459],[26.332,53.1859,191.8091],[26.3135,53.1964,198.6484],[26.2864,53.1959,205.3086],[26.2771,53.2011,202.3299],[26.2722,53.2091,198.023],[26.272,53.2118,196.6744],[26.2763,53.2173,200.0826],[26.3076,53.2261,179.3711],[26.3069,53.2423,187.1389],[26.3113,53.2451,174.5051],[26.3249,53.2453,181.906],[26.3382,53.251,192.9126],[26.3425,53.2565,193.9122],[26.342,53.2673,197.9543],[26.3464,53.2701,196.6403],[26.3778,53.2706,199.453],[26.3909,53.2762,199.6862],[26.3897,53.306,185.7263],[26.398,53.3223,188.3541],[26.3978,53.3277,187.7775],[26.3932,53.3304,187.0116],[26.3843,53.3303,186.7762],[26.3707,53.3356,167.4148],[26.375,53.341,155.7903],[26.3744,53.3546,180.1229],[26.3697,53.3627,178.1236],[26.3694,53.3681,179.4407],[26.3646,53.3735,153.1068],[26.3555,53.3706,151.0942],[26.3464,53.3704,148.3458],[26.3101,53.3643,162.4195],[26.3005,53.3723,150.555],[26.2912,53.3748,153.8796],[26.2592,53.3742,178.2224],[26.2269,53.379,198.623],[26.2041,53.3758,206.6128],[26.1674,53.3778,181.5931],[26.1258,53.3823,206.3582],[26.1121,53.382,229.4187],[26.0899,53.3707,212.8695],[26.0853,53.3706,188.1074],[26.0848,53.3787,204.9537],[26.0892,53.3816,199.8621],[26.0935,53.3871,227.1246],[26.0886,53.3924,232.9351],[26.084,53.3923,217.9965],[26.0752,53.3867,206.1945],[26.0666,53.3756,212.6009],[26.0622,53.3728,206.1305],[26.0483,53.3752,229.5872],[26.0348,53.3722,241.8307],[26.0209,53.3746,226.2811],[26.0202,53.3855,239.9136],[26.0155,53.3881,226.1235],[26.0063,53.3879,223.0378],[25.9883,53.382,221.5202],[25.979,53.3845,228.172],[25.9695,53.3897,248.8027],[25.9466,53.3892,243.2959],[25.9185,53.3967,273.5479],[25.9138,53.3993,251.3543],[25.9134,53.4047,246.9162],[25.9039,53.4099,234.5596],[25.8946,53.4124,244.5702],[25.8856,53.4095,221.8421],[25.8547,53.3898,226.7393],[25.8457,53.3869,217.9877],[25.836,53.3948,213.1343],[25.8358,53.3975,209.4281],[25.8221,53.3971,214.293],[25.7995,53.3912,234.9137],[25.8001,53.383,225.4772],[25.7863,53.3827,205.2941],[25.7859,53.3881,214.6802],[25.7812,53.3907,208.5122],[25.7583,53.3901,219.03],[25.7487,53.3953,220.8411],[25.7482,53.4034,212.9956],[25.7388,53.4059,229.7469],[25.7204,53.4055,241.2251],[25.7117,53.3998,216.9509],[25.7025,53.3996,220.7532],[25.6937,53.394,228.1096],[25.6941,53.3886,237.4042],[25.6897,53.3857,220.6503],[25.6805,53.3855,239.8799],[25.6769,53.3719,230.0744],[25.6633,53.3688,215.0719],[25.659,53.366,213.0856],[25.6548,53.3605,226.1974],[25.6557,53.347,225.7242],[25.6607,53.3417,213.8188],[25.6573,53.3254,188.629],[25.6527,53.3253,192.3419],[25.6443,53.3143,176.1768],[25.6445,53.3116,183.0435],[25.6496,53.3036,200.1398],[25.6454,53.2981,231.2284],[25.6367,53.2925,230.8433],[25.6275,53.2922,210.8931],[25.6178,53.3001,209.0916],[25.6043,53.2971,210.1881],[25.6049,53.289,221.2892],[25.619,53.2839,224.7837],[25.6194,53.2785,210.4794],[25.6152,53.273,208.3698],[25.6106,53.2729,191.7249],[25.6062,53.2701,207.3614],[25.6066,53.2647,227.5538],[25.6023,53.2619,225.024],[25.6024,53.2592,222.4968],[25.5985,53.251,214.639],[25.5988,53.2456,212.9513],[25.5947,53.2401,212.5991],[25.5956,53.2266,221.2577],[25.6007,53.2186,208.9846],[25.5873,53.2156,210.4985],[25.5829,53.2128,205.4221],[25.5833,53.2074,201.8773],[25.5791,53.2019,186.827],[25.5746,53.2018,167.8688],[25.5702,53.199,173.8926],[25.5708,53.1909,211.0223],[25.5757,53.1856,206.9108],[25.5848,53.1858,201.7818],[25.5987,53.1835,212.3694],[25.6127,53.1784,209.4282],[25.6129,53.1757,204.5938],[25.6089,53.1675,202.3327],[25.6102,53.1486,204.2151],[25.6152,53.1434,198.6688],[25.6163,53.1272,200.2185],[25.6034,53.1161,200.8987],[25.5992,53.1106,190.4104],[25.6002,53.0971,202.9513],[25.6055,53.0864,192.9502],[25.6015,53.0782,193.8055],[25.5928,53.0726,205.4667],[25.5932,53.0673,203.4141],[25.589,53.0618,205.5846],[25.5846,53.059,206.5502],[25.5708,53.0613,208.0199],[25.5574,53.0583,188.4179],[25.5402,53.0444,195.0586],[25.5319,53.0334,195.1239],[25.5232,53.0278,194.3878],[25.4608,53.0129,144.4592],[25.4527,52.9992,147.2753],[25.4531,52.9938,165.4327],[25.4399,52.9881,138.1006],[25.4353,52.988,135.2879],[25.4365,52.9719,135.2804],[25.4416,52.9639,170.3033],[25.4418,52.9612,152.0991],[25.4332,52.9556,139.2556],[25.3928,52.9492,209.831],[25.3608,52.9538,184.4519],[25.3289,52.9558,178.0837],[25.3243,52.9556,180.2413],[25.32,52.9528,178.4303],[25.3301,52.9396,185.8171],[25.3442,52.9319,195.3352],[25.3541,52.9214,190.0013],[25.3545,52.916,199.3003],[25.3454,52.9158,204.1698],[25.3366,52.9129,190.4126],[25.328,52.9073,187.9374],[25.3298,52.8831,181.6178],[25.3345,52.8805,175.0568],[25.3614,52.8839,190.1841],[25.3754,52.8788,181.2082],[25.3758,52.8735,181.152],[25.3632,52.8597,180.7305],[25.35,52.854,174.9691],[25.3137,52.8558,166.8809],[25.304,52.8637,183.131],[25.3036,52.869,168.7223],[25.2985,52.877,163.8698],[25.2971,52.8958,165.1014],[25.2924,52.8983,164.0267],[25.2833,52.8981,166.364],[25.2436,52.8837,164.5919],[25.2261,52.8752,178.6622],[25.2268,52.8671,169.6227],[25.2317,52.8619,162.1819],[25.2319,52.8592,161.5534],[25.2233,52.8536,161.1351],[25.2142,52.8534,163.2258],[25.191,52.8608,176.8134],[25.1908,52.8635,179.7891],[25.1759,52.8793,158.1844],[25.1714,52.8792,159.5379],[25.1626,52.8762,176.9832],[25.1585,52.8708,167.6967],[25.1408,52.8649,171.898],[25.1362,52.8648,170.6743],[25.1369,52.8568,166.7554],[25.1328,52.8513,162.1353],[25.119,52.8536,163.6885],[25.1089,52.8668,166.5986],[25.1041,52.8693,168.7933],[25.0998,52.8665,167.0896],[25.1004,52.8585,168.4978],[25.0963,52.853,161.2321],[25.092,52.8502,163.4916],[25.083,52.85,165.3355],[25.0735,52.8551,161.9304],[25.073,52.8605,166.3515],[25.0901,52.8743,166.2567],[25.0851,52.8796,168.1977],[25.0847,52.8849,168.0239],[25.0797,52.8902,171.9817],[25.0841,52.893,174.3667],[25.0787,52.9036,193.219],[25.083,52.9064,177.6878],[25.0823,52.9144,191.9698],[25.0864,52.9199,192.6949],[25.0862,52.9226,192.3373],[25.0905,52.9254,178.9481],[25.0858,52.928,195.5133],[25.0899,52.9334,193.0788],[25.0897,52.9361,179.2666],[25.0804,52.9385,174.94],[25.0713,52.9383,172.6419],[25.054,52.9271,177.4318],[25.0549,52.9164,176.8253],[25.0471,52.9,173.6495],[25.029,52.8995,173.4333],[25.0197,52.902,178.2668],[25.0,52.9202,175.263],[24.9857,52.9279,190.7479],[24.9853,52.9332,200.5164],[24.9896,52.936,160.4506],[24.9941,52.9362,156.9509],[24.9982,52.9416,156.7119],[24.998,52.9443,161.9679],[24.9928,52.9522,149.5815],[24.9923,52.9576,152.0992],[24.9826,52.9654,155.7379],[24.9594,52.9701,169.6257],[24.9503,52.9698,143.7639],[24.9414,52.9669,136.9254],[24.9376,52.9587,136.4841],[24.9287,52.9557,137.4216],[24.915,52.9553,136.0483],[24.9052,52.9631,137.407],[24.9007,52.963,138.7506],[24.892,52.9573,159.4946],[24.8827,52.9597,168.4824],[24.8736,52.9595,173.3752],[24.8467,52.9533,164.166],[24.8376,52.953,191.492],[24.8237,52.9552,171.3046],[24.8141,52.9603,146.6005],[24.8004,52.9599,147.1024],[24.7814,52.9673,177.291],[24.7769,52.9672,180.836],[24.7639,52.9587,172.7621],[24.7593,52.9586,177.6691],[24.7545,52.9611,166.955],[24.7408,52.9606,181.5566],[24.736,52.9632,181.8727],[24.7355,52.9685,183.9992],[24.7396,52.974,172.8778],[24.7391,52.9793,173.2581],[24.743,52.9875,180.1241],[24.7425,52.9929,179.4296],[24.7375,52.9981,182.7462],[24.7146,52.9973,177.0217],[24.7148,52.9946,177.5611],[24.7105,52.9918,181.5046],[24.711,52.9865,195.5592],[24.7066,52.9836,197.4558],[24.6883,52.983,179.5969],[24.689,52.975,175.0743],[24.6804,52.9693,175.5023],[24.6314,52.9516,183.8228],[24.6273,52.9461,180.2713],[24.6285,52.9327,184.0641],[24.6334,52.9302,184.2395],[24.6661,52.9233,201.2183],[24.6666,52.918,197.9466],[24.6621,52.9178,182.9358],[24.6445,52.9092,201.7554],[24.6305,52.9114,199.9737],[24.6213,52.9111,197.1964],[24.6085,52.8999,175.9988],[24.6045,52.8944,176.791],[24.5871,52.8831,177.7144],[24.5876,52.8777,173.8609],[24.597,52.8754,174.1183],[24.6115,52.8679,170.7723],[24.6168,52.8601,169.6235],[24.6226,52.8469,172.5137],[24.6139,52.8412,185.1522],[24.6048,52.8409,176.1913],[24.6005,52.8381,179.9445],[24.5971,52.8246,193.0232],[24.5928,52.8218,181.4647],[24.5935,52.8138,191.0006],[24.5803,52.808,179.6649],[24.5805,52.8053,182.4595],[24.5856,52.8001,183.6196],[24.5902,52.8003,183.016],[24.5998,52.7953,172.7558],[24.5967,52.7792,170.2016],[24.5975,52.7712,163.3509],[24.5797,52.7652,174.5268],[24.5751,52.765,166.6178],[24.5654,52.77,169.3803],[24.5517,52.7695,167.6242],[24.5522,52.7642,174.6231],[24.5568,52.7644,173.3209],[24.557,52.7617,172.0334],[24.5527,52.7589,179.4601],[24.5343,52.7582,174.6773],[24.5341,52.7609,165.7911],[24.5249,52.7605,174.8273],[24.5117,52.7547,158.9604],[24.4933,52.754,159.4162],[24.4741,52.7612,159.4751],[24.4506,52.7656,160.1108],[24.4452,52.7734,160.6171],[24.4208,52.7857,161.0243],[24.407,52.7851,178.129],[24.3939,52.7765,160.2886],[24.3713,52.7702,161.7028],[24.3018,52.7669,161.8725],[24.2927,52.7638,160.0002],[24.2832,52.766,177.7571],[24.2829,52.7686,170.43],[24.2871,52.7742,169.8681],[24.2866,52.7795,168.6958],[24.2633,52.7783,159.9242],[24.259,52.7754,160.4158],[24.2592,52.7728,160.3318],[24.2553,52.7646,159.2709],[24.2561,52.7566,160.9013],[24.2517,52.7537,165.5327],[24.2424,52.7532,160.784],[24.2419,52.7585,159.4141],[24.2458,52.7667,159.7168],[24.2362,52.7689,159.7019],[24.2037,52.7671,158.0107],[24.1995,52.7615,157.8957],[24.1998,52.7589,157.9342],[24.1809,52.7605,158.8485],[24.1612,52.77,165.5148],[24.1607,52.7754,169.3449],[24.1558,52.7777,156.2751],[24.1644,52.7863,160.0364],[24.1629,52.8023,176.1367],[24.1533,52.8044,176.3645],[24.1433,52.8118,174.7106],[24.1386,52.8115,167.9842],[24.1242,52.816,179.3037],[24.1148,52.8153,176.9896],[24.1151,52.8127,170.3795],[24.1107,52.8097,166.1543],[24.1114,52.8017,166.3715],[24.0976,52.7981,177.9284],[24.0983,52.7901,179.4943],[24.0939,52.7871,183.7418],[24.0232,52.7868,169.9152],[24.0187,52.7837,183.6521],[24.0237,52.7815,167.4339],[24.0239,52.7788,164.2104],[24.0194,52.7757,168.8217],[23.9574,52.7748,178.2438],[23.939,52.7726,178.3206],[23.9389,52.754,162.5742],[23.9304,52.7577,159.5826],[23.9316,52.709,185.7943],[23.9001,52.6912,169.0349],[23.8925,52.6797,161.8203],[23.8794,52.6797,177.529],[23.7808,52.6271,163.3577],[23.7757,52.6225,154.8303],[23.7715,52.6222,164.9979],[23.7661,52.618,165.1728],[23.7562,52.6145,155.9997],[23.7392,52.612,164.7827],[23.7342,52.6065,149.7992],[23.7331,52.609,158.9047],[23.7304,52.609,154.0155],[23.7198,52.6146,155.8157],[23.7027,52.6136,190.9416],[23.6414,52.6075,186.2845],[23.5877,52.5941,179.3633],[23.5402,52.5802,181.8629],[23.5041,52.5662,179.7793],[23.4666,52.5494,182.5856],[23.4579,52.5404,190.6577],[23.4358,52.53,186.8527],[23.421,52.5206,182.6615],[23.3567,52.4689,178.1779],[23.3122,52.425,153.2836],[23.3103,52.414,159.21],[23.2999,52.4038,163.2041],[23.278,52.3928,174.1258],[23.2413,52.3574,168.1102],[23.2156,52.3297,174.2615],[23.1783,52.2831,122.0767],[23.1978,52.2791,123.0233],[23.2044,52.2757,123.094],[23.1997,52.2678,125.049],[23.2056,52.2572,123.9127],[23.2016,52.2498,122.8993],[23.1979,52.2472,121.8882],[23.1941,52.2395,123.019],[23.2005,52.229,124.4576],[23.2037,52.2266,122.5658],[23.219,52.2252,123.2898],[23.2362,52.2202,123.8439],[23.2523,52.2187,124.6871],[23.2675,52.2149,127.8877],[23.2906,52.2159,135.2548],[23.3068,52.2208,125.9825],[23.3073,52.2174,122.7375],[23.3051,52.215,123.4633],[23.2992,52.2136,125.2306],[23.2991,52.2117,124.6268],[23.3147,52.208,125.0668],[23.3292,52.2097,126.0922],[23.3377,52.2062,124.4226],[23.3447,52.2099,125.3995],[23.3525,52.2107,123.7221],[23.3548,52.2091,124.1498],[23.3517,52.2057,125.1552],[23.3531,52.2044,124.2614],[23.366,52.208,123.2942],[23.3705,52.2048,123.9915],[23.3702,52.1979,126.2717],[23.3721,52.1961,126.7743],[23.3803,52.1949,125.7395],[23.3873,52.1971,126.3018],[23.4015,52.1935,125.9449],[23.3971,52.1868,127.3817],[23.3998,52.1781,126.3226],[23.4056,52.178,125.9326],[23.4126,52.1824,127.7803],[23.4131,52.1781,127.1008],[23.419,52.1795,124.8134],[23.4221,52.1741,125.971],[23.4249,52.1725,128.7867],[23.432,52.1734,126.6113],[23.4453,52.1831,127.3175],[23.4491,52.182,128.4511],[23.4582,52.1846,126.5284],[23.4623,52.1833,127.0263],[23.4617,52.1775,129.2233],[23.4671,52.1742,127.2837],[23.4712,52.1743,128.307],[23.4767,52.1772,131.686],[23.4835,52.1761,130.466],[23.4903,52.181,126.7199],[23.5012,52.1789,129.0023],[23.5054,52.1765,127.9789],[23.5058,52.1727,128.8736],[23.4979,52.1717,126.9962],[23.4969,52.1745,128.2861],[23.4926,52.1751,127.6544],[23.4956,52.1701,127.653],[23.4899,52.1682,128.146],[23.486,52.1647,127.2372],[23.4895,52.1599,128.0118],[23.487,52.1548,133.1183],[23.4882,52.1516,126.7914],[23.5008,52.147,132.8552],[23.5066,52.1504,128.9106],[23.5109,52.1496,129.2601],[23.5153,52.143,128.4593],[23.5143,52.1372,135.73],[23.5187,52.1385,133.5984],[23.5212,52.1329,130.3968],[23.5269,52.1314,128.5466],[23.5331,52.1326,128.6519],[23.5371,52.1294,129.1605],[23.5422,52.128,133.0735],[23.5434,52.1196,129.4404],[23.5484,52.1154,128.236],[23.5478,52.1115,132.3028],[23.5502,52.1094,131.6913],[23.5563,52.1105,130.9078],[23.556,52.1176,130.2537],[23.5581,52.119,132.479],[23.5586,52.1134,130.4675],[23.5802,52.1199,131.4999],[23.5876,52.1173,134.2846],[23.5986,52.1174,131.9333],[23.6044,52.114,130.1964],[23.6086,52.1092,130.5509],[23.619,52.1049,130.1555],[23.6108,52.1027,130.4127],[23.6116,52.0982,132.2147],[23.6225,52.0902,129.9604],[23.6402,52.0858,132.7335],[23.6403,52.0809,133.3167],[23.6438,52.077,134.9482],[23.644,52.0743,138.0053],[23.6518,52.0749,134.0612],[23.6536,52.0727,132.9215],[23.6523,52.07,134.9222],[23.6484,52.072,135.8423],[23.6442,52.0717,136.8029],[23.6445,52.069,135.6368],[23.6502,52.0686,134.312],[23.6442,52.0651,132.2467],[23.6474,52.0628,134.0679],[23.6537,52.0627,134.2959],[23.655,52.0591,132.7275],[23.6445,52.0608,132.9075],[23.6423,52.0597,132.8298],[23.6435,52.0578,132.8],[23.6538,52.0548,133.2306],[23.6577,52.0437,133.4264],[23.6627,52.0399,133.1178],[23.6621,52.0367,135.7356],[23.6564,52.0325,135.4647],[23.6566,52.0298,134.6036],[23.661,52.0301,136.6041],[23.6632,52.0249,134.7207],[23.6573,52.0187,133.8815],[23.6672,52.0146,135.89],[23.6749,52.0045,135.1856],[23.6842,51.9997,137.6228],[23.6774,51.9985,135.7867],[23.665,51.992,136.9684],[23.666,51.9834,136.8495],[23.6702,51.9812,136.9885],[23.6649,51.9777,137.7942],[23.6493,51.9766,141.3891],[23.65,51.971,138.1458],[23.6457,51.9706,138.5251],[23.646,51.9678,139.5618],[23.6421,51.9646,140.2122],[23.6295,51.9634,139.8111],[23.63,51.9579,141.6503],[23.6424,51.9618,139.2122],[23.6431,51.9551,136.7697],[23.6398,51.9535,136.7641],[23.6295,51.9525,139.9444],[23.6269,51.9486,138.7607],[23.6289,51.9475,138.7607],[23.6379,51.9502,138.7058],[23.6404,51.9497,136.846],[23.6416,51.9477,139.7073],[23.6402,51.9429,138.1988],[23.6454,51.9388,138.1691],[23.6459,51.9345,140.6388],[23.6437,51.9318,143.9546],[23.6322,51.9313,140.4639],[23.6306,51.9289,137.8744],[23.6302,51.922,140.0462],[23.6199,51.9252,142.2426],[23.6123,51.9193,141.2555],[23.612,51.9174,145.5895],[23.6204,51.911,139.9138],[23.6199,51.9073,142.372],[23.6175,51.9054,140.1362],[23.6184,51.9035,141.2419],[23.6333,51.8985,139.5528],[23.6242,51.8923,142.0367],[23.6286,51.8925,142.6521],[23.6293,51.8894,144.8734],[23.6235,51.8869,140.6331],[23.6222,51.8844,142.9541],[23.6295,51.8793,140.2368],[23.6317,51.8753,141.8266],[23.6303,51.8734,142.6425],[23.6276,51.8732,141.416],[23.617,51.8783,145.2386],[23.6071,51.8763,149.939],[23.61,51.8613,144.5717],[23.6162,51.858,142.5838],[23.6157,51.8546,142.0636],[23.6123,51.8517,145.9992],[23.6121,51.8485,145.0878],[23.6035,51.848,143.3049],[23.6037,51.8452,145.3661],[23.612,51.8454,146.2746],[23.6075,51.8428,144.5904],[23.6014,51.8421,143.9951],[23.6001,51.8405,148.6983],[23.6093,51.8387,147.3787],[23.6087,51.8366,144.2925],[23.6021,51.8342,143.7238],[23.6029,51.8303,141.6883],[23.6182,51.8317,144.5024],[23.6221,51.8301,146.8075],[23.6245,51.8261,143.4416],[23.6215,51.8209,142.4294],[23.6285,51.819,146.69],[23.6331,51.8113,143.1465],[23.6399,51.8053,143.514],[23.6413,51.8002,146.8272],[23.6344,51.7954,143.7382],[23.6372,51.7937,146.0687],[23.6359,51.7912,143.0374],[23.6304,51.7922,144.3477],[23.6285,51.7908,142.6909],[23.6312,51.7865,143.3854],[23.6313,51.7814,143.9212],[23.6266,51.7827,146.0579],[23.6254,51.7819,145.314],[23.6265,51.7809,147.5255],[23.6234,51.7806,147.386],[23.6257,51.7797,144.4625],[23.6228,51.7779,146.4111],[23.616,51.7775,145.4085],[23.6151,51.7766,144.5326],[23.6168,51.7747,145.2569],[23.615,51.7727,143.7975],[23.597,51.7722,146.071],[23.5943,51.7666,144.9507],[23.589,51.7637,149.7106],[23.5872,51.7595,144.5131],[23.5815,51.7603,147.7892],[23.5739,51.758,147.6304],[23.5735,51.7606,146.4941],[23.5696,51.7597,147.1376],[23.5699,51.7576,145.8647],[23.5656,51.7574,145.8097],[23.5621,51.7608,148.839],[23.559,51.7616,145.3297],[23.5565,51.7576,145.5012],[23.55,51.7546,147.1544],[23.546,51.7484,146.4575],[23.5405,51.7454,148.4223],[23.5309,51.7436,147.5921],[23.5323,51.7371,146.3076],[23.527,51.7298,148.9811],[23.5346,51.7281,148.0535],[23.5341,51.7237,150.244],[23.5373,51.7225,150.244],[23.5435,51.7239,149.6125],[23.5429,51.7266,147.7988],[23.544,51.7275,152.8489],[23.5469,51.7272,152.8489],[23.5483,51.7191,148.2841],[23.553,51.7162,149.002],[23.5473,51.7101,148.9742],[23.5542,51.7095,148.8393],[23.5555,51.7071,150.444],[23.5485,51.7042,147.8481],[23.5587,51.7013,152.0812],[23.5604,51.699,148.8437],[23.5555,51.6962,149.8545],[23.5547,51.6916,150.0993],[23.5498,51.6875,149.6778],[23.5489,51.6847,150.1614],[23.556,51.6813,147.9497],[23.5522,51.6747,150.3031],[23.5582,51.6653,150.9424],[23.5545,51.6629,150.6967],[23.5466,51.6631,150.8371],[23.5428,51.6581,152.9886],[23.5393,51.6568,150.6555],[23.5437,51.6516,152.1892],[23.5402,51.6495,151.9189],[23.5374,51.6446,151.562],[23.5384,51.6438,151.9459],[23.5422,51.6454,151.2451],[23.5478,51.642,151.0249],[23.5477,51.6369,152.1781],[23.5393,51.6338,152.4915],[23.5437,51.6308,153.5087],[23.5429,51.6257,153.6165],[23.5465,51.6209,152.1264],[23.5445,51.6158,154.3947],[23.5403,51.6122,159.0878],[23.5431,51.6113,150.7759],[23.5424,51.6079,156.2225],[23.544,51.605,153.9341],[23.5403,51.6019,152.8718],[23.549,51.5977,152.132],[23.5506,51.5916,152.5365],[23.5544,51.588,152.4656],[23.5532,51.5836,153.3036],[23.564,51.5812,153.2013],[23.5671,51.5792,156.65],[23.5679,51.5756,154.9058],[23.5642,51.5696,157.7729],[23.5689,51.5676,155.0157],[23.5677,51.563,155.8113],[23.569,51.5609,158.4695],[23.5765,51.5589,154.8062],[23.5652,51.55,156.5904],[23.5625,51.5441,157.3417],[23.5648,51.5407,155.0566],[23.5646,51.5353,156.8911],[23.569,51.5327,159.033],[23.5771,51.5322,155.066],[23.5854,51.5289,159.0491],[23.5874,51.5295,154.7976],[23.5903,51.5344,155.8313],[23.5953,51.5348,155.1987],[23.6025,51.529,158.3432],[23.6128,51.5288,161.916],[23.6144,51.5226,159.336],[23.6258,51.5138,165.1511],[23.6478,51.5106,188.5009],[23.6575,51.5115,179.9327],[23.667,51.5075,188.8328],[23.6826,51.5119,178.0589],[23.689,51.5173,176.3585],[23.6904,51.5234,182.3577],[23.6888,51.532,175.2805],[23.6787,51.5493,172.0674],[23.6721,51.5542,172.509],[23.6722,51.5602,178.0191],[23.6752,51.5675,174.559],[23.69,51.5809,171.5911],[23.6901,51.5899,172.8944],[23.6732,51.6026,178.6401],[23.6649,51.6029,173.3596],[23.6651,51.6089,169.6491],[23.658,51.6155,169.7564],[23.6555,51.6159,163.8185],[23.6596,51.6242,179.4211],[23.6627,51.6375,171.129],[23.6779,51.6461,172.1963],[23.7074,51.6518,158.0319],[23.7301,51.6537,157.2959],[23.7681,51.6529,171.6157],[23.7789,51.6541,180.2382],[23.7906,51.6581,171.8363],[23.8386,51.6586,166.8829],[23.8445,51.6387,169.6432],[23.8579,51.6318,181.2209],[23.8789,51.6397,170.4665],[23.9033,51.6347,167.6481],[23.9451,51.6389,159.1388],[23.9729,51.6268,163.1768],[23.9661,51.6185,171.5035],[23.9673,51.6119,175.229],[23.9531,51.5916,162.0159],[23.9434,51.5893,163.0451],[23.9524,51.5869,165.8032],[23.9679,51.5937,160.5641],[23.9927,51.594,166.2711],[24.0097,51.592,161.4436],[24.0271,51.5841,178.9383],[24.0697,51.5932,176.802],[24.12,51.6211,178.9723],[24.1526,51.651,176.4812],[24.1601,51.6644,175.3436],[24.1594,51.6702,173.3343],[24.1932,51.6884,177.1269],[24.2021,51.6899,176.653],[24.2543,51.7108,160.7706],[24.2633,51.7122,160.473],[24.2806,51.721,160.1053],[24.3135,51.7505,163.3606],[24.3401,51.7605,169.0372],[24.3473,51.7739,169.9615],[24.3554,51.7811,177.348],[24.3543,51.7872,174.0129],[24.3418,51.8043,162.8129],[24.3359,51.8348,153.2791],[24.3425,51.8484,152.5903],[24.357,51.8696,151.3849],[24.3728,51.8847,153.6822],[24.3869,51.9106,150.3413],[24.4055,51.9165,150.5373],[24.4717,51.9186,150.344],[24.4904,51.9129,151.1854],[24.4999,51.913,158.1677],[24.5188,51.9188,158.6953],[24.5567,51.9247,154.4499],[24.5849,51.9248,163.9139],[24.6039,51.9307,151.1992],[24.6322,51.9308,163.9536],[24.6415,51.9251,162.1225],[24.6792,51.9253,157.2844],[24.6793,51.9196,150.1309],[24.6985,51.9141,149.5489],[24.7458,51.9145,150.8125],[24.7561,51.9033,150.0085],[24.766,51.8978,150.3929],[24.7849,51.8979,156.2608],[24.8033,51.9037,153.425],[24.8128,51.9037,156.8058],[24.8405,51.9282,157.2303],[24.8594,51.9347,154.444],[24.8691,51.9292,155.3164],[24.8696,51.9177,156.8944],[24.8792,51.9181,153.8889],[24.8891,51.9129,154.9498],[24.8984,51.919,152.2652],[24.9268,51.926,161.1672],[24.946,51.9268,156.0431],[24.9654,51.922,155.1513],[24.9754,51.9168,145.0],[24.995,51.9123,152.0072],[25.0041,51.9181,149.996],[25.0321,51.9251,148.4179],[25.0411,51.9313,146.007],[25.0498,51.9432,152.4553],[25.0683,51.9498,145.5929],[25.0869,51.9623,150.0653],[25.1245,51.9641,162.2401],[25.1621,51.9717,157.3149],[25.2184,51.9744,154.0199],[25.2465,51.9816,155.3076],[25.2653,51.9825,156.9423],[25.2747,51.9772,148.6064],[25.2841,51.9834,148.5248],[25.3028,51.9843,152.232],[25.3029,51.9786,148.8023],[25.3409,51.9691,142.262],[25.3503,51.9696,142.3948],[25.3603,51.9589,143.6407],[25.37,51.9537,141.9722],[25.3703,51.9482,144.0947],[25.3891,51.9491,142.5896],[25.4083,51.9445,147.1636],[25.418,51.9395,141.6651],[25.4274,51.94,141.3552],[25.4372,51.935,142.6513],[25.4748,51.9369,140.8881],[25.4847,51.9318,145.5095],[25.4941,51.9323,150.9208],[25.521,51.9502,147.6578],[25.5305,51.9507,150.4817],[25.5402,51.9457,140.164],[25.5496,51.9461,140.6274],[25.5588,51.9519,140.8458],[25.5682,51.9523,140.5338],[25.6068,51.9426,139.9623],[25.6257,51.9433,139.6333],[25.6262,51.9378,146.6726],[25.6451,51.9384,149.8605],[25.655,51.9332,154.7229],[25.7117,51.9353,154.2146],[25.7216,51.9301,148.0179],[25.8068,51.9331,143.8213],[25.8065,51.9387,151.4331],[25.7964,51.9549,152.0474],[25.7963,51.9605,148.8508],[25.825,51.9615,147.5824],[25.8444,51.9567,148.2945],[25.854,51.9571,154.2524],[25.8546,51.9405,139.8602],[25.9029,51.9423,139.1643],[25.9227,51.932,137.3578],[25.9519,51.9275,141.4423],[25.9616,51.9279,137.9624],[25.9804,51.9398,138.9001],[26.0479,51.9423,137.5292],[26.0675,51.9376,137.8522],[26.0969,51.9221,137.9901],[26.1065,51.9225,138.2889],[26.1163,51.9284,140.7318],[26.1448,51.9128,137.5925],[26.1642,51.8967,138.8165],[26.1936,51.881,140.9572],[26.203,51.8813,140.7621],[26.2223,51.8765,141.8124],[26.2886,51.8792,141.9433],[26.3344,51.8756,146.2495],[26.3367,51.8772,145.935],[26.3392,51.8756,143.8095],[26.3666,51.8766,152.4203],[26.3899,51.8816,142.097],[26.3943,51.8846,142.6716],[26.4054,51.8849,141.523],[26.4209,51.8939,137.9353],[26.4209,51.8853,139.4802],[26.4188,51.8754,141.8867],[26.4125,51.8618,143.83],[26.4131,51.8563,151.1894],[26.423,51.8511,154.6691],[26.4235,51.8455,148.4184],[26.4423,51.8463,166.9551],[26.4522,51.8412,158.7549],[26.4626,51.8303,166.4576],[26.4725,51.8251,166.4491],[26.4918,51.8203,168.3556],[26.5022,51.8093,164.7467],[26.5117,51.8098,149.5349],[26.5217,51.8044,147.8033],[26.5407,51.8054,146.6315],[26.5588,51.8122,147.113],[26.5684,51.8126,161.3976],[26.5786,51.8292,158.5452],[26.598,51.8353,144.3791],[26.6266,51.8364,143.096],[26.6653,51.8324,141.6292],[26.6758,51.8272,141.2571],[26.6933,51.8335,150.0218],[26.7118,51.8342,146.4149],[26.7327,51.824,134.853],[26.7498,51.8303,135.3718],[26.759,51.8307,135.7514],[26.7694,51.8256,135.0438],[26.7785,51.826,135.1897],[26.7893,51.7927,136.9357],[26.8007,51.7876,137.9415],[26.8099,51.788,148.7823],[26.8074,51.7762,149.8351],[26.8163,51.7708,144.9209],[26.8265,51.7714,145.1076],[26.8673,51.781,141.9494],[26.8844,51.7817,136.9264],[26.8873,51.7773,135.4979],[26.9361,51.7705,152.6288],[26.9449,51.771,147.3822],[26.9852,51.764,139.0131],[26.9928,51.7768,146.4816],[26.9985,51.7816,138.2919],[27.1935,51.7873,138.0551],[27.1945,51.7813,138.3843],[27.1891,51.7632,139.2429],[27.1993,51.6837,142.4605],[27.2093,51.6714,145.7823],[27.2506,51.6733,143.1188],[27.262,51.6679,144.2436],[27.2625,51.6553,150.7501],[27.2516,51.6418,149.5574],[27.2399,51.6345,151.1486],[27.2296,51.6148,152.3483],[27.2302,51.6024,154.7001],[27.2393,51.6026,154.7741],[27.2594,51.6105,161.2603],[27.2894,51.6129,167.0113],[27.2993,51.6074,157.1592],[27.3193,51.609,149.4577],[27.3392,51.6169,148.4705],[27.349,51.6241,148.265],[27.3688,51.6193,147.2064],[27.3788,51.6138,146.8761],[27.4183,51.6169,143.6161],[27.418,51.6232,143.986],[27.4272,51.6303,143.2115],[27.4466,51.6318,142.5088],[27.457,51.6263,147.4183],[27.4576,51.62,147.4049],[27.4674,51.6208,141.8564],[27.4667,51.6269,141.8917],[27.4764,51.6275,150.4812],[27.4771,51.6215,153.1081],[27.4868,51.6221,139.4432],[27.4782,51.6089,141.2347],[27.488,51.6097,140.5238],[27.4982,51.6042,140.8872],[27.518,51.6057,141.4295],[27.5166,51.6176,143.0805],[27.507,51.6171,151.6873],[27.5061,51.623,145.0783],[27.4957,51.6285,140.1463],[27.4941,51.6403,142.2098],[27.503,51.6465,148.15],[27.5126,51.6469,141.8186],[27.5238,51.6356,148.8025],[27.5298,51.6358,145.0103],[27.5298,51.6369,145.0103],[27.5224,51.6435,140.376],[27.5221,51.6573,150.1165],[27.4858,51.7195,139.5917],[27.4853,51.7276,137.7095],[27.4979,51.7437,137.26],[27.5067,51.7464,137.5952],[27.5159,51.7438,137.9449],[27.5293,51.7465,138.3199],[27.538,51.7518,142.536],[27.5469,51.7545,140.3406],[27.5552,51.7653,140.2201],[27.5502,51.7733,143.8443],[27.5406,51.784,139.9758],[27.5401,51.7921,139.796],[27.5527,51.8082,153.5367],[27.5523,51.8162,138.7862],[27.5471,51.8297,135.9209],[27.5278,51.8538,136.6484],[27.5094,51.8619,133.8635],[27.5049,51.8619,133.2123],[27.4956,51.8699,133.1224],[27.5262,51.886,132.8516],[27.5388,51.913,133.6709],[27.5385,51.9238,136.0081],[27.5337,51.9346,136.3067],[27.5198,51.9508,131.1713],[27.5195,51.9643,135.1681],[27.5283,51.9751,139.7295],[27.5372,51.9805,132.3409],[27.5686,51.994,134.382],[27.5731,51.994,141.1068],[27.6001,52.0049,126.6432],[27.6135,52.0184,126.1227],[27.6179,52.0265,125.7431],[27.6178,52.04,126.1272],[27.6132,52.0509,125.8111],[27.6041,52.0563,125.3705],[27.586,52.0536,126.1641],[27.5815,52.0563,126.4681],[27.577,52.059,125.7632],[27.5723,52.0752,126.2691],[27.5633,52.0779,126.1063],[27.5452,52.078,126.0637],[27.5407,52.0807,125.989],[27.5272,52.0834,125.707],[27.5271,52.0915,125.1047],[27.5315,52.1023,124.7426],[27.527,52.1104,126.4012],[27.527,52.1159,125.8122],[27.5314,52.1186,125.5803],[27.5314,52.124,126.7489],[27.5268,52.1321,125.5611],[27.5358,52.1429,126.0983],[27.5357,52.151,127.18],[27.5403,52.151,130.2482],[27.5402,52.1537,128.2518],[27.5357,52.1564,127.6154],[27.5357,52.1591,129.6088],[27.5447,52.1645,127.7406],[27.5401,52.1699,128.8928],[27.5536,52.178,134.6573],[27.5536,52.1834,137.1098],[27.54,52.1943,135.1129],[27.5399,52.197,134.0024],[27.5444,52.2024,135.3099],[27.5488,52.2131,135.924],[27.5533,52.2158,132.4333],[27.5669,52.2158,146.5913],[27.5714,52.2185,137.185],[27.5713,52.2212,141.1719],[27.5577,52.2293,135.9483],[27.5577,52.2374,138.6491],[27.5622,52.2401,140.3245],[27.5621,52.2536,140.0291],[27.5576,52.2563,138.4979],[27.544,52.2537,139.3294],[27.5395,52.2564,136.5194],[27.5395,52.2618,139.3533],[27.5439,52.2645,148.1169],[27.5439,52.2699,142.3778],[27.5258,52.2699,139.918],[27.5258,52.278,141.2887],[27.5212,52.2808,140.1688],[27.5032,52.2781,134.9207],[27.4986,52.2862,139.0697],[27.4896,52.2917,135.8194],[27.4851,52.2917,139.7358],[27.4805,52.2944,133.9593],[27.4805,52.2971,140.1384],[27.476,52.2998,137.3723],[27.4489,52.2971,138.0871],[27.4309,52.2972,131.7087],[27.4173,52.2999,135.5452],[27.4172,52.3107,131.4545],[27.4081,52.3161,132.2345],[27.3946,52.3188,142.7478],[27.3855,52.3243,134.7537],[27.3854,52.3351,133.3994],[27.3718,52.3378,136.3642],[27.3222,52.3378,133.3365],[27.2817,52.3351,134.4429],[27.2727,52.3378,134.0563],[27.2726,52.3459,134.9241],[27.2769,52.3567,133.9512],[27.2768,52.3648,134.0397],[27.2632,52.373,134.7242],[27.2854,52.3973,135.1071],[27.2898,52.4055,134.9331],[27.2718,52.4054,134.7518],[27.2627,52.4081,135.1083],[27.2491,52.4136,135.2161],[27.2355,52.4217,135.4668],[27.2354,52.4271,135.6755],[27.2264,52.4298,136.1755],[27.1724,52.4297,136.3138],[27.1676,52.4487,137.3351],[27.1674,52.4595,137.4985],[27.1628,52.4622,137.8487],[27.1404,52.4622,137.8334],[27.1354,52.4865,150.963],[27.1352,52.5,155.2349],[27.0902,52.5,142.7209],[27.0767,52.5027,143.3705],[27.0722,52.5054,142.0756],[27.0671,52.5351,159.7145],[27.0444,52.5459,143.8196],[27.0444,52.5486,142.8645],[27.0668,52.5486,157.2646],[27.0757,52.5541,147.5056],[27.0756,52.5595,157.2072],[27.071,52.5649,148.7255],[27.0709,52.5676,151.7051],[27.0753,52.573,155.4317],[27.0753,52.5757,149.3143],[27.0572,52.5784,155.6743],[27.0481,52.5838,154.3027],[27.0479,52.5919,153.4208],[27.0431,52.6108,151.2715],[27.0475,52.6136,154.8153],[27.0791,52.6136,151.556],[27.079,52.6163,152.9631],[27.0605,52.6434,146.5072],[27.0557,52.6569,153.2406],[27.0466,52.6596,152.3529],[27.024,52.6595,146.7762],[27.0195,52.6622,146.774],[27.0193,52.6731,148.1379]]]]}
,"properties": {"GID_1": "BLR.1_1","GID_0": "BLR","country": "Belarus","province": "Brest","VARNAME_1": "Брест|BrestskayaVoblasts'|Brèst","NL_NAME_1": "Брэсцкая","TYPE_1": "Oblast","ENGTYPE_1": "Region","CC_1": "NA","HASC_1": "BY.BR","ISO_1": "NA","name": "Brest.province","area_km2": 32591.58,"hist_schema_id": "Elevation0-9000","hist_area_km2": {"0": 0.4,"25": 0.62,"50": 0.52,"75": 0.56,"100": 0.92,"125": 4588.97,"150": 18508.59,"175": 7120.01,"200": 1985.77,"225": 353.0,"250": 31.07,"275": 1.14}}}