{"type": "Feature","id": 116148.0,"bbox": [25.900889519146233,52.668768621869077,25.998057487896233,52.711004949994077],"geometry": {"type": "Polygon","coordinates": [[[25.938243034771233,52.670294500775327,152.0],[25.938243034771233,52.670294500775327,152.0],[25.965830925396233,52.668768621869077,152.0],[25.990977409771233,52.676642157025327,152.0],[25.998057487896233,52.691290594525327,154.0331],[25.983775261333733,52.703741766400327,156.1112],[25.950694206646233,52.711004949994077,163.0174],[25.916636589458733,52.710089422650327,169.4205],[25.900889519146233,52.698553778119077,154.4682],[25.911753776958733,52.680670477337827,152.0],[25.938243034771233,52.670294500775327,152.0]]]}
,"properties": {"name": null,"lge_id": null,"pfafstette": 8673.0,"lke_type": "N","altitude": 148,"objectid": 68809,"scalerank": 12,"featurecla": "Lake","note": "_untitled_68809","funkyname": 0,"min_zoom": 7.0,"min_label": 8.0,"area_km2": 22.7207,"hist_schema_id": "Elevation0-9000","hist_area_km2": {"150": 19.61184,"175": 3.10886}}}