{"type":"Feature","properties":{"id":116859.0,"name":null,"lge_id":null,"pfafstette":4649533.0,"lke_type":"N","altitude":144,"objectid":67543,"scalerank":11,"featurecla":"Lake","note":"_untitled_67543","funkyname":0,"min_zoom":6.7,"min_label":7.7},
"geometry":{"type": "Polygon","coordinates": [[[24.974986198833733,52.600714422650327,148.5],[24.974986198833733,52.600714422650327,148.5],[24.971934441021233,52.609503485150327,152.4815],[24.962168816021233,52.625006414837827,170.5771],[24.934214714458733,52.636542059369077,151.3802],[24.915049675396233,52.638067938275327,150.8231],[24.899302605083733,52.635931707806577,157.1383],[24.888682487896233,52.642584539837827,161.0044],[24.880381706646233,52.651434637494077,157.3297],[24.858897331646233,52.648382879681577,173.6379],[24.820323112896233,52.646551824994077,166.431],[24.794932487896233,52.634466864056577,160.159],[24.803599480083733,52.623785711712827,152.0],[24.821787956646233,52.617682196087827,152.0],[24.833262566021233,52.615851141400327,152.0],[24.851573112896233,52.618292547650327,152.0],[24.889292839458733,52.612189032025327,150.5],[24.913951042583733,52.607367254681577,150.3244],[24.935557487896233,52.593817449994077,148.0579],[24.957041862896233,52.580145574994077,145.6664],[24.974619987896233,52.576239324994077,146.6107],[24.974986198833733,52.600714422650327,148.5]]]}}