{"type": "Feature","id": 117304.0,"bbox": [26.252452019146233,52.279059149212827,26.338145378521233,52.331671453900327],"geometry": {"type": "Polygon","coordinates": [[[26.300181511333733,52.286383367962827,136.0],[26.300181511333733,52.286383367962827,136.0],[26.311778191021233,52.292486883587827,136.736],[26.325083855083733,52.310126043744077,135.5],[26.338145378521233,52.327154852337827,136.6774],[26.312022331646233,52.331671453900327,138.1432],[26.283213737896233,52.329230047650327,137.0166],[26.265513542583733,52.325018621869077,136.1097],[26.252452019146233,52.320135809369077,139.3191],[26.258311394146233,52.306769110150327,135.5],[26.262461784771233,52.291876532025327,137.0679],[26.267100456646233,52.280035711712827,134.5],[26.280039909771233,52.279059149212827,135.0],[26.300181511333733,52.286383367962827,136.0]]]}
,"properties": {"name": null,"lge_id": null,"pfafstette": 464215.0,"lke_type": "N","altitude": 133,"objectid": 68493,"scalerank": 12,"featurecla": "Lake","note": "_untitled_68493","funkyname": 0,"min_zoom": 7.0,"min_label": 8.0,"area_km2": 21.80419,"hist_schema_id": "Elevation0-9000","hist_area_km2": {"125": 14.94786,"150": 6.85633}}}