{"type":"Feature","properties":{"GID_2":"BLR.3.3_1","GID_0":"BLR","country":"Belarus","GID_1":"BLR.3_1","province":"Grodno","NL_NAME_1":"Гродзенская","county":"Byerastavitsa","VARNAME_2":"Berestovitsa","NL_NAME_2":"Бераставіцкіраён","TYPE_2":"Raion","ENGTYPE_2":"District","CC_2":"NA","HASC_2":"BY.HR.BE","name":"Byerastavitsa.county"},
"geometry":{"type": "MultiPolygon","coordinates": [[[[23.7487,53.3698,155.6573],[23.7635,53.3381,156.1782],[23.799,53.2742,174.8199],[23.8188,53.244,182.0725],[23.8553,53.2318,122.3107],[23.8614,53.2209,121.3569],[23.8613,53.2175,121.7845],[23.859,53.2163,121.9997],[23.8623,53.2152,121.3743],[23.8611,53.2147,121.3743],[23.862,53.2137,121.6646],[23.8572,53.2104,127.1473],[23.8589,53.2072,122.5109],[23.864,53.2035,123.215],[23.8619,53.2022,122.919],[23.8633,53.2,126.9108],[23.8627,53.1971,124.9407],[23.8653,53.1964,124.4836],[23.8639,53.1955,123.9477],[23.87,53.1932,123.5109],[23.8713,53.194,124.652],[23.8711,53.1921,125.2028],[23.8789,53.1897,124.4953],[23.8772,53.1892,124.4953],[23.8802,53.1888,124.8798],[23.8792,53.1876,124.7189],[23.8827,53.1846,125.6939],[23.8887,53.1833,125.8638],[23.8879,53.1815,130.4481],[23.8904,53.1818,124.9049],[23.8895,53.1809,124.9049],[23.8912,53.1813,124.9049],[23.8916,53.1787,125.8405],[23.8948,53.1767,125.949],[23.8997,53.1766,125.7903],[23.8994,53.1735,127.9188],[23.9071,53.1727,132.5348],[23.9094,53.1673,134.3844],[23.9138,53.1669,127.2849],[23.9121,53.1664,127.2849],[23.913,53.1649,127.6686],[23.9103,53.1639,126.3973],[23.9148,53.1629,132.165],[23.9139,53.1573,127.2931],[23.9183,53.1576,134.8529],[23.9171,53.1555,134.1628],[23.9145,53.1552,131.7323],[23.916,53.153,131.0058],[23.9097,53.1499,130.6293],[23.9123,53.147,128.3383],[23.9114,53.1464,128.0817],[23.9158,53.143,130.399],[23.9135,53.1415,129.7256],[23.9139,53.1402,132.4727],[23.9119,53.1402,128.8781],[23.911,53.1388,128.8781],[23.9122,53.1378,131.5179],[23.9073,53.1368,129.4192],[23.9059,53.1382,128.6283],[23.9043,53.1373,128.6283],[23.9052,53.1352,130.0836],[23.9022,53.1335,130.4135],[23.901,53.1344,128.6973],[23.9004,53.1315,129.859],[23.8981,53.1322,129.1454],[23.8968,53.1307,132.3666],[23.8974,53.1273,129.19],[23.8939,53.1264,129.0965],[23.8979,53.125,131.1061],[23.8936,53.1248,131.4378],[23.889,53.1183,130.9318],[23.8897,53.1169,131.9651],[23.8869,53.1162,131.4271],[23.8876,53.114,131.8934],[23.8854,53.1144,131.0508],[23.8859,53.1119,130.8972],[23.889,53.1118,130.4867],[23.887,53.1105,130.8972],[23.8885,53.1089,132.4176],[23.886,53.1077,131.8351],[23.8881,53.108,131.7017],[23.8888,53.105,135.4998],[23.8822,53.1012,143.519],[23.8833,53.0982,132.4114],[23.8809,53.0975,133.0442],[23.8825,53.0975,132.4114],[23.8813,53.0955,132.8522],[23.8827,53.0958,132.8522],[23.8808,53.0945,132.7258],[23.8828,53.0935,133.2823],[23.8801,53.0928,132.1667],[23.8806,53.0913,134.8589],[23.8776,53.0918,133.035],[23.8758,53.0877,133.0401],[23.8738,53.087,132.8953],[23.8746,53.0849,133.0661],[23.8719,53.0841,133.0661],[23.8741,53.079,134.1513],[23.8783,53.0792,134.4179],[23.8794,53.0762,141.9898],[23.8772,53.0754,134.6687],[23.8816,53.074,149.8851],[23.8788,53.0735,136.2573],[23.8813,53.0728,147.3638],[23.8823,53.0661,141.3968],[23.8861,53.0643,140.7209],[23.8862,53.0622,136.7182],[23.888,53.0632,136.3503],[23.889,53.0618,136.2483],[23.8965,53.0616,136.4698],[23.9026,53.0582,144.0208],[23.8984,53.05,139.1774],[23.9007,53.0495,138.1095],[23.9001,53.0478,139.8926],[23.9028,53.0484,141.2667],[23.9058,53.0464,141.3823],[23.9049,53.0448,141.92],[23.9113,53.0446,141.333],[23.9101,53.0422,138.7294],[23.9162,53.0402,142.7713],[23.9339,53.0419,139.531],[23.9382,53.0446,140.7429],[23.956,53.0502,148.5248],[23.9701,53.045,173.7704],[23.9885,53.0456,183.4337],[23.9929,53.0485,187.2948],[24.0069,53.0464,173.8305],[24.0342,53.0532,151.5337],[24.0338,53.0586,151.3979],[24.0245,53.0581,160.8921],[24.0243,53.0609,154.6003],[24.0193,53.0661,152.2098],[24.0237,53.069,151.7515],[24.0329,53.0694,148.6763],[24.0472,53.0647,148.2965],[24.0563,53.0679,153.6384],[24.0605,53.0735,154.5546],[24.06,53.0789,178.2022],[24.0552,53.0814,161.1115],[24.0411,53.0834,150.1001],[24.031,53.0938,147.2885],[24.0308,53.0965,147.202],[24.04,53.097,153.7507],[24.0543,53.0922,167.8267],[24.0816,53.099,187.4682],[24.1094,53.1004,170.8591],[24.1223,53.1118,172.6552],[24.1314,53.115,183.2761],[24.1452,53.1157,202.7342],[24.154,53.1215,197.9802],[24.1538,53.1242,189.6223],[24.1248,53.139,174.701],[24.1155,53.1386,164.7971],[24.1111,53.1356,172.8978],[24.0973,53.135,172.3029],[24.0922,53.1401,172.3536],[24.083,53.1397,183.9509],[24.0775,53.1503,190.6687],[24.099,53.1703,186.1449],[24.0982,53.1811,210.202],[24.0934,53.1836,210.1427],[24.0929,53.189,200.482],[24.0969,53.1973,196.2358],[24.1233,53.2147,178.0497],[24.1178,53.2253,181.7978],[24.113,53.2278,177.1329],[24.0943,53.2298,176.1844],[24.0895,53.2323,169.1232],[24.0893,53.235,170.1849],[24.0937,53.2379,182.7112],[24.1073,53.2412,193.3299],[24.1165,53.2416,171.7844],[24.13,53.2476,165.9971],[24.1295,53.253,158.0681],[24.1247,53.2555,158.4247],[24.1243,53.2609,164.0914],[24.1287,53.2638,172.817],[24.1285,53.2665,176.4628],[24.1188,53.2715,194.0054],[24.1138,53.2768,196.661],[24.1136,53.2795,187.1785],[24.118,53.2824,177.809],[24.1174,53.2905,163.4204],[24.1077,53.2956,191.0819],[24.1073,53.301,177.8634],[24.1021,53.309,179.8172],[24.0881,53.3112,172.6242],[24.0879,53.3139,168.3911],[24.0963,53.3251,157.7424],[24.1143,53.3312,173.1867],[24.1189,53.3314,164.6752],[24.1187,53.3341,166.1414],[24.1137,53.3394,149.8104],[24.1135,53.3421,148.6906],[24.1304,53.3618,140.9245],[24.13,53.3673,140.7661],[24.1205,53.3724,129.9863],[24.1159,53.3723,127.8145],[24.1016,53.3801,120.1317],[24.0837,53.3741,117.0712],[24.0793,53.3713,118.9071],[24.0746,53.3739,116.6276],[24.0741,53.3822,121.13],[24.0786,53.3823,120.9958],[24.0781,53.3905,117.8912],[24.0868,53.3963,119.4796],[24.0867,53.399,128.13],[24.0728,53.4015,138.8328],[24.0726,53.4042,144.6978],[24.077,53.4071,133.4673],[24.085,53.4237,122.0386],[24.0712,53.4261,114.8485],[24.0625,53.4204,115.3892],[24.0577,53.423,112.9775],[24.0576,53.4258,112.524],[24.0621,53.4259,112.1292],[24.0619,53.4286,111.692],[24.0572,53.4312,112.0274],[24.0254,53.4303,110.9039],[24.0263,53.4167,120.924],[24.022,53.4138,119.5765],[24.0131,53.4109,119.8101],[23.9945,53.4185,113.0936],[23.9856,53.4155,108.2449],[23.9728,53.4043,111.7794],[23.9681,53.4068,107.0599],[23.9677,53.4123,107.6192],[23.972,53.4151,106.8495],[23.9715,53.4233,109.6389],[23.9666,53.4286,110.6723],[23.9531,53.4281,111.6115],[23.9356,53.4194,116.0276],[23.9266,53.419,123.2396],[23.9172,53.4241,153.6591],[23.9037,53.4236,167.7577],[23.8995,53.4207,183.5605],[23.8729,53.417,190.9318],[23.8551,53.4164,154.6894],[23.8371,53.4212,157.2775],[23.8143,53.434,172.1543],[23.8056,53.4338,179.5061],[23.8089,53.3878,147.5302],[23.7873,53.3871,141.4354],[23.7833,53.3842,151.8836],[23.7837,53.3788,156.0541],[23.7883,53.3735,143.4118],[23.7843,53.3707,149.6188],[23.7627,53.3726,171.2245],[23.7487,53.3698,155.6573]]]]}}