{"type": "Feature","bbox": [27.2695,54.5804,28.4409,55.0563],"geometry": {"type": "MultiPolygon","coordinates": [[[[28.2076,54.6643,164.1183],[28.2029,54.6698,160.0096],[28.203,54.6861,178.3518],[28.1983,54.6916,168.3595],[28.1936,54.6944,172.0082],[28.1889,54.7053,164.1729],[28.1841,54.7081,165.8096],[28.1889,54.7162,166.3618],[28.1937,54.719,176.3814],[28.2364,54.7324,170.8241],[28.2412,54.7379,164.3118],[28.2412,54.7406,165.6927],[28.2317,54.7461,162.4138],[28.2175,54.7489,167.5459],[28.2128,54.7517,163.1061],[28.2128,54.7544,166.1614],[28.2176,54.7599,170.4124],[28.2176,54.7708,163.4933],[28.2319,54.7817,174.3756],[28.2367,54.7898,172.7544],[28.2367,54.7953,174.3835],[28.2415,54.798,174.6583],[28.2557,54.798,183.4244],[28.2747,54.7952,201.2496],[28.3222,54.795,192.6493],[28.3792,54.7974,170.7896],[28.3839,54.7947,161.5004],[28.3839,54.792,161.0],[28.3791,54.792,165.4168],[28.379,54.781,161.5205],[28.3743,54.7783,162.9259],[28.3268,54.7731,187.8609],[28.3315,54.7676,179.2771],[28.3362,54.7648,179.5221],[28.3504,54.762,167.0274],[28.3552,54.7647,165.8372],[28.3741,54.7646,187.4921],[28.3837,54.7673,163.9877],[28.398,54.7809,168.4065],[28.4409,54.7971,172.2716],[28.4409,54.8026,181.622],[28.4315,54.8164,163.3464],[28.4317,54.8273,167.7231],[28.427,54.841,180.6893],[28.4176,54.8465,163.1732],[28.4082,54.8548,161.0],[28.4082,54.8603,161.0],[28.4178,54.8739,169.1985],[28.4274,54.8794,174.6007],[28.4322,54.8848,173.7198],[28.4085,54.8986,171.3259],[28.3944,54.9096,170.8139],[28.3944,54.9151,172.6538],[28.3849,54.9206,182.5466],[28.3421,54.9208,184.14],[28.3279,54.9318,185.8026],[28.3184,54.9346,192.8521],[28.2708,54.9594,176.0665],[28.2613,54.9567,175.0734],[28.2518,54.9595,175.1943],[28.2518,54.965,176.4967],[28.2566,54.9677,182.672],[28.2566,54.9704,186.1965],[28.2518,54.9732,176.8773],[28.2184,54.9678,185.1721],[28.1994,54.9761,184.2025],[28.1851,54.9844,191.912],[28.1851,55.0035,188.1577],[28.1661,55.0173,182.5839],[28.1565,55.031,184.1184],[28.1422,55.0393,178.8436],[28.1183,55.0448,185.8699],[28.0658,55.0449,173.8201],[28.0514,55.0422,171.2935],[28.0323,55.0422,172.1738],[28.0132,55.0368,172.3336],[28.0037,55.0313,176.3513],[27.9989,55.0259,174.0556],[27.9798,55.0232,174.7877],[27.9798,55.0204,175.1443],[27.9512,55.0177,172.7492],[27.9464,55.0232,173.2536],[27.9034,55.0233,175.4163],[27.8986,55.0205,179.1597],[27.8843,55.0206,174.2534],[27.8795,55.0233,174.2631],[27.8795,55.0315,188.2317],[27.8747,55.037,181.2244],[27.8651,55.0397,180.0614],[27.8412,55.0425,188.5367],[27.8221,55.0425,195.657],[27.8077,55.0453,190.243],[27.7934,55.0453,193.7366],[27.779,55.0508,200.0287],[27.7742,55.0562,203.5107],[27.7455,55.0563,188.1404],[27.7312,55.0508,190.7918],[27.693,55.0535,189.1331],[27.6882,55.0508,191.5216],[27.6357,55.0453,186.842],[27.6215,55.0399,183.0911],[27.5929,55.0371,180.6531],[27.5643,55.0289,178.5],[27.5596,55.0234,178.5],[27.555,55.0125,180.1259],[27.5503,55.007,187.315],[27.5265,55.0043,182.6632],[27.517,54.9988,181.2319],[27.5123,54.9934,179.3587],[27.498,54.9934,179.8895],[27.498,54.9906,180.4187],[27.4933,54.9879,180.4444],[27.4742,54.9852,181.2089],[27.46,54.9797,180.5284],[27.441,54.977,179.422],[27.4266,54.9852,193.7467],[27.4074,54.9879,212.1911],[27.3931,54.9879,201.3062],[27.3883,54.9906,193.4785],[27.3835,54.9961,196.8055],[27.3692,54.9961,179.3495],[27.355,54.9879,199.7626],[27.3218,54.9769,181.1795],[27.3171,54.9769,180.2481],[27.3122,54.9824,169.9715],[27.3168,54.9906,174.5882],[27.3073,54.9906,179.4567],[27.3026,54.9878,176.7999],[27.2882,54.9905,169.4597],[27.2788,54.9851,167.4782],[27.2837,54.9796,167.2567],[27.2837,54.9769,167.038],[27.2695,54.9714,177.1645],[27.2696,54.9687,199.1918],[27.2793,54.9551,180.8439],[27.2842,54.9523,187.2596],[27.2889,54.9551,179.8593],[27.2937,54.9523,181.2148],[27.2938,54.9469,191.6305],[27.2986,54.9414,205.0198],[27.3129,54.9387,220.3495],[27.3273,54.9332,205.9659],[27.3274,54.925,202.4759],[27.3228,54.9169,188.1152],[27.3231,54.9005,181.1014],[27.3279,54.8977,180.3803],[27.3422,54.895,180.1795],[27.3566,54.8868,178.4109],[27.3711,54.8705,187.5001],[27.3711,54.8677,184.3593],[27.3807,54.8623,177.7315],[27.3902,54.8623,177.4148],[27.4045,54.8541,178.2355],[27.4521,54.8568,181.0241],[27.4664,54.8486,179.4337],[27.5046,54.8322,179.0991],[27.5096,54.8131,192.7755],[27.5049,54.8077,193.8368],[27.5049,54.8022,191.5366],[27.5144,54.8022,190.426],[27.5286,54.8077,191.8747],[27.5429,54.8104,198.843],[27.5619,54.8076,205.2984],[27.5667,54.8049,196.9332],[27.5668,54.794,200.2279],[27.5621,54.7803,177.7691],[27.5623,54.7667,184.9479],[27.567,54.764,180.4487],[27.6002,54.7667,185.9673],[27.624,54.7639,182.8196],[27.6335,54.7612,189.58],[27.662,54.7612,180.8685],[27.6716,54.7502,180.2649],[27.7001,54.7447,175.5994],[27.7144,54.7311,193.2055],[27.7145,54.7147,200.5775],[27.7098,54.712,180.4699],[27.7098,54.7038,177.0707],[27.7146,54.6983,177.3955],[27.7099,54.6874,176.0742],[27.7147,54.6711,189.5689],[27.7195,54.6656,187.7787],[27.7243,54.6656,190.7219],[27.729,54.6629,188.9118],[27.7338,54.6574,183.4439],[27.7433,54.6519,203.1455],[27.7528,54.6519,189.7916],[27.7575,54.6492,206.0563],[27.7528,54.6437,197.5352],[27.7528,54.6383,191.0665],[27.7671,54.6328,217.0927],[27.7671,54.6301,207.1914],[27.7623,54.6246,196.7738],[27.7766,54.611,193.0921],[27.7861,54.6082,191.5736],[27.8098,54.6082,196.9427],[27.8334,54.6163,195.6809],[27.8429,54.6136,215.3623],[27.8524,54.6136,206.8275],[27.8571,54.6163,206.4455],[27.8808,54.638,214.5553],[27.8855,54.638,204.7744],[27.895,54.6353,206.4744],[27.9045,54.6271,212.7204],[27.9045,54.6243,221.8749],[27.8997,54.618899999999996,220.5639],[27.8997,54.6134,222.2825],[27.9187,54.6052,219.4121],[27.9471,54.6051,239.8223],[27.9566,54.6106,232.8761],[27.9992,54.6104,258.1221],[28.0086,54.6077,266.1613],[28.0039,54.605,245.88],[27.9944,54.5941,262.5779],[27.9991,54.5886,259.136],[28.0133,54.5913,250.9973],[28.0181,54.5886,253.1156],[28.0133,54.5831,255.7738],[28.0181,54.5804,264.0039],[28.0228,54.5804,281.2166],[28.037,54.5885,250.5901],[28.037,54.5994,248.0315],[28.0512,54.613,262.5748],[28.0702,54.6184,247.0234],[28.0749,54.6211,238.9634],[28.0938,54.6211,240.3906],[28.1033,54.6237,232.3082],[28.1033,54.6265,225.6688],[28.1081,54.6292,227.3618],[28.1412,54.6291,216.213],[28.1413,54.6427,195.3235],[28.146,54.6482,172.2847],[28.1555,54.6536,174.0725],[28.1697,54.6535,172.7142],[28.1839,54.6589,171.0354],[28.2076,54.6643,164.1183]]]]}
,"properties": {"GID_2": "BLR.6.5_1","GID_0": "BLR","country": "Belarus","GID_1": "BLR.6_1","province": "Vitebsk","NL_NAME_1": "Вiцебская","county": "Dokshytsy","VARNAME_2": "Dokshitsy","NL_NAME_2": "Докшыцкіраён","TYPE_2": "Raion","ENGTYPE_2": "District","CC_2": "NA","HASC_2": "BY.VI.DK","name": "Dokshytsy.county","area_km2": 2239.742,"hist_schema_id": "Elevation0-9000","hist_area_km2": {"150": 26.31,"175": 954.031,"200": 952.243,"225": 276.091,"250": 26.475,"275": 4.58}}}