{"type": "Feature","bbox": [26.1282,54.2189,26.7092,54.8134],"geometry": {"type": "MultiPolygon","coordinates": [[[[26.2263,54.2428,178.831],[26.2449,54.2429,196.4863],[26.2638,54.2349,202.6056],[26.2783,54.2241,182.2216],[26.2877,54.2214,186.6131],[26.3158,54.2189,173.6683],[26.3252,54.2189,171.094],[26.3392,54.2217,170.1618],[26.3671,54.23,170.0607],[26.3807,54.2409,181.336],[26.4037,54.2547,228.5006],[26.4218,54.2711,250.7697],[26.4397,54.2957,265.5507],[26.4585,54.2957,276.3048],[26.5002,54.3123,264.6311],[26.4994,54.3341,238.0866],[26.5038,54.3422,229.186],[26.5177,54.3505,197.2677],[26.5221,54.3587,184.2006],[26.5314,54.3614,166.9109],[26.5494,54.386,152.7429],[26.5587,54.3915,151.7613],[26.5724,54.4052,151.3343],[26.6144,54.4135,155.6706],[26.6284,54.419,157.9547],[26.6608,54.4382,157.688],[26.6559,54.4463,160.0926],[26.6321,54.4571,174.5351],[26.6367,54.4626,153.1025],[26.6553,54.4709,153.1091],[26.6691,54.4818,152.8819],[26.6689,54.4927,155.7045],[26.6641,54.4981,157.2434],[26.6636,54.5199,159.0057],[26.6589,54.5226,159.0234],[26.6588,54.5253,159.1029],[26.6541,54.5253,159.7945],[26.6402,54.5171,165.6996],[26.6354,54.5225,161.0132],[26.6352,54.5307,173.947],[26.6209,54.5361,164.9738],[26.6255,54.5415,166.4356],[26.6255,54.5443,169.0726],[26.6395,54.5498,168.8108],[26.6394,54.5525,172.8555],[26.6252,54.5579,166.3209],[26.6251,54.5606,170.4277],[26.6297,54.5661,159.8926],[26.6392,54.5634,162.852],[26.6535,54.5553,189.0379],[26.6677,54.5499,162.5919],[26.6817,54.5527,161.4739],[26.6769,54.5608,159.3279],[26.6719,54.5744,153.9366],[26.6671,54.5771,156.1688],[26.6763,54.5881,162.3659],[26.6858,54.5854,169.9131],[26.6953,54.58,170.3355],[26.7,54.58,170.8616],[26.7046,54.5827,166.7045],[26.7092,54.5882,153.4734],[26.7045,54.5909,170.5987],[26.7044,54.5963,160.9228],[26.6949,54.599,155.1105],[26.6855,54.599,157.5856],[26.6807,54.6044,156.0004],[26.6803,54.6208,156.9997],[26.6896,54.629,155.9767],[26.7035,54.6372,153.8652],[26.7035,54.6399,153.7452],[26.6939,54.6454,153.5672],[26.6845,54.6453,153.8572],[26.6799,54.6399,157.6171],[26.6611,54.6398,152.8658],[26.6467,54.6507,152.8327],[26.6232,54.6506,159.5346],[26.6186,54.6451,164.8804],[26.6139,54.6424,168.5961],[26.5949,54.6532,161.3565],[26.5899,54.6668,156.8383],[26.5802,54.6777,156.0716],[26.58,54.6886,163.6781],[26.5608,54.7049,162.6981],[26.5512,54.7104,150.6255],[26.5509,54.724,150.9248],[26.5789,54.7405,169.039],[26.5739,54.7541,171.7022],[26.5644,54.7568,174.9578],[26.5502,54.7567,168.1979],[26.5312,54.7621,149.0],[26.5263,54.7703,149.0],[26.5025,54.7838,149.0],[26.4976,54.792,149.0],[26.4645,54.8108,149.0],[26.455,54.8134,149.0],[26.4458,54.8079,155.1801],[26.4411,54.8078,159.7649],[26.4272,54.7995,143.6217],[26.3616,54.7931,178.4914],[26.3383,54.7819,168.5406],[26.3288,54.7818,163.2514],[26.3193,54.7843,161.464],[26.2955,54.7867,167.34],[26.2767,54.781,152.7347],[26.2627,54.7727,138.0073],[26.2627,54.77,146.4444],[26.2676,54.7673,141.9888],[26.2866,54.7649,137.4102],[26.2914,54.7623,140.0258],[26.2916,54.7568,153.3821],[26.2728,54.7512,153.3352],[26.2682,54.7457,162.713],[26.2589,54.7401,148.3943],[26.2591,54.732,158.1362],[26.2544,54.7293,148.4906],[26.2592,54.7266,157.704],[26.2924,54.727,150.8007],[26.3112,54.73,155.7161],[26.3159,54.7274,154.5496],[26.316,54.7246,158.1271],[26.3302,54.7194,144.356],[26.3304,54.714,145.3315],[26.3257,54.7112,160.5617],[26.3115,54.7137,129.8857],[26.307,54.7055,148.3354],[26.3072,54.6974,145.5172],[26.3168,54.6894,137.9462],[26.3355,54.6923,167.4333],[26.3403,54.6897,162.506],[26.3451,54.6816,159.7772],[26.3545,54.679,146.212],[26.3732,54.6792,151.8775],[26.3874,54.6713,147.3991],[26.3922,54.6659,133.819],[26.3923,54.6631,154.3657],[26.3877,54.6604,159.7989],[26.3831,54.6522,173.0695],[26.3832,54.6495,174.614],[26.388,54.6441,175.7562],[26.388,54.6413,174.4891],[26.3835,54.6359,172.981],[26.3696,54.6303,165.4927],[26.3322,54.6299,143.3922],[26.3177,54.6487,146.3438],[26.3082,54.654,160.9733],[26.3035,54.654,162.0893],[26.285,54.6429,161.737],[26.2803,54.6428,161.196],[26.271,54.6373,152.3862],[26.2711,54.6346,142.2617],[26.2572,54.6263,157.3547],[26.2527,54.6181,154.3],[26.2481,54.6153,140.8692],[26.2338,54.6233,139.6357],[26.2008,54.623,145.8094],[26.2009,54.6203,146.3788],[26.1916,54.6147,166.0448],[26.192,54.6012,145.2822],[26.1688,54.5901,152.0009],[26.1594,54.5873,152.2188],[26.1502,54.5818,151.0869],[26.1457,54.5764,154.1647],[26.1457,54.5736,154.1026],[26.1506,54.5683,149.7065],[26.1461,54.5628,150.6267],[26.1322,54.5546,154.9636],[26.1326,54.5437,163.675],[26.1282,54.5356,171.3077],[26.138,54.5221,162.4989],[26.1427,54.5221,168.0164],[26.1475,54.5194,171.1598],[26.1523,54.5141,170.9857],[26.1571,54.5114,159.7341],[26.1578,54.4897,152.5776],[26.1438,54.4868,169.0443],[26.1393,54.4814,165.8115],[26.1441,54.4787,175.6719],[26.1487,54.4787,170.0136],[26.163,54.4707,189.4302],[26.1632,54.4653,217.095],[26.1493,54.4597,240.3929],[26.1496,54.4489,232.9583],[26.1639,54.4408,224.184],[26.1639,54.4381,222.944],[26.1547,54.4353,236.1315],[26.1502,54.4299,215.6591],[26.1503,54.4244,247.7697],[26.1553,54.4136,209.3362],[26.1555,54.4081,231.3776],[26.151,54.4,210.7652],[26.1465,54.3972,206.4644],[26.1513,54.3891,186.1616],[26.1608,54.3837,219.3964],[26.1747,54.3865,204.9679],[26.1795,54.3811,201.2036],[26.1796,54.3784,205.4342],[26.1704,54.3756,232.3069],[26.1656,54.3783,226.0898],[26.1563,54.3783,221.4324],[26.1517,54.3755,201.9634],[26.1518,54.3728,201.8221],[26.1427,54.3673,194.8277],[26.1382,54.3618,209.2221],[26.1385,54.351,240.5571],[26.1435,54.3401,261.2411],[26.1578,54.3293,244.8064],[26.1764,54.3268,236.1953],[26.1906,54.3214,263.9528],[26.1908,54.316,257.8518],[26.1955,54.3133,246.631],[26.1914,54.2997,210.0849],[26.1869,54.2942,218.9868],[26.1732,54.2887,215.6022],[26.1733,54.2859,214.2522],[26.1781,54.2832,210.706],[26.1786,54.2696,200.9521],[26.1742,54.2642,193.4753],[26.1744,54.2587,196.4661],[26.184,54.2533,196.9862],[26.2071,54.2562,187.4731],[26.2167,54.2509,195.5909],[26.2215,54.2455,180.666],[26.2263,54.2428,178.831]]]]}
,"properties": {"GID_2": "BLR.3.14_1","GID_0": "BLR","country": "Belarus","GID_1": "BLR.3_1","province": "Grodno","NL_NAME_1": "Гродзенская","county": "Smarhon","VARNAME_2": "Smorgon","NL_NAME_2": "Смаргонскіраён","TYPE_2": "Raion","ENGTYPE_2": "District","CC_2": "NA","HASC_2": "BY.HR.SN","name": "Smarhon.county","area_km2": 1495.66,"hist_schema_id": "Elevation0-9000","hist_area_km2": {"125": 16.611,"150": 572.788,"175": 463.537,"200": 134.91,"225": 86.404,"250": 84.956,"275": 90.938,"300": 43.317,"325": 2.201}}}