{"type":"Feature","properties":{"GID_2":"BLR.2.16_1","GID_0":"BLR","country":"Belarus","GID_1":"BLR.2_1","province":"Gomel","NL_NAME_1":"Гомельская","county":"Rechytsa","VARNAME_2":"Rechitsa","NL_NAME_2":"Рэчыцкіраён","TYPE_2":"Raion","ENGTYPE_2":"District","CC_2":"NA","HASC_2":"BY.HO.RG","name":"Rechytsa.county"},
"geometry":{"type": "MultiPolygon","coordinates": [[[[30.2708,52.5737,121.4396],[30.2313,52.5828,120.6623],[30.227,52.5857,123.9742],[30.2273,52.5911,121.3732],[30.2143,52.5969,123.4643],[30.2062,52.6108,141.6125],[30.1973,52.611,150.402],[30.1927,52.6083,133.8222],[30.192,52.5947,120.5649],[30.1869,52.5838,121.2383],[30.1777,52.5785,121.5911],[30.1689,52.5787,119.8354],[30.1552,52.5736,119.6549],[30.1466,52.5792,124.8503],[30.1379,52.5821,136.4202],[30.0976,52.5775,139.0457],[30.0713,52.5863,135.2468],[30.0624,52.5865,121.5],[30.0532,52.5812,127.4065],[30.0487,52.5813,121.8267],[30.0401,52.5869,124.9489],[30.0264,52.5817,122.9554],[30.0222,52.5873,122.9611],[30.0225,52.5927,123.0693],[30.018,52.5928,123.002],[30.0137,52.5956,123.0583],[30.0044,52.5876,124.4303],[29.9867,52.5907,123.3407],[29.9864,52.5852,131.4898],[29.9769,52.5745,140.0518],[29.9766,52.5663,130.6883],[29.9405,52.5588,127.8551],[29.9359,52.5562,146.7155],[29.9357,52.5534,138.0959],[29.9401,52.5506,153.0648],[29.9443,52.5451,148.3283],[29.9442,52.5424,145.8235],[29.9394,52.537,138.7571],[29.9261,52.5372,141.735],[29.9217,52.5401,145.9381],[29.9221,52.5482,139.8558],[29.9178,52.5511,132.2484],[29.9087,52.5485,131.1496],[29.8949,52.5406,155.3491],[29.8767,52.5327,136.3432],[29.8895,52.5188,143.0016],[29.8892,52.5134,148.742],[29.9019,52.4968,151.6625],[29.9016,52.4913,143.2674],[29.897,52.4887,138.6658],[29.8791,52.4863,153.5417],[29.8654,52.4811,132.245],[29.8607,52.4757,134.2098],[29.8606,52.473,133.687],[29.8424,52.4651,143.0346],[29.8377,52.4598,140.9075],[29.8369,52.4407,149.1346],[29.8412,52.4379,146.801],[29.8458,52.4405,143.8682],[29.8502,52.4404,146.853],[29.8638,52.4456,149.7533],[29.8773,52.4481,146.921],[29.8946,52.4368,136.6151],[29.903,52.4258,137.4429],[29.8983,52.4204,149.229],[29.8846,52.4125,144.7875],[29.8753,52.4045,144.4544],[29.8841,52.4016,144.0508],[29.9063,52.4011,147.8815],[29.9106,52.3983,137.8492],[29.9103,52.3928,152.474],[29.9058,52.3902,146.0892],[29.9056,52.3875,147.1205],[29.8828,52.3743,145.6828],[29.8739,52.3745,143.7464],[29.8465,52.3586,137.0439],[29.8463,52.3559,138.4776],[29.8593,52.3475,135.5502],[29.886,52.3496,132.6655],[29.8859,52.3469,132.0337],[29.8812,52.3415,132.1801],[29.8809,52.3361,144.2331],[29.8944,52.3385,132.4758],[29.9031,52.3356,132.0948],[29.9027,52.3274,132.337],[29.8936,52.3222,133.1451],[29.8933,52.3167,132.0547],[29.8843,52.3142,131.2223],[29.884,52.3087,131.3968],[29.8883,52.3059,131.6065],[29.8747,52.298,131.9294],[29.8745,52.2953,130.6797],[29.8654,52.29,130.9278],[29.8203,52.2745,133.2611],[29.8156,52.2692,133.4437],[29.8067,52.2694,134.8644],[29.7976,52.2641,135.4105],[29.7975,52.2614,135.9101],[29.8103,52.2502,133.5691],[29.8144,52.2446,135.7332],[29.8142,52.2392,133.8775],[29.7917,52.2342,134.1014],[29.7872,52.2315,143.4695],[29.7868,52.2234,132.5265],[29.795,52.2095,142.3274],[29.7947,52.2041,144.1457],[29.7899,52.196,142.2981],[29.7719,52.1909,135.8737],[29.7408,52.1888,140.547],[29.7319,52.1863,147.7611],[29.7227,52.181,132.2861],[29.7264,52.1646,138.6331],[29.7217,52.1592,133.5114],[29.7259,52.1537,137.861],[29.7302,52.1508,132.5161],[29.7436,52.1533,132.3947],[29.7479,52.1505,131.4086],[29.7477,52.1477,131.5761],[29.743,52.1424,137.7454],[29.7429,52.1397,145.3079],[29.7472,52.1368,146.5328],[29.7517,52.1395,146.7381],[29.7562,52.1394,131.7217],[29.7604,52.1366,131.418],[29.7646,52.131,135.5894],[29.7731,52.1254,142.4696],[29.7824,52.1334,138.1415],[29.7781,52.1362,142.9027],[29.7784,52.1416,145.2418],[29.7875,52.1469,131.315],[29.8053,52.1493,131.1738],[29.814,52.1463,136.5932],[29.8091,52.1382,130.9523],[29.8087,52.1301,130.5281],[29.813,52.1272,130.8205],[29.8174,52.1271,130.7273],[29.8129,52.1245,131.1651],[29.8127,52.1218,130.7266],[29.8214,52.1188,130.1712],[29.821,52.1107,130.086],[29.8252,52.1078,145.2283],[29.834,52.1076,140.2114],[29.8383,52.1048,133.1155],[29.8377,52.0939,145.9806],[29.842,52.091,134.602],[29.8948,52.0898,135.5019],[29.9038,52.0924,141.6975],[29.9124,52.0894,129.3888],[29.9214,52.092,130.9801],[29.939,52.0915,129.1073],[29.9613,52.0965,146.1832],[29.9751,52.1071,133.7203],[29.9839,52.1069,143.5488],[29.9928,52.1094,130.8423],[30.0024,52.1229,131.1499],[30.0162,52.1335,134.5009],[30.0341,52.1385,137.2583],[30.0433,52.1465,134.9805],[30.0793,52.1593,129.7218],[30.0925,52.159,129.9019],[30.1052,52.1505,149.3222],[30.1097,52.1531,141.8967],[30.11,52.1586,139.682],[30.1191,52.1639,142.3397],[30.1322,52.1608,130.5464],[30.163,52.1628,130.4978],[30.1673,52.16,130.5527],[30.1669,52.1545,130.7142],[30.1573,52.1411,134.1008],[30.1518,52.122,148.3288],[30.151,52.1084,143.4988],[30.154,52.0864,144.4012],[30.1535,52.0782,133.3937],[30.1623,52.078,136.2915],[30.1625,52.0807,142.213],[30.1672,52.0861,142.7335],[30.1675,52.0916,140.4415],[30.1766,52.0968,155.0332],[30.2116,52.096,146.9938],[30.242,52.0925,138.8133],[30.2465,52.0951,144.8965],[30.256,52.1058,138.5623],[30.269,52.1055,143.605],[30.2731,52.0999,147.8488],[30.2903,52.0968,150.2406],[30.2987,52.0911,150.0244],[30.3027,52.0855,149.6885],[30.3151,52.0743,132.2578],[30.3311,52.0441,127.3304],[30.3405,52.0574,129.5618],[30.3363,52.0602,130.2796],[30.3282,52.074,144.3622],[30.3369,52.0738,135.2224],[30.3368,52.0711,132.5809],[30.3411,52.071,131.8687],[30.342,52.0873,142.0254],[30.3467,52.0926,135.1843],[30.3556,52.0951,133.4744],[30.3641,52.0922,133.557],[30.3718,52.0729,146.828],[30.3804,52.07,131.0219],[30.4183,52.0446,140.0294],[30.4314,52.0443,128.9271],[30.4359,52.0469,128.6194],[30.4451,52.0575,128.9432],[30.4412,52.0685,136.1793],[30.4502,52.0737,128.9449],[30.4587,52.0707,130.1215],[30.4668,52.057,127.3111],[30.471,52.0541,127.6806],[30.4843,52.0592,128.0627],[30.5013,52.0533,133.2384],[30.5058,52.0559,129.1626],[30.5022,52.0723,130.1592],[30.5113,52.0802,129.8069],[30.5199,52.08,131.0981],[30.5287,52.0825,130.611],[30.5417,52.0821,128.9326],[30.5549,52.0872,132.0207],[30.5635,52.087,129.8213],[30.568,52.0896,129.8241],[30.5766,52.0893,130.4851],[30.581,52.0919,129.806],[30.5853,52.0918,129.6488],[30.5942,52.097,130.7605],[30.6198,52.0936,132.0],[30.6243,52.0989,133.4688],[30.6247,52.1044,132.0222],[30.6171,52.1183,131.7911],[30.6266,52.1318,131.1003],[30.653,52.142,128.5079],[30.6795,52.155,114.0854],[30.6932,52.1683,130.2643],[30.6853,52.1768,138.585],[30.6691,52.1882,130.2507],[30.6571,52.1996,129.0139],[30.6496,52.2135,133.429],[30.6338,52.2331,132.0362],[30.6297,52.236,136.1663],[30.6125,52.2365,133.507],[30.599,52.2286,133.9101],[30.5904,52.2288,138.0819],[30.591,52.237,139.0783],[30.5753,52.2594,115.9344],[30.5668,52.2624,115.9677],[30.5629,52.2679,116.021],[30.5631,52.2707,119.8752],[30.5676,52.2733,115.5925],[30.5808,52.2757,115.838],[30.598,52.2753,129.6668],[30.6506,52.2849,118.423],[30.6553,52.2902,125.2201],[30.6559,52.2984,132.2006],[30.6773,52.2951,119.07],[30.6906,52.3002,133.7318],[30.691,52.3057,124.8277],[30.6955,52.3084,128.0562],[30.6953,52.3056,131.5929],[30.7037,52.3026,131.1859],[30.7159,52.2941,134.0353],[30.7289,52.2964,143.3668],[30.7555,52.3067,141.3566],[30.7683,52.3063,139.8174],[30.7763,52.3006,145.7026],[30.7805,52.3005,143.6675],[30.785,52.3031,126.0368],[30.7853,52.3058,148.2698],[30.7817,52.3142,155.4297],[30.7701,52.3282,133.7239],[30.7618,52.3312,142.4012],[30.7445,52.329,149.687],[30.7192,52.3352,137.2903],[30.711,52.3409,133.4346],[30.7071,52.3465,143.4671],[30.7117,52.3491,138.167],[30.7119,52.3518,137.3308],[30.7005,52.3714,140.1762],[30.7136,52.3738,142.566],[30.7138,52.3765,146.523],[30.7015,52.3851,133.0825],[30.6935,52.3935,148.3961],[30.6898,52.4019,151.02],[30.6814,52.4048,150.511],[30.6684,52.4052,136.8292],[30.6599,52.4081,148.5957],[30.656,52.4137,155.3275],[30.6568,52.4247,133.3305],[30.6527,52.4275,132.4467],[30.6359,52.4362,130.2013],[30.6274,52.4391,129.8497],[30.6144,52.4395,128.4785],[30.6102,52.4423,129.809],[30.6108,52.4505,154.1845],[30.6202,52.4585,136.3291],[30.6162,52.4641,135.4062],[30.6121,52.467,136.834],[30.6033,52.4672,142.222],[30.5944,52.4647,163.1267],[30.5724,52.4625,146.8081],[30.5641,52.4681,158.9633],[30.5603,52.4765,151.3268],[30.5652,52.4846,147.8347],[30.5658,52.4928,142.4649],[30.5616,52.4956,150.4266],[30.5483,52.4932,144.8178],[30.5485,52.4959,148.1302],[30.5408,52.5126,137.9858],[30.5366,52.5154,139.6943],[30.532,52.5128,141.9314],[30.5267,52.4992,147.6821],[30.5128,52.4886,158.3446],[30.4726,52.4786,151.003],[30.4596,52.4816,141.6651],[30.4375,52.4794,152.8427],[30.4202,52.4853,136.4473],[30.4075,52.4938,134.2024],[30.386,52.5025,120.9398],[30.3733,52.5111,121.7184],[30.3601,52.5114,126.0398],[30.3597,52.5059,129.445],[30.3551,52.5033,123.7743],[30.3463,52.5035,120.9721],[30.3203,52.5123,125.1265],[30.3066,52.5044,137.854],[30.3022,52.5045,121.6679],[30.2937,52.5102,119.6507],[30.2938,52.5129,120.8337],[30.2856,52.5241,141.6314],[30.2731,52.5381,120.2546],[30.2561,52.5494,120.5199],[30.2564,52.5549,120.0257],[30.261,52.5575,121.2273],[30.279,52.5626,118.6436],[30.2836,52.5652,120.5903],[30.2837,52.5679,120.4158],[30.2708,52.5737,121.4396]]]]}}