{"type": "Feature","bbox": [30.1981,52.4786,30.9711,53.0194],"geometry": {"type": "MultiPolygon","coordinates": [[[[30.91,52.5912,136.5968],[30.9068,52.6051,135.9624],[30.9073,52.6105,136.3304],[30.917,52.6213,157.495],[30.9172,52.6241,163.9264],[30.8972,52.6466,159.4907],[30.8848,52.6552,153.4906],[30.885,52.6579,149.5284],[30.8986,52.6631,146.6692],[30.9219,52.679,146.1039],[30.9317,52.6898,143.7927],[30.9324,52.6981,139.6288],[30.9416,52.7033,121.1076],[30.9548,52.703,120.6856],[30.9555,52.7113,121.3319],[30.9523,52.7251,129.8527],[30.9655,52.7248,128.1232],[30.9701,52.7274,122.3936],[30.9711,52.7384,121.1488],[30.9574,52.7333,129.2474],[30.953,52.7334,135.7252],[30.9488,52.7362,128.3841],[30.9409,52.7474,123.9258],[30.9277,52.7477,121.4149],[30.9064,52.7565,121.9848],[30.8661,52.7492,132.2328],[30.804,52.7451,159.6279],[30.7906,52.7427,165.6861],[30.7598,52.7434,165.0071],[30.7514,52.7491,162.8329],[30.7436,52.763,160.5132],[30.7442,52.7712,136.293],[30.7576,52.7737,145.9987],[30.7622,52.7763,147.1034],[30.7624,52.7791,147.4597],[30.7496,52.7849,151.7036],[30.7635,52.7928,156.2694],[30.7771,52.798,149.988],[30.7685,52.8009,155.7357],[30.7689,52.806399999999996,151.9754],[30.7821,52.8061,145.951],[30.787,52.8115,154.0495],[30.7878,52.8224,148.6852],[30.7413,52.8537,149.3334],[30.7235,52.8541,145.0521],[30.706,52.8572,149.6005],[30.6975,52.8629,148.8368],[30.6716,52.8744,137.6356],[30.6905,52.8905,148.3056],[30.7033,52.882,144.6389],[30.7164,52.8789,146.0824],[30.7253,52.8787,167.4498],[30.7346,52.884,165.6264],[30.735,52.8895,167.9636],[30.7311,52.8978,172.27],[30.7325,52.917,148.3117],[30.7241,52.9254,171.7263],[30.7114,52.9339,167.9982],[30.6982,52.9369,147.4728],[30.6804,52.9373,152.2328],[30.6627,52.9404,143.5066],[30.6586,52.946,149.4113],[30.659,52.9515,151.8501],[30.6462,52.96,147.0358],[30.6369,52.9547,150.2134],[30.6199,52.9688,146.0869],[30.6069,52.9745,154.8582],[30.5977,52.972,143.2188],[30.5835,52.9586,142.1445],[30.5745,52.9588,144.0697],[30.5702,52.9616,146.1618],[30.5661,52.9672,151.7592],[30.5604,53.0194,159.9555],[30.5558,53.0168,160.6761],[30.5287,53.0146,155.6873],[30.5241,53.012,156.2377],[30.5191,53.0039,156.0154],[30.5053,52.9987,149.7641],[30.5005,52.9933,148.7838],[30.5,52.9851,149.2442],[30.4954,52.9825,148.0981],[30.4818,52.98,150.4075],[30.4592,52.9778,147.7877],[30.4499,52.9725,146.728],[30.4309,52.9537,138.0368],[30.4308,52.951,139.301],[30.4869,52.9169,137.4145],[30.4953,52.9085,165.5067],[30.5026,52.8809,160.9512],[30.5069,52.8781,153.0687],[30.4796,52.8704,146.0923],[30.4621,52.8763,148.521],[30.4264,52.8771,147.4875],[30.4077,52.8638,142.3995],[30.3846,52.8506,144.8365],[30.3706,52.84,143.3033],[30.37,52.829,143.9337],[30.3829,52.8205,142.2406],[30.3964,52.8229,144.8165],[30.4009,52.8228,145.2244],[30.4052,52.82,145.4215],[30.4045,52.8091,145.2047],[30.4176,52.8033,142.0799],[30.4171,52.7951,142.2246],[30.4034,52.7899,140.2563],[30.3989,52.79,144.1344],[30.3988,52.7873,144.5695],[30.4031,52.7844,141.238],[30.412,52.7842,143.6926],[30.4205,52.7786,145.2897],[30.4202,52.7731,137.1227],[30.4156,52.7704,140.4445],[30.3749,52.7604,140.0935],[30.366,52.7606,140.5925],[30.312,52.7508,139.8209],[30.3073,52.7482,159.1252],[30.302,52.7319,139.3323],[30.2931,52.7321,155.5831],[30.2803,52.7433,138.6125],[30.2758,52.7434,138.249],[30.2711,52.738,140.2588],[30.2708,52.7326,142.2488],[30.261,52.7163,160.7154],[30.2518,52.7111,136.7582],[30.2336,52.706,137.2362],[30.2249,52.7089,130.8157],[30.1981,52.7095,138.5123],[30.2059,52.6874,122.9179],[30.2102,52.6846,122.2729],[30.2192,52.6871,130.6348],[30.2195,52.6926,141.1575],[30.2241,52.6952,135.951],[30.2286,52.6951,137.7583],[30.2329,52.6923,131.8318],[30.2328,52.6896,140.3715],[30.228,52.6842,134.6096],[30.2276,52.676,123.4341],[30.2319,52.6732,144.3656],[30.2366,52.6785,139.6418],[30.2411,52.6784,144.1901],[30.2498,52.6755,141.0927],[30.2495,52.67,126.0888],[30.2449,52.6674,140.0391],[30.2446,52.6619,121.7245],[30.2579,52.6616,137.353],[30.2622,52.6588,139.2477],[30.2621,52.6561,138.3986],[30.2483,52.6482,121.9182],[30.2481,52.6454,121.1752],[30.2563,52.6316,121.7294],[30.2737,52.6257,130.1636],[30.2869,52.6227,136.9065],[30.2957,52.6225,133.8378],[30.3045,52.6195,128.7239],[30.3041,52.614,132.6347],[30.2946,52.6033,121.2074],[30.2984,52.5923,122.707],[30.2981,52.5868,124.1799],[30.2935,52.5842,123.8795],[30.2804,52.5872,121.4205],[30.2758,52.5846,122.2971],[30.2708,52.5737,121.4396],[30.2837,52.5679,120.4158],[30.2836,52.5652,120.5903],[30.2564,52.5549,120.0257],[30.2561,52.5494,120.5199],[30.2731,52.5381,120.2546],[30.2856,52.5241,141.6314],[30.2938,52.5129,120.8337],[30.2937,52.5102,119.6507],[30.3022,52.5045,121.6679],[30.3066,52.5044,137.854],[30.3203,52.5123,125.1265],[30.3463,52.5035,120.9721],[30.3551,52.5033,123.7743],[30.3597,52.5059,129.445],[30.3601,52.5114,126.0398],[30.3733,52.5111,121.7184],[30.386,52.5025,120.9398],[30.4075,52.4938,134.2024],[30.4202,52.4853,136.4473],[30.4375,52.4794,152.8427],[30.4596,52.4816,141.6651],[30.4726,52.4786,151.003],[30.5128,52.4886,158.3446],[30.5267,52.4992,147.6821],[30.532,52.5128,141.9314],[30.5366,52.5154,139.6943],[30.5408,52.5126,137.9858],[30.5538,52.5095,134.4349],[30.5625,52.5093,131.8128],[30.5715,52.5118,130.5495],[30.5987,52.5249,130.2055],[30.618,52.5491,137.2032],[30.6269,52.5517,137.0036],[30.6363,52.5597,140.7287],[30.65,52.5676,129.0221],[30.6588,52.5674,129.391],[30.6931,52.5583,134.3723],[30.7191,52.5549,133.2394],[30.7237,52.5575,127.1293],[30.7241,52.563,132.1432],[30.7291,52.5711,128.166],[30.7348,52.5875,129.0786],[30.7618,52.5978,136.1353],[30.7793,52.5973,134.94],[30.7878,52.5944,142.7377],[30.7961,52.5887,138.0481],[30.7998,52.5803,138.2398],[30.804,52.5775,140.1337],[30.8253,52.5714,138.8677],[30.8299,52.5741,141.2132],[30.8308,52.585,147.8141],[30.8395,52.5848,145.4803],[30.8478,52.5791,142.1243],[30.8521,52.579,142.0383],[30.857,52.5844,137.5334],[30.8657,52.5841,139.5998],[30.8746,52.5866,135.195],[30.91,52.5912,136.5968]]]]}
,"properties": {"GID_2": "BLR.2.3_1","GID_0": "BLR","country": "Belarus","GID_1": "BLR.2_1","province": "Gomel","NL_NAME_1": "Гомельская","county": "Buda-Kashalyowa","VARNAME_2": "Buda-Koshelevo","NL_NAME_2": "Буда-Кашалёўскіраён","TYPE_2": "Raion","ENGTYPE_2": "District","CC_2": "NA","HASC_2": "BY.HO.BK","name": "Buda-Kashalyowa.county","area_km2": 1561.357,"hist_schema_id": "Elevation0-9000","hist_area_km2": {"125": 365.413,"150": 1111.353,"175": 84.475,"200": 0.115}}}