{"type": "Feature","bbox": [23.3934,51.5075,24.1287,52.3276],"geometry": {"type": "MultiPolygon","coordinates": [[[[24.1141,52.0518,155.7791],[24.104,52.0591,152.8235],[24.1036,52.0618,149.9628],[24.0893,52.0661,146.9],[24.0889,52.0688,155.5588],[24.093,52.0718,149.6161],[24.1061,52.0756,146.8582],[24.1054,52.0809,139.7282],[24.0956,52.0856,142.0716],[24.0904,52.0905,141.2121],[24.0814,52.0898,138.6283],[24.0776,52.0841,139.228],[24.0686,52.0834,140.5063],[24.0637,52.0857,140.885],[24.0633,52.0884,140.6604],[24.0377,52.1081,138.9062],[24.015,52.1064,138.9316],[24.0067,52.1004,139.8181],[23.9981,52.0971,139.8369],[23.9753,52.0955,140.3318],[23.9469,52.1016,141.478],[23.932,52.1088,131.5],[23.9316,52.1114,131.5],[23.9446,52.1177,141.5862],[23.9602,52.1376,143.0461],[23.9636,52.146,136.9714],[23.9625,52.1539,140.4663],[23.9573,52.159,140.907],[23.9429,52.1634,138.7401],[23.9412,52.1767,144.221],[23.9317,52.1788,142.0113],[23.9184,52.1753,144.093],[23.9079,52.1854,154.9999],[23.9069,52.1933,175.5824],[23.9137,52.2125,162.9815],[23.9162,52.2286,148.5858],[23.9149,52.2392,148.8208],[23.9098,52.2442,150.0508],[23.9052,52.243899999999996,150.346],[23.8968,52.2381,181.1862],[23.889,52.227,180.4304],[23.8802,52.2238,165.5579],[23.8711,52.2233,183.4015],[23.8605,52.236,162.9198],[23.8595,52.244,164.5144],[23.8541,52.2516,156.9487],[23.8492,52.254,161.9521],[23.8408,52.2483,168.2957],[23.832,52.2451,177.2788],[23.8317,52.2478,172.1688],[23.8266,52.2528,176.9066],[23.822,52.2526,179.9032],[23.8178,52.2497,163.5289],[23.804,52.2516,158.7913],[23.7815,52.2504,150.7144],[23.7773,52.2475,150.0019],[23.768,52.2496,146.5949],[23.7586,52.2543,141.7448],[23.7365,52.2529,142.1568],[23.7318,52.2553,142.8458],[23.7274,52.255,142.3111],[23.7313,52.2606,144.4287],[23.7264,52.2655,154.2868],[23.7173,52.2676,153.9122],[23.7086,52.2671,159.4065],[23.704,52.2695,159.4102],[23.7081,52.2724,157.847],[23.7075,52.2777,156.3155],[23.7029,52.28,156.5085],[23.6899,52.2793,157.5049],[23.6894,52.2845,158.4622],[23.6932,52.2901,144.2883],[23.684,52.2948,143.8583],[23.6757,52.2916,143.2294],[23.6759,52.289,143.2191],[23.6631,52.2881,153.4908],[23.6507,52.2845,143.6595],[23.6428,52.2786,142.119],[23.6344,52.2779,136.9577],[23.63,52.2802,134.741],[23.6293,52.2881,135.5013],[23.6328,52.2964,138.1647],[23.6406,52.3023,155.765],[23.6311,52.3148,145.2615],[23.5946,52.3039,149.9262],[23.575,52.2916,153.4891],[23.5709,52.2913,154.0212],[23.5665,52.2936,157.5237],[23.5651,52.3096,167.3357],[23.5733,52.3102,162.1908],[23.582,52.3056,156.7364],[23.5861,52.3059,154.605],[23.59,52.3089,153.0241],[23.5554,52.3249,159.6535],[23.5513,52.3246,160.6804],[23.5474,52.3216,162.5472],[23.5443,52.3106,166.187],[23.5363,52.3073,174.186],[23.5275,52.307,166.8812],[23.5138,52.3119,175.0246],[23.5135,52.3146,176.155],[23.5089,52.3171,174.7212],[23.5045,52.317,170.3925],[23.5037,52.325,195.9899],[23.499,52.3276,192.5675],[23.4946,52.3274,197.0761],[23.4824,52.3162,164.8071],[23.4692,52.3158,161.5964],[23.4609,52.3101,161.2114],[23.4563,52.3126,159.4624],[23.4475,52.3123,172.016],[23.448,52.3069,180.9078],[23.4576,52.2992,169.5866],[23.4498,52.2881,171.0066],[23.4275,52.29,172.1729],[23.4229,52.2926,179.5406],[23.4185,52.2924,172.1075],[23.4102,52.2867,171.4939],[23.3967,52.2889,172.978],[23.397,52.2862,164.9033],[23.4019,52.281,156.9928],[23.4157,52.2761,164.7306],[23.4165,52.268,159.819],[23.4124,52.2651,152.5178],[23.4077,52.2677,155.3982],[23.4036,52.2648,153.8421],[23.4039,52.2621,156.3091],[23.4141,52.249,159.571],[23.42,52.2357,155.3511],[23.4185,52.2084,128.436],[23.4147,52.2028,129.0269],[23.4107,52.1999,133.7491],[23.4104,52.2026,129.8815],[23.4016,52.2022,128.6402],[23.4019,52.1995,129.6706],[23.3979,52.1966,134.4695],[23.3934,52.1963,125.0702],[23.4017,52.193,129.3148],[23.3973,52.1876,134.7163],[23.3988,52.1788,126.0637],[23.4042,52.1776,125.9326],[23.4126,52.1824,127.7803],[23.4131,52.1781,127.1008],[23.419,52.1795,124.8134],[23.4228,52.1734,125.7051],[23.4276,52.1723,130.2138],[23.4398,52.178,127.009],[23.4453,52.1831,127.3175],[23.4491,52.182,128.4511],[23.4582,52.1846,126.5284],[23.4623,52.1833,127.0263],[23.4617,52.1775,129.2233],[23.4671,52.1742,127.2837],[23.4712,52.1743,128.307],[23.4767,52.1772,131.686],[23.4835,52.1761,130.466],[23.4903,52.181,126.7199],[23.5038,52.1777,125.9262],[23.5054,52.1765,127.9789],[23.5058,52.1727,128.8736],[23.4979,52.1717,126.9962],[23.4969,52.1745,128.2861],[23.4926,52.1751,127.6544],[23.4956,52.1701,127.653],[23.4899,52.1682,128.146],[23.486,52.1647,127.2372],[23.4895,52.1599,128.0118],[23.487,52.1548,133.1183],[23.4882,52.1516,126.7914],[23.5008,52.147,132.8552],[23.5066,52.1504,128.9106],[23.5109,52.1496,129.2601],[23.5153,52.143,128.4593],[23.5143,52.1372,135.73],[23.5187,52.1385,133.5984],[23.5212,52.1329,130.3968],[23.5269,52.1314,128.5466],[23.5331,52.1326,128.6519],[23.5371,52.1294,129.1605],[23.5422,52.128,133.0735],[23.5434,52.1196,129.4404],[23.5484,52.1154,128.236],[23.5478,52.1115,132.3028],[23.5502,52.1094,131.6913],[23.5563,52.1105,130.9078],[23.556,52.1176,130.2537],[23.5581,52.119,132.479],[23.5586,52.1134,130.4675],[23.5802,52.1199,131.4999],[23.5876,52.1173,134.2846],[23.5986,52.1174,131.9333],[23.6044,52.114,130.1964],[23.6086,52.1092,130.5509],[23.619,52.1049,130.1555],[23.6126,52.1041,130.4558],[23.6101,52.1012,129.2796],[23.6116,52.0982,132.2147],[23.6201,52.0914,130.6022],[23.6273,52.0882,131.7703],[23.6402,52.0858,132.7335],[23.6403,52.0809,133.3167],[23.6438,52.077,134.9482],[23.644,52.0743,138.0053],[23.6518,52.0749,134.0612],[23.6539,52.0721,132.9215],[23.6523,52.07,134.9222],[23.6484,52.072,135.8423],[23.6442,52.0717,136.8029],[23.6445,52.069,135.6368],[23.6502,52.0686,134.312],[23.6442,52.0651,132.2467],[23.6474,52.0628,134.0679],[23.6537,52.0627,134.2959],[23.6555,52.0596,132.7275],[23.653,52.0585,132.6092],[23.6471,52.0605,133.5373],[23.6423,52.0597,132.8298],[23.6435,52.0578,132.8],[23.6538,52.0548,133.2306],[23.6577,52.0437,133.4264],[23.6627,52.0399,133.1178],[23.6621,52.0367,135.7356],[23.6564,52.0325,135.4647],[23.6566,52.0298,134.6036],[23.661,52.0301,136.6041],[23.6632,52.0249,134.7207],[23.6573,52.0187,133.8815],[23.6672,52.0146,135.89],[23.6749,52.0045,135.1856],[23.6842,52.0002,137.6228],[23.6838,51.9989,137.6228],[23.6774,51.9985,135.7867],[23.6733,51.9954,135.9297],[23.669,51.9951,135.8991],[23.665,51.992,136.9684],[23.666,51.9834,136.8495],[23.6702,51.9812,136.9885],[23.6649,51.9777,137.7942],[23.6493,51.9766,141.3891],[23.65,51.971,138.1458],[23.6457,51.9706,138.5251],[23.646,51.9678,139.5618],[23.6421,51.9646,140.2122],[23.6295,51.9634,139.8111],[23.63,51.9579,141.6503],[23.6424,51.9618,139.2122],[23.6431,51.9551,136.7697],[23.6398,51.9535,136.7641],[23.6295,51.9525,139.9444],[23.6269,51.9486,138.7607],[23.6289,51.9475,138.7607],[23.6379,51.9502,138.7058],[23.6404,51.9497,136.846],[23.6416,51.9477,139.7073],[23.6402,51.9429,138.1988],[23.6454,51.9388,138.1691],[23.6456,51.9338,140.6388],[23.6437,51.9318,143.9546],[23.6322,51.9313,140.4639],[23.6306,51.9289,137.8744],[23.6302,51.922,140.0462],[23.6199,51.9252,142.2426],[23.6121,51.9188,141.2555],[23.613,51.9164,140.1122],[23.6204,51.911,139.9138],[23.6199,51.9073,142.372],[23.6175,51.9054,140.1362],[23.6184,51.9035,141.2419],[23.6333,51.8985,139.5528],[23.6242,51.8923,142.0367],[23.6286,51.8925,142.6521],[23.6293,51.8894,144.8734],[23.6235,51.8869,140.6331],[23.6222,51.8844,142.9541],[23.6295,51.8793,140.2368],[23.6317,51.8753,141.8266],[23.6303,51.8734,142.6425],[23.6276,51.8732,141.416],[23.617,51.8783,145.2386],[23.6071,51.8763,149.939],[23.61,51.8613,144.5717],[23.6162,51.858,142.5838],[23.6157,51.8546,142.0636],[23.6123,51.8517,145.9992],[23.6121,51.8485,145.0878],[23.6035,51.848,143.3049],[23.6037,51.8452,145.3661],[23.612,51.8454,146.2746],[23.6075,51.8428,144.5904],[23.6014,51.8421,143.9951],[23.6002,51.8399,143.1988],[23.6093,51.8387,147.3787],[23.6087,51.8366,144.2925],[23.6021,51.8342,143.7238],[23.6029,51.8303,141.6883],[23.6174,51.8316,143.1007],[23.6215,51.8307,142.1844],[23.6245,51.8261,143.4416],[23.6215,51.8209,142.4294],[23.6285,51.819,146.69],[23.6331,51.8113,143.1465],[23.6399,51.8053,143.514],[23.6413,51.8002,146.8272],[23.6343,51.795,143.7382],[23.6372,51.7937,146.0687],[23.6366,51.7918,148.0649],[23.635,51.7909,143.0374],[23.6304,51.7922,144.3477],[23.6285,51.7908,142.6909],[23.6312,51.7865,143.3854],[23.6313,51.7814,143.9212],[23.6266,51.7827,146.0579],[23.6254,51.7819,145.314],[23.6265,51.7809,147.5255],[23.6234,51.7806,147.386],[23.6257,51.7797,144.4625],[23.6228,51.7779,146.4111],[23.616,51.7775,145.4085],[23.6151,51.7766,144.5326],[23.6168,51.7747,145.2569],[23.615,51.7727,143.7975],[23.597,51.7722,146.071],[23.5943,51.7666,144.9507],[23.589,51.7637,149.7106],[23.5872,51.7595,144.5131],[23.5815,51.7603,147.7892],[23.5739,51.758,147.6304],[23.5735,51.7606,146.4941],[23.5696,51.7597,147.1376],[23.5699,51.7576,145.8647],[23.5656,51.7574,145.8097],[23.5621,51.7608,148.839],[23.559,51.7616,145.3297],[23.5565,51.7576,145.5012],[23.55,51.7546,147.1544],[23.546,51.7484,146.4575],[23.5405,51.7454,148.4223],[23.5309,51.7436,147.5921],[23.5323,51.7371,146.3076],[23.527,51.7298,148.9811],[23.5346,51.7281,148.0535],[23.5341,51.7237,150.244],[23.5373,51.7225,150.244],[23.5435,51.7239,149.6125],[23.5429,51.7266,147.7988],[23.544,51.7275,152.8489],[23.5469,51.7272,152.8489],[23.5483,51.7191,148.2841],[23.553,51.7162,149.002],[23.5473,51.7101,148.9742],[23.5542,51.7095,148.8393],[23.5555,51.7071,150.444],[23.5485,51.7042,147.8481],[23.5587,51.7013,152.0812],[23.5604,51.699,148.8437],[23.5555,51.6962,149.8545],[23.5547,51.6916,150.0993],[23.5498,51.6875,149.6778],[23.5489,51.6847,150.1614],[23.556,51.6813,147.9497],[23.5522,51.6747,150.3031],[23.5582,51.6653,150.9424],[23.5545,51.6629,150.6967],[23.5466,51.6631,150.8371],[23.5428,51.6581,152.9886],[23.5393,51.6568,150.6555],[23.5437,51.6516,152.1892],[23.5402,51.6495,151.9189],[23.5374,51.6446,151.562],[23.5384,51.6438,151.9459],[23.5422,51.6454,151.2451],[23.5478,51.642,151.0249],[23.5477,51.6369,152.1781],[23.5393,51.6338,152.4915],[23.5437,51.6308,153.5087],[23.5429,51.6257,153.6165],[23.5465,51.6209,152.1264],[23.5445,51.6158,154.3947],[23.5403,51.6122,159.0878],[23.5431,51.6113,150.7759],[23.5424,51.6079,156.2225],[23.544,51.605,153.9341],[23.5403,51.6019,152.8718],[23.549,51.5977,152.132],[23.5506,51.5916,152.5365],[23.5544,51.588,152.4656],[23.5532,51.5836,153.3036],[23.564,51.5812,153.2013],[23.5671,51.5792,156.65],[23.5679,51.5756,154.9058],[23.5642,51.5696,157.7729],[23.5689,51.5676,155.0157],[23.5677,51.563,155.8113],[23.569,51.5609,158.4695],[23.5765,51.5589,154.8062],[23.5652,51.55,156.5904],[23.5625,51.5441,157.3417],[23.5648,51.5407,155.0566],[23.5646,51.5353,156.8911],[23.569,51.5327,159.033],[23.5771,51.5322,155.066],[23.5854,51.5289,159.0491],[23.5874,51.5295,154.7976],[23.5903,51.5344,155.8313],[23.5953,51.5348,155.1987],[23.6025,51.529,158.3432],[23.6128,51.5288,161.916],[23.6144,51.5226,159.336],[23.6258,51.5138,165.1511],[23.6478,51.5106,188.5009],[23.6575,51.5115,179.9327],[23.667,51.5075,188.8328],[23.6826,51.5119,178.0589],[23.689,51.5173,176.3585],[23.6904,51.5234,182.3577],[23.6888,51.532,175.2805],[23.6787,51.5493,172.0674],[23.6721,51.5542,172.509],[23.6722,51.5602,178.0191],[23.6752,51.5675,174.559],[23.69,51.5809,171.5911],[23.6901,51.5899,172.8944],[23.6732,51.6026,178.6401],[23.6649,51.6029,173.3596],[23.6651,51.6089,169.6491],[23.658,51.6155,169.7564],[23.6555,51.6159,163.8185],[23.6596,51.6242,179.4211],[23.6627,51.6375,171.129],[23.6779,51.6461,172.1963],[23.7074,51.6518,158.0319],[23.7301,51.6537,157.2959],[23.7681,51.6529,171.6157],[23.7789,51.6541,180.2382],[23.7906,51.6581,171.8363],[23.8372,51.6586,166.8829],[23.8395,51.6673,173.2074],[23.8285,51.6957,160.4539],[23.8189,51.736,157.2401],[23.8257,51.748,171.3326],[23.841,51.7637,170.6709],[23.8566,51.7767,171.1902],[23.8616,51.7952,174.8499],[23.8693,51.8019,159.1192],[23.8836,51.8,156.4028],[23.8889,51.7974,157.2923],[23.8865,51.7881,166.909],[23.897,51.7828,157.5727],[23.8977,51.7798,157.6657],[23.8947,51.7735,157.4998],[23.8954,51.7705,157.5604],[23.9052,51.7682,157.1657],[23.9233,51.7698,157.6838],[23.927,51.7732,157.8011],[23.9286,51.7856,163.4353],[23.9271,51.7916,157.3884],[23.9197,51.8032,157.3143],[23.9168,51.8151,157.7404],[23.9109,51.8207,160.0873],[23.9005,51.8259,165.4305],[23.8825,51.8243,159.8012],[23.8727,51.8265,169.215],[23.8668,51.8321,168.615],[23.8654,51.8381,156.5154],[23.8497,51.8459,161.0935],[23.8483,51.8518,164.0496],[23.8636,51.8653,166.2719],[23.8622,51.8712,177.8816],[23.8699,51.8779,168.6063],[23.9017,51.8804,170.8501],[23.9095,51.8868,177.3314],[23.9123,51.8958,173.227],[23.9293,51.9029,171.5432],[23.9384,51.9036,174.7998],[23.9423,51.9068,176.777],[23.9452,51.9156,174.9248],[23.9436,51.9241,162.1282],[23.9329,51.9319,156.0143],[23.9304,51.9459,159.6328],[23.9248,51.9512,157.355],[23.9101,51.9558,175.3762],[23.9091,51.9614,164.5129],[23.9132,51.9645,172.3838],[23.9082,51.9669,165.3949],[23.9036,51.9666,173.6827],[23.8718,51.9899,155.2505],[23.8754,51.9957,155.5285],[23.8796,51.9987,159.5746],[23.9071,52.0004,161.6865],[23.9199,52.0068,153.9601],[23.9282,52.0128,140.6719],[23.9373,52.0135,139.6891],[23.9523,52.0062,140.7402],[23.9659,52.0072,152.3511],[23.9709,52.0048,147.8523],[23.9718,51.9993,144.9313],[23.9627,51.9986,151.6882],[23.9586,51.9955,141.2523],[23.9591,51.9928,142.3497],[23.9736,51.9883,141.335],[23.9936,51.9786,156.8416],[24.026,51.9756,147.0849],[24.0301,51.9787,144.0391],[24.0296,51.9815,156.3486],[24.0247,51.9839,159.1923],[24.0413,51.9936,158.737],[24.0718,52.0016,155.5182],[24.1027,52.007,143.8341],[24.1112,52.0105,155.9523],[24.1246,52.0117,159.9117],[24.1287,52.0148,159.5923],[24.1189,52.0194,146.6526],[24.1136,52.0244,161.0683],[24.1128,52.0299,161.3181],[24.0994,52.0287,158.7125],[24.09,52.0307,152.6628],[24.0896,52.0334,159.4294],[24.1022,52.0399,161.8405],[24.1018,52.0426,153.3467],[24.097,52.0449,149.9202],[24.0966,52.0476,151.6029],[24.1141,52.0518,155.7791]]]]}
,"properties": {"GID_2": "BLR.1.3_1","GID_0": "BLR","country": "Belarus","GID_1": "BLR.1_1","province": "Brest","NL_NAME_1": "Брэсцкая","county": "Brest","VARNAME_2": "NA","NL_NAME_2": "Брэсцкіраён","TYPE_2": "Raion","ENGTYPE_2": "District","CC_2": "NA","HASC_2": "BY.BR.BR","name": "Brest.county","area_km2": 1826.251,"hist_schema_id": "Elevation0-9000","hist_area_km2": {"125": 218.476,"150": 1193.516,"175": 411.04,"200": 3.219}}}