{"type": "Feature","bbox": [27.0109,53.6284,27.9847,54.2599],"geometry": {"type": "MultiPolygon","coordinates": [[[[27.9847,53.7928,177.7675],[27.9754,53.8037,173.594],[27.9661,53.8038,173.8593],[27.9474,53.8148,175.6996],[27.9242,53.8203,177.2254],[27.9056,53.8177,179.5457],[27.8916,53.8177,180.2794],[27.8916,53.8313,183.5728],[27.9009,53.8367,192.0119],[27.9009,53.8422,198.8056],[27.8962,53.8476,194.625],[27.8729,53.8586,230.9695],[27.8729,53.8641,250.8796],[27.8822,53.8695,241.6538],[27.8915,53.8694,227.4398],[27.9008,53.8749,197.222],[27.9008,53.8803,197.6048],[27.8962,53.8912,198.7925],[27.8962,53.8967,187.955],[27.9055,53.8993,188.7573],[27.9288,53.902,213.4941],[27.9195,53.9211,206.7292],[27.9148,53.9238,195.0226],[27.9148,53.932,199.2651],[27.9101,53.9429,204.9923],[27.9054,53.9483,198.9102],[27.8961,53.9538,205.1047],[27.8868,53.9539,212.308],[27.8821,53.9566,218.6018],[27.8821,53.9621,197.6885],[27.8961,53.9756,215.2764],[27.8961,53.9811,224.0189],[27.8867,53.9838,245.6244],[27.8727,53.9839,218.4882],[27.868,53.9866,226.0939],[27.8634,53.9894,228.9426],[27.8633,54.0003,211.5079],[27.8493,54.0085,224.8941],[27.8493,54.0139,219.0461],[27.8586,54.0166,222.3184],[27.8586,54.0221,224.5368],[27.8539,54.0275,224.1041],[27.8539,54.033,199.3985],[27.8679,54.0465,218.8959],[27.8679,54.0493,183.9676],[27.8632,54.052,186.5465],[27.8539,54.052,194.2447],[27.8352,54.0467,217.3289],[27.8352,54.0385,238.3746],[27.8259,54.0358,231.1227],[27.8118,54.044,248.5996],[27.8118,54.0495,234.7823],[27.8305,54.0603,233.2448],[27.8305,54.0657,215.7646],[27.8258,54.0712,237.5026],[27.8023,54.0794,222.6554],[27.8023,54.0822,208.4506],[27.7976,54.0876,201.5451],[27.8023,54.0903,193.5],[27.7976,54.0985,258.0375],[27.7882,54.0986,259.6293],[27.7835,54.0959,253.4027],[27.7836,54.0822,240.305],[27.7602,54.0823,235.795],[27.7555,54.085,236.7713],[27.7555,54.0932,246.1213],[27.732,54.096,223.8194],[27.718,54.0933,237.6712],[27.7133,54.0961,236.6078],[27.7133,54.0988,248.1853],[27.7179,54.1042,249.1234],[27.7132,54.1097,255.3493],[27.6804,54.1098,247.4084],[27.6758,54.1016,217.5643],[27.6711,54.0989,253.6482],[27.6664,54.1016,244.2115],[27.6664,54.1098,244.1638],[27.6476,54.1098,246.7271],[27.6523,54.1125,249.6071],[27.6523,54.118,256.0214],[27.6429,54.1153,250.1294],[27.6148,54.1126,277.1881],[27.6102,54.1099,276.4484],[27.6149,54.1072,282.3185],[27.6196,54.099,279.8384],[27.6196,54.0963,263.1173],[27.6243,54.0935,257.5658],[27.6477,54.0962,246.9374],[27.6571,54.0907,237.8137],[27.6572,54.0826,244.9748],[27.6619,54.0798,244.9872],[27.6526,54.0663,266.1851],[27.6293,54.0581,265.7551],[27.6199,54.0582,245.1433],[27.6152,54.0636,249.502],[27.6011,54.0718,247.7271],[27.601,54.0773,239.1535],[27.5917,54.08,252.7356],[27.5823,54.0855,250.9289],[27.5822,54.0936,251.5885],[27.568,54.11,274.7595],[27.5679,54.1209,289.5762],[27.5725,54.129,307.5941],[27.5631,54.1345,311.3524],[27.563,54.1454,308.6786],[27.5769,54.1617,309.9275],[27.5722,54.1699,330.1829],[27.5721,54.1726,320.0402],[27.5815,54.178,306.7621],[27.5814,54.1889,295.8814],[27.590699999999998,54.1971,310.2039],[27.590699999999998,54.1998,309.0367],[27.586,54.2025,314.6985],[27.5766,54.2026,334.0435],[27.5719,54.1998,328.3511],[27.5532,54.1944,325.6403],[27.525,54.1945,279.7847],[27.5061,54.2054,262.9749],[27.4921,54.2027,268.5015],[27.478,54.2027,266.366],[27.4779,54.2081,267.7999],[27.4826,54.2108,260.4217],[27.492,54.2108,270.0115],[27.4967,54.2136,271.4447],[27.5013,54.219,298.8333],[27.4966,54.2217,292.2226],[27.4779,54.2163,259.9576],[27.4732,54.2136,266.3795],[27.4638,54.2163,250.0263],[27.4637,54.219,244.4918],[27.4731,54.2245,255.2504],[27.4871,54.2272,259.683],[27.4964,54.2353,256.6481],[27.4823,54.2435,288.0692],[27.4822,54.2462,302.9946],[27.4869,54.249,309.3237],[27.4868,54.2544,300.3584],[27.4727,54.2544,288.1755],[27.4681,54.2517,276.8323],[27.4682,54.2435,275.5434],[27.4495,54.2327,267.5862],[27.4495,54.2299,275.5429],[27.4355,54.2299,247.1955],[27.4354,54.2327,245.0181],[27.4401,54.2381,254.1143],[27.4447,54.2408,255.3606],[27.4446,54.249,268.3721],[27.4493,54.2517,254.2494],[27.4493,54.2544,260.6245],[27.4351,54.2599,267.1885],[27.4304,54.2599,267.7184],[27.4257,54.2572,273.7335],[27.4117,54.2545,240.2092],[27.4023,54.2545,239.2105],[27.3976,54.2572,253.5349],[27.3835,54.2572,230.9264],[27.3742,54.249,234.3969],[27.3601,54.249,237.5241],[27.3554,54.2518,240.7762],[27.346,54.2518,204.0701],[27.3367,54.2463,228.2101],[27.3508,54.2436,243.0677],[27.3509,54.2381,252.4472],[27.3462,54.2327,235.3338],[27.3322,54.2273,243.718],[27.3371,54.2191,245.3593],[27.3371,54.2164,250.7962],[27.3324,54.2136,253.768],[27.3231,54.2136,248.378],[27.3184,54.2082,241.3673],[27.3185,54.2055,226.9301],[27.3374,54.1946,206.947],[27.3374,54.1919,223.4151],[27.3234,54.1891,223.2403],[27.3094,54.1837,231.924],[27.3095,54.181,234.8033],[27.3048,54.1782,224.9267],[27.3049,54.1728,236.7278],[27.291,54.1646,228.9039],[27.2911,54.1537,252.6567],[27.3005,54.151,255.6612],[27.3006,54.1456,260.9206],[27.296,54.1401,268.7715],[27.2726,54.1401,213.2369],[27.2399,54.1319,257.0371],[27.226,54.1265,258.5508],[27.2213,54.1238,251.53809999999999],[27.2216,54.1102,274.5526],[27.2264,54.102,261.2637],[27.2171,54.0965,259.1768],[27.1658,54.0911,267.2076],[27.1658,54.0883,277.1298],[27.1705,54.0856,273.7095],[27.1846,54.0829,257.6455],[27.1846,54.0802,261.855],[27.1707,54.0775,283.2817],[27.1613,54.0774,293.6184],[27.1614,54.0747,292.0321],[27.1662,54.0666,300.7806],[27.1664,54.053,290.9265],[27.1757,54.053,286.5699],[27.185,54.0557,283.2104],[27.1898,54.053,280.9955],[27.1852,54.0475,268.5235],[27.1852,54.0448,293.9312],[27.19,54.0366,305.9309],[27.1901,54.0312,293.5135],[27.1949,54.0258,282.7575],[27.1903,54.0203,282.1534],[27.181,54.0203,289.3941],[27.1718,54.0067,287.4563],[27.153199999999998,54.0067,289.268],[27.1485,54.0094,297.231],[27.1298,54.0094,286.3332],[27.1206,54.0039,297.4874],[27.1206,54.0012,289.0685],[27.1113,54.0012,300.7105],[27.0975,53.993,271.3452],[27.0976,53.9848,284.5669],[27.107,53.9794,270.864],[27.1072,53.9712,227.9442],[27.1026,53.9658,235.8089],[27.0842,53.9522,229.3594],[27.0749,53.9521,228.4454],[27.0703,53.9494,232.7886],[27.047,53.9494,230.6678],[27.0332,53.9412,279.3534],[27.0334,53.933,290.8005],[27.0289,53.9248,284.0539],[27.0243,53.9221,274.958],[27.0244,53.9167,285.6885],[27.0199,53.9085,298.2062],[27.02,53.9003,316.635],[27.0109,53.8922,311.3328],[27.0109,53.8894,300.2841],[27.0156,53.8894,313.5302],[27.0341,53.8949,310.3741],[27.0526,53.8977,308.1891],[27.0666,53.8977,281.3509],[27.0713,53.895,304.1782],[27.0668,53.8868,308.0459],[27.067,53.8759,312.0526],[27.0717,53.8705,326.9173],[27.0811,53.8651,324.9527],[27.1044,53.8624,309.4733],[27.1137,53.8597,295.0577],[27.1276,53.8624,284.9344],[27.1368,53.8706,278.9077],[27.1507,53.8734,269.6362],[27.1601,53.8706,273.7282],[27.1601,53.8652,265.4331],[27.1649,53.8598,270.3831],[27.1742,53.8598,278.5321],[27.188,53.8707,276.7587],[27.1973,53.8707,269.1287],[27.202,53.868,274.7686],[27.2207,53.8625,276.8047],[27.2346,53.8625,287.0383],[27.2627,53.8544,291.1254],[27.2673,53.8517,287.4905],[27.2674,53.849,289.7129],[27.2582,53.8381,301.7804],[27.2583,53.8353,296.7189],[27.2629,53.8326,296.3718],[27.2769,53.8326,292.4758],[27.2816,53.8299,281.8196],[27.2817,53.8218,272.2126],[27.2911,53.8109,267.1474],[27.3097,53.8136,271.2151],[27.3237,53.8136,259.1275],[27.3237,53.8082,266.1919],[27.3146,53.7973,251.5125],[27.3192,53.7945,249.9799],[27.3471,53.7945,242.3904],[27.3471,53.8,245.1642],[27.3517,53.8054,241.1149],[27.3609,53.8081,243.6177],[27.3796,53.8054,239.0903],[27.3843,53.8027,236.4509],[27.3843,53.8,235.6422],[27.375,53.7945,248.0328],[27.3565,53.7918,225.1518],[27.3566,53.7837,231.0572],[27.4078,53.7727,231.0095],[27.4219,53.7618,218.497],[27.4219,53.7591,211.8242],[27.4127,53.7537,221.2609],[27.4127,53.751,221.3441],[27.4221,53.7401,210.7748],[27.4222,53.7346,216.7137],[27.4037,53.7265,226.5891],[27.3991,53.7238,225.1091],[27.3991,53.7211,220.5596],[27.4131,53.7129,211.3216],[27.4131,53.7102,203.5384],[27.4178,53.7075,202.536],[27.441,53.7102,203.1424],[27.4457,53.7074,205.1414],[27.4457,53.702,211.0778],[27.4551,53.6965,209.8289],[27.469,53.6965,206.7047],[27.4737,53.6911,201.6261],[27.4738,53.6802,201.3239],[27.4785,53.6775,198.6035],[27.4786,53.6584,197.1434],[27.4879,53.6557,192.4114],[27.5019,53.6557,191.8792],[27.5158,53.6584,188.9825],[27.5343,53.6583,189.4468],[27.539,53.6556,190.6889],[27.539,53.6529,190.7504],[27.5344,53.6502,189.638],[27.5205,53.6502,191.3452],[27.5112,53.6475,189.3443],[27.5113,53.6421,188.0868],[27.5159,53.6393,189.266],[27.5252,53.6393,191.454],[27.5345,53.6339,186.6262],[27.5346,53.6284,184.1146],[27.567,53.6311,176.64],[27.5948,53.6364,182.425],[27.5994,53.6391,185.6196],[27.6134,53.6391,184.1395],[27.6319,53.6472,176.6628],[27.6272,53.6527,179.2846],[27.6318,53.6581,179.6649],[27.6596,53.6689,188.2699],[27.6689,53.6743,184.7621],[27.7013,53.6796,208.2865],[27.7152,53.685,200.1644],[27.7199,53.6877,204.2206],[27.7245,53.6932,188.7955],[27.7198,53.7041,226.3934],[27.7244,53.7068,225.271],[27.7244,53.7095,208.6394],[27.7151,53.715,194.7204],[27.7104,53.7231,182.4461],[27.7104,53.7259,181.3087],[27.729,53.734,180.68],[27.7569,53.7393,175.1171],[27.7615,53.7447,189.5676],[27.7708,53.7501,185.4871],[27.7847,53.7528,179.6423],[27.8033,53.7528,183.3685],[27.8266,53.7499,192.3754],[27.8591,53.7525,175.578],[27.8731,53.7498,174.7234],[27.887,53.7524,174.75],[27.8963,53.7524,176.404],[27.9056,53.7632,178.4359],[27.9149,53.7632,187.4806],[27.9521,53.7712,174.0453],[27.9614,53.7766,172.5659],[27.9754,53.7956,172.085],[27.9847,53.7928,177.7675]]]]}
,"properties": {"GID_1": "BLR.7_1","GID_0": "BLR","country": "Belarus","province": "Minsk","VARNAME_1": "Минск|МинскаяОбласть|MinskObla","NL_NAME_1": "Мінская","TYPE_1": "City","ENGTYPE_1": "City","CC_1": "NA","HASC_1": "BY.MI","ISO_1": "NA","name": "Minsk.province","area_km2": 2250.447,"hist_schema_id": "Elevation0-9000","hist_area_km2": {"175": 130.77,"200": 465.36,"225": 645.964,"250": 616.306,"275": 271.052,"300": 94.69,"325": 23.947,"350": 2.359}}}