{"type": "Feature","bbox": [26.798,52.8223,27.5235,53.3886],"geometry": {"type": "MultiPolygon","coordinates": [[[[27.1871,52.9498,158.8567],[27.1689,52.9497,156.3555],[27.1684,52.9823,168.8884],[27.1637,52.9877,171.5863],[27.1637,52.9904,170.9851],[27.1591,52.9931,164.407],[27.1591,52.9958,167.1731],[27.1545,52.9985,166.5587],[27.1408,52.9985,164.6765],[27.1497,53.0094,165.8297],[27.1542,53.0175,165.3225],[27.1541,53.0202,163.6077],[27.1404,53.0202,165.807],[27.1403,53.0256,167.5211],[27.1448,53.0338,159.1099],[27.1447,53.0365,158.8932],[27.1538,53.0419,171.3892],[27.1676,53.0392,165.3814],[27.1813,53.0392,162.2784],[27.1904,53.042,159.8532],[27.1949,53.0447,160.2083],[27.1993,53.0555,165.3442],[27.2084,53.061,172.195],[27.213,53.061,171.4612],[27.2129,53.0637,170.5501],[27.1945,53.0745,176.3866],[27.1898,53.0799,182.6467],[27.1898,53.0854,180.326],[27.2264,53.0854,171.3526],[27.2491,53.0963,170.0037],[27.2583,53.0963,173.3979],[27.2813,53.0908,163.7066],[27.2995,53.1017,164.2354],[27.2948,53.1098,174.6524],[27.2902,53.1125,171.8838],[27.2902,53.1152,172.4832],[27.2947,53.118,170.8039],[27.3085,53.118,166.9106],[27.3177,53.1152,173.4447],[27.3222,53.118,176.0872],[27.3222,53.1234,176.549],[27.3313,53.1234,179.8326],[27.336,53.1207,178.9066],[27.3405,53.1207,177.9382],[27.3497,53.1234,182.5456],[27.3497,53.1261,182.7195],[27.3542,53.1315,181.881],[27.3726,53.1315,166.117],[27.3771,53.1342,166.0079],[27.3771,53.1369,165.844],[27.3816,53.1423,171.7518],[27.4,53.1423,164.4244],[27.4046,53.145,164.4765],[27.4092,53.145,165.653],[27.4184,53.1396,169.2022],[27.4276,53.1396,171.2433],[27.4368,53.1423,164.911],[27.4367,53.145,165.3136],[27.4413,53.1477,168.6847],[27.4275,53.1531,171.6049],[27.432,53.1585,189.0367],[27.4366,53.1613,186.7029],[27.4504,53.1667,184.7731],[27.464,53.1829,177.0692],[27.4548,53.1884,182.2024],[27.4593,53.1938,192.1587],[27.4547,53.1965,194.4225],[27.4455,53.1965,205.0739],[27.4409,53.1993,209.435],[27.4409,53.202,212.125],[27.4454,53.2074,213.0977],[27.473,53.2101,205.6131],[27.4913,53.2209,186.4667],[27.5005,53.2236,190.3276],[27.5189,53.2235,197.9387],[27.5235,53.229,190.0995],[27.5096,53.2453,193.5916],[27.5095,53.248,192.9525],[27.5049,53.2534,179.1582],[27.4911,53.2535,189.7168],[27.4773,53.2481,190.6978],[27.4496,53.2617,191.9478],[27.4403,53.2644,189.8466],[27.4357,53.2699,168.92],[27.4356,53.2726,170.3154],[27.4402,53.2807,187.5938],[27.4356,53.2834,182.2606],[27.4171,53.2835,167.7065],[27.4079,53.2889,184.9237],[27.4078,53.2943,167.1173],[27.4124,53.2971,167.0366],[27.4401,53.2943,173.036],[27.4401,53.297,183.6208],[27.4215,53.3052,170.9284],[27.4214,53.3161,169.1357],[27.4168,53.3188,173.4891],[27.4167,53.3269,166.3057],[27.343,53.327,164.1984],[27.3245,53.3297,163.2702],[27.3014,53.3379,163.2155],[27.2922,53.3379,178.8095],[27.2831,53.327,166.6483],[27.2648,53.3162,162.316],[27.2556,53.3134,167.1426],[27.2326,53.3107,180.044],[27.2281,53.308,168.5956],[27.2097,53.308,168.6277],[27.1866,53.3161,180.9726],[27.1865,53.3188,187.1953],[27.168,53.327,176.6366],[27.1494,53.3378,159.9771],[27.1447,53.3487,159.2025],[27.1493,53.3514,162.1348],[27.1399,53.3622,159.2403],[27.1262,53.3568,161.8469],[27.1124,53.3568,160.0743],[27.0987,53.3486,161.2012],[27.0849,53.3486,165.7871],[27.0803,53.3513,174.2066],[27.0711,53.3512,157.8858],[27.0665,53.3485,157.8021],[27.0621,53.3404,161.7912],[27.053,53.3349,159.7609],[27.0301,53.3294,162.6513],[27.0069,53.3456,167.3625],[27.0023,53.3456,165.4279],[26.9932,53.3402,173.599],[26.9841,53.3374,174.0629],[26.9794,53.3428,176.4341],[26.9654,53.3509,201.6975],[26.9053,53.3779,205.2859],[26.8867,53.3886,191.325],[26.887,53.3751,220.5946],[26.8826,53.3669,186.677],[26.8873,53.3588,209.7946],[26.8828,53.356,208.6248],[26.8832,53.337,200.9143],[26.8879,53.3289,196.6844],[26.8926,53.3262,198.6943],[26.8926,53.3235,177.6328],[26.8882,53.3153,172.47],[26.8886,53.2963,172.8647],[26.8841,53.2908,175.4195],[26.8847,53.2637,182.6584],[26.871,53.2609,182.8659],[26.8665,53.2581,181.0298],[26.8666,53.2554,181.9426],[26.8759,53.2473,187.1499],[26.876,53.2392,186.4305],[26.8625,53.231,185.9019],[26.8627,53.2228,181.9516],[26.8536,53.2173,183.4097],[26.8493,53.2064,181.2643],[26.8541,53.1956,183.9887],[26.8454,53.1738,203.5444],[26.8456,53.1684,202.7917],[26.8278,53.1493,204.9605],[26.8278,53.1466,206.2511],[26.8324,53.1439,216.284],[26.8326,53.1385,231.7244],[26.8372,53.1358,221.0538],[26.8373,53.1304,219.1755],[26.8238,53.1222,216.0361],[26.8287,53.1086,200.5428],[26.8288,53.1032,191.1724],[26.8243,53.1004,187.6156],[26.8155,53.0895,189.7775],[26.8156,53.0841,208.5508],[26.8066,53.0786,183.9817],[26.8067,53.0759,184.2941],[26.8159,53.0733,188.8293],[26.8159,53.0706,186.1177],[26.798,53.0596,179.1263],[26.8026,53.0569,182.6335],[26.8162,53.057,185.7039],[26.8208,53.0543,186.3121],[26.8209,53.0516,185.7171],[26.812,53.0461,181.7823],[26.8032,53.0352,180.9287],[26.7987,53.0325,179.6802],[26.7989,53.0244,181.917],[26.8263,53.0137,185.1207],[26.8583,53.0057,181.4599],[26.8811,52.9977,169.6121],[26.8902,53.0004,165.8701],[26.8993,52.9978,162.8031],[26.8995,52.9869,163.392],[26.8904,52.9869,169.0595],[26.886,52.9841,172.3805],[26.886,52.9814,175.1686],[26.8998,52.9761,163.0413],[26.8999,52.9679,169.5732],[26.8864,52.9652,169.9823],[26.8866,52.957,170.923],[26.8912,52.9516,170.0314],[26.8868,52.9462,169.3727],[26.8734,52.938,161.4336],[26.8691,52.9299,162.2986],[26.8692,52.9244,160.7226],[26.8831,52.9109,159.5913],[26.8831,52.9082,167.5886],[26.9061,52.8921,153.0413],[26.9108,52.8867,169.1469],[26.9108,52.884,159.2663],[26.9064,52.8812,151.8663],[26.9064,52.8785,151.6466],[26.9156,52.8731,151.8873],[26.9249,52.8624,154.3048],[26.9252,52.8488,151.2219],[26.9343,52.8461,165.7527],[26.9479,52.8462,164.1073],[26.9707,52.8381,151.0],[26.9752,52.8409,151.0],[26.9888,52.8409,151.0],[27.0206,52.8383,175.5112],[27.0343,52.8329,149.0],[27.0478,52.8384,151.4178],[27.0569,52.8384,149.372],[27.0706,52.833,149.239],[27.0796,52.8358,151.3487],[27.0979,52.8304,172.7072],[27.1071,52.8223,149.6253],[27.1162,52.8223,168.442],[27.1431,52.844,152.5521],[27.1476,52.8494,150.752],[27.1475,52.8548,156.9405],[27.1383,52.8657,166.1026],[27.1245,52.8711,163.3818],[27.1244,52.8765,161.7643],[27.1516,52.8874,160.9446],[27.1698,52.8901,157.7682],[27.1743,52.8928,171.1183],[27.1742,52.8955,159.31],[27.1696,52.9009,163.4074],[27.1558,52.9118,168.5852],[27.1557,52.9172,164.9307],[27.1602,52.9199,164.6948],[27.1875,52.9254,160.8429],[27.1965,52.9308,161.0978],[27.1872,52.9416,156.8999],[27.1871,52.9498,158.8567]]]]}
,"properties": {"GID_2": "BLR.5.5_1","GID_0": "BLR","country": "Belarus","GID_1": "BLR.5_1","province": "Minsk","NL_NAME_1": "Мінская","county": "Kapyl","VARNAME_2": "Kopyl","NL_NAME_2": "Капыльскіраён","TYPE_2": "Raion","ENGTYPE_2": "District","CC_2": "NA","HASC_2": "BY.MI.KY","name": "Kapyl.county","area_km2": 1599.986,"hist_schema_id": "Elevation0-9000","hist_area_km2": {"150": 221.543,"175": 845.924,"200": 379.007,"225": 134.514,"250": 18.998}}}