{"type": "Feature","bbox": [28.6558,53.5267,29.5073,54.0609],"geometry": {"type": "MultiPolygon","coordinates": [[[[28.6845,53.9628,177.0965],[28.6797,53.9546,167.4055],[28.6797,53.9519,169.6078],[28.6843,53.9491,170.5789],[28.7075,53.9435,164.0206],[28.7075,53.9408,166.8896],[28.7028,53.9381,167.6268],[28.7027,53.9353,166.9308],[28.7166,53.9298,185.0683],[28.7166,53.9271,182.6802],[28.6932,53.9218,185.1712],[28.6793,53.9246,166.7572],[28.6653,53.9247,170.7311],[28.6558,53.9139,178.9095],[28.6558,53.9084,183.861],[28.679,53.9083,186.0525],[28.6883,53.9055,174.4536],[28.6975,53.8999,183.3167],[28.6928,53.8918,169.3508],[28.702,53.8863,169.3478],[28.73,53.8915,166.9241],[28.7439,53.8914,167.1909],[28.7437,53.8805,176.044],[28.7391,53.8778,184.4746],[28.7111,53.8726,171.1754],[28.7017,53.8672,179.7858],[28.697,53.8618,179.0257],[28.6829,53.8564,187.0305],[28.6829,53.851,183.246],[28.6967,53.8427,188.4489],[28.6966,53.8372,210.5816],[28.7059,53.8399,204.9503],[28.7105,53.8344,193.8544],[28.7151,53.8316,199.8192],[28.7244,53.8315,187.4927],[28.7384,53.8369,207.001],[28.7477,53.8368,186.7424],[28.7523,53.834,174.3374],[28.7523,53.8313,176.4525],[28.7475,53.8259,181.6726],[28.7382,53.8205,204.0544],[28.7336,53.8233,200.8097],[28.7289,53.8233,195.2312],[28.7241,53.8152,207.0928],[28.7241,53.8124,206.6468],[28.7287,53.8097,210.9014],[28.7334,53.8124,201.6953],[28.7473,53.8123,210.4534],[28.7703,53.7957,188.437],[28.7562,53.7849,210.2185],[28.7561,53.7795,198.8636],[28.7699,53.7739,191.4261],[28.7697,53.763,183.4942],[28.7743,53.7602,197.9856],[28.7742,53.7548,187.3921],[28.7788,53.7493,185.5974],[28.774,53.743899999999996,180.0367],[28.7461,53.7332,182.9204],[28.7506,53.7277,188.386],[28.7459,53.725,176.4611],[28.732,53.7224,177.0996],[28.7412,53.7169,170.2209],[28.7642,53.7112,167.8019],[28.7734,53.7057,166.722],[28.7733,53.7002,173.2146],[28.7777,53.6811,173.6409],[28.7868,53.6729,183.7227],[28.7866,53.6619,188.7404],[28.8095,53.6481,162.2528],[28.814,53.6426,164.3722],[28.837,53.6315,163.337],[28.8415,53.626,164.2697],[28.832,53.6125,180.978],[28.832,53.6097,177.3414],[28.8457,53.6014,176.2461],[28.8548,53.5904,176.8842],[28.85,53.585,189.418],[28.85,53.5823,189.2277],[28.8545,53.5768,180.288],[28.873,53.5766,173.6811],[28.8913,53.5656,174.431],[28.8958,53.5601,178.9233],[28.9049,53.5545,174.0184],[28.9229,53.5298,153.9119],[28.9368,53.5297,161.9509],[28.9459,53.5269,149.8828],[28.9644,53.5267,142.3992],[28.9783,53.532,142.7789],[28.9785,53.5375,153.4963],[28.9555,53.5431,142.2661],[28.9509,53.5459,153.1521],[28.951,53.5486,161.5035],[28.9556,53.5513,142.0967],[28.9649,53.5512,142.3114],[28.9742,53.5539,142.8025],[28.9743,53.5593,142.4521],[28.9605,53.5622,142.8485],[28.9514,53.5677,142.8469],[28.9515,53.5759,143.3864],[28.97,53.5757,143.1258],[28.9793,53.5783,143.7072],[28.9886,53.5837,151.405],[29.0025,53.5836,152.3282],[29.0116,53.578,154.1474],[29.0209,53.5807,159.0487],[29.0532,53.5803,161.9868],[29.0533,53.583,163.4726],[29.0625,53.5802,161.8387],[29.067,53.5747,159.4326],[29.0716,53.5747,159.4947],[29.0856,53.58,163.2074],[29.095,53.5908,152.0118],[29.0813,53.5964,159.1748],[29.0817,53.6155,154.1242],[29.0772,53.6183,153.7425],[29.0774,53.6292,164.9117],[29.0821,53.6319,160.7485],[29.0867,53.6318,160.9353],[29.0958,53.6263,151.8345],[29.1054,53.6398,158.6173],[29.0969,53.6726,163.0219],[29.1016,53.6753,157.102],[29.1109,53.6779,159.453],[29.1386,53.6749,166.6407],[29.1432,53.6721,163.4266],[29.1431,53.6694,162.4416],[29.1385,53.6695,165.3905],[29.1337,53.6641,160.8603],[29.1336,53.6613,162.9176],[29.1383,53.6613,166.9657],[29.157,53.6693,170.7821],[29.1662,53.6692,184.4931],[29.1708,53.6664,174.011],[29.1706,53.6609,169.5332],[29.1982,53.6552,165.2769],[29.212,53.6496,165.8823],[29.2166,53.6495,165.3969],[29.2213,53.6522,161.3407],[29.2168,53.6577,160.8525],[29.2215,53.6604,162.5026],[29.2494,53.6656,175.442],[29.268,53.6708,166.7347],[29.2682,53.6763,177.0644],[29.2728,53.6789,161.4992],[29.3006,53.6786,166.9476],[29.3145,53.6812,165.05],[29.3193,53.6866,166.3584],[29.3195,53.6948,175.978],[29.3242,53.6975,180.5891],[29.3243,53.7002,179.39],[29.3385,53.711,175.5566],[29.3386,53.7164,183.2342],[29.3294,53.7193,179.2861],[29.3298,53.7329,173.4226],[29.3345,53.7356,181.1895],[29.3484,53.7354,180.6208],[29.3755,53.7133,187.282],[29.3894,53.7131,180.5873],[29.3987,53.7157,171.5786],[29.3989,53.7212,176.3446],[29.39,53.735,182.4187],[29.3901,53.7377,183.2182],[29.3995,53.743,175.0198],[29.4365,53.7426,194.5719],[29.4412,53.7453,182.8828],[29.4413,53.748,173.9307],[29.4368,53.7508,178.8818],[29.4231,53.7564,193.209],[29.4045,53.7566,194.9927],[29.3907,53.7595,191.6148],[29.3862,53.7623,187.9051],[29.3863,53.765,187.2725],[29.4005,53.7758,170.1314],[29.4097,53.7757,174.4102],[29.4281,53.77,172.2929],[29.4327,53.77,175.1886],[29.4421,53.7753,185.8496],[29.4977,53.7747,173.6575],[29.5071,53.78,181.3791],[29.5073,53.7882,193.7656],[29.4984,53.7992,191.44],[29.4753,53.7995,180.6761],[29.4707,53.8023,179.9858],[29.4709,53.8077,182.7734],[29.4571,53.8106,209.1911],[29.4523,53.8052,202.8408],[29.443,53.8053,189.1061],[29.4339,53.8109,209.7138],[29.434,53.8136,204.2654],[29.4294,53.8164,190.4085],[29.3738,53.817,196.6947],[29.3693,53.8198,183.4],[29.374,53.8225,185.4516],[29.4019,53.8276,212.5795],[29.4165,53.8493,183.2455],[29.4212,53.852,186.2711],[29.4258,53.8519,205.6393],[29.4306,53.8574,185.9337],[29.4261,53.8601,184.4777],[29.4214,53.8602,197.7195],[29.4166,53.8548,182.8561],[29.4119,53.8521,196.9832],[29.3978,53.8441,197.1045],[29.3884,53.8414,192.2288],[29.3792,53.8416,183.4876],[29.3747,53.8471,176.6449],[29.3748,53.8498,179.0025],[29.3796,53.8552,193.9603],[29.3889,53.8578,196.2271],[29.4028,53.8577,193.998],[29.4122,53.8603,192.3743],[29.4123,53.8658,196.6216],[29.3846,53.8715,199.3851],[29.3847,53.8743,191.086],[29.3895,53.8797,184.4426],[29.4035,53.8822,190.7851],[29.4083,53.8876,191.5737],[29.4041,53.9041,187.6],[29.3905,53.9151,194.7777],[29.386,53.9207,198.8378],[29.3868,53.9479,199.8631],[29.3822,53.9507,198.5423],[29.3823,53.9535,203.1618],[29.3684,53.9536,186.4979],[29.3638,53.9564,191.2435],[29.3781,53.9672,184.7727],[29.3788,53.9917,182.4384],[29.3742,53.9945,186.8181],[29.3509,53.9948,200.2343],[29.3418,54.0003,189.6344],[29.3232,54.0005,194.4347],[29.3002,54.0117,188.4781],[29.2863,54.0118,199.4808],[29.2771,54.0174,191.2586],[29.2773,54.0256,190.6411],[29.2682,54.0311,182.9863],[29.2542,54.0313,192.8382],[29.2354,54.026,206.8709],[29.2215,54.0262,199.3766],[29.2169,54.0289,203.5974],[29.217,54.0317,204.2741],[29.2265,54.0425,185.1467],[29.2266,54.0452,186.1523],[29.222,54.048,188.9728],[29.2174,54.048,195.717],[29.2082,54.0536,201.2678],[29.1709,54.054,175.8562],[29.1522,54.0514,163.935],[29.1287,54.0435,159.8566],[29.1194,54.0435,169.6284],[29.1148,54.0463,168.0075],[29.1151,54.0572,184.9793],[29.1058,54.0601,191.745],[29.0965,54.0602,178.9269],[29.0918,54.0575,171.1672],[29.0638,54.0577,170.4536],[29.0358,54.0553,181.6064],[29.0126,54.0609,175.8934],[28.947,54.0479,163.4753],[28.8771,54.0485,153.5808],[28.8396,54.0406,177.1713],[28.835,54.0434,176.1369],[28.8351,54.0516,150.0833],[28.8258,54.0517,184.6045],[28.8118,54.0491,175.4468],[28.807,54.0464,199.5929],[28.8022,54.0382,170.2003],[28.7882,54.0329,176.0194],[28.7835,54.0329,171.4329],[28.7788,54.0302,176.4881],[28.7834,54.0247,184.4201],[28.7833,54.0193,187.3484],[28.7738,54.0112,176.3523],[28.7737,54.0057,185.2436],[28.783,54.0029,186.1583],[28.7829,53.9947,167.9595],[28.7782,53.9948,183.7707],[28.7643,54.0003,179.7299],[28.7596,54.0004,170.6405],[28.7409,53.9923,182.062],[28.7314,53.9815,180.2023],[28.7173,53.9734,182.7926],[28.7172,53.9707,181.7372],[28.7078,53.9626,190.7671],[28.6845,53.9628,177.0965]]]]}
,"properties": {"GID_2": "BLR.5.2_1","GID_0": "BLR","country": "Belarus","GID_1": "BLR.5_1","province": "Minsk","NL_NAME_1": "Мінская","county": "Byarezino","VARNAME_2": "Berezino","NL_NAME_2": "Бярэзінскіраён","TYPE_2": "Raion","ENGTYPE_2": "District","CC_2": "NA","HASC_2": "BY.MI.BN","name": "Byarezino.county","area_km2": 1968.481,"hist_schema_id": "Elevation0-9000","hist_area_km2": {"150": 487.82,"175": 1233.795,"200": 246.041,"225": 0.825}}}