{"type": "Feature","id": 115370.0,"bbox": [26.947520378521233,52.817084051556577,27.046641472271233,52.861761785931577],"geometry": {"type": "Polygon","coordinates": [[[26.977305534771233,52.821051336712827,151.0],[26.977305534771233,52.821051336712827,151.0],[26.995005730083733,52.817084051556577,151.0],[27.018687370708733,52.824103094525327,151.0],[27.042124870708733,52.831061102337827,149.0],[27.046641472271233,52.837408758587827,151.4178],[27.033335808208733,52.842657782025327,173.847],[27.017832878521233,52.853277899212827,170.3925],[27.003794792583733,52.861761785931577,170.8945],[26.988536003521233,52.860235907025327,168.7874],[26.977305534771233,52.859320379681577,168.3966],[26.961192253521233,52.859320379681577,170.0581],[26.947520378521233,52.852057196087827,169.5138],[26.958750847271233,52.838080145306577,151.0],[26.969981316021233,52.829535223431577,151.0],[26.977305534771233,52.821051336712827,151.0]]]}
,"properties": {"name": null,"lge_id": null,"pfafstette": 446513.0,"lke_type": "N","altitude": 148,"objectid": 65994,"scalerank": 12,"featurecla": "Lake","note": "_untitled_65994","funkyname": 0,"min_zoom": 7.0,"min_label": 8.0,"area_km2": 20.18364,"hist_schema_id": "Elevation0-9000","hist_area_km2": {"150": 16.18856,"175": 3.99508}}}