{"type": "Feature","bbox": [26.691029693350231,54.814540983641621,26.8488088654928,54.907265683688109],"geometry": {"type": "Polygon","coordinates": [[[26.822021729923819,54.883716553517559,162.0],[26.804359882295927,54.880184183991986,162.0],[26.787286762922264,54.879301091610586,162.0],[26.77109673593003,54.882833461136158,162.0],[26.754612344810653,54.889309471933075,162.0],[26.739011046072676,54.897846031619878,162.0],[26.725470296224614,54.907265683688109,190.9319],[26.712518274630838,54.902850221781108,162.0],[26.701332437799834,54.900200944636936,162.0],[26.693973334621546,54.895196754475705,162.0],[26.691029693350231,54.882833461136158,162.0],[26.695445155257204,54.868998347160982,162.0],[26.70515917145255,54.866643434143924,162.0],[26.714578823520753,54.865465977635409,162.836],[26.718994285427726,54.85545759731292,162.0],[26.717228100664926,54.8413281192106,162.0],[26.75019688290368,54.819839537929994,184.1626],[26.759910899099026,54.817190260785793,162.3455],[26.773746013074231,54.817778989040079,162.0],[26.800533148643211,54.814540983641621,162.0],[26.829086468974964,54.831614103015255,176.366],[26.848514501365656,54.856929417948578,162.0],[26.8488088654928,54.879301091610586,163.6848],[26.837623028661795,54.8848940100261,165.2198],[26.822021729923819,54.883716553517559,162.0]]]}
,"properties": {"featurecla": "Lake","scalerank": 9,"name": "null593","name_abb": null,"name_alt": null,"note": "_untitled_146","delta": null,"dam_name": null,"year": -99,"admin": null,"min_zoom": 7.0,"min_label": 8.0,"area_km2": 63.32577,"hist_schema_id": "Elevation0-9000","hist_area_km2": {"150": 62.43491,"175": 0.86646,"200": 0.0244}}}