{"type": "Feature","id": 109982.0,"bbox": [29.125254753521233,54.503973699994077,29.192393425396233,54.599737860150327],"geometry": {"type": "Polygon","coordinates": [[[29.149058464458733,54.505804754681577,167.0],[29.149058464458733,54.505804754681577,167.0],[29.154551628521233,54.503973699994077,167.0],[29.166758659771233,54.513983465619077,167.0],[29.175791862896233,54.522833563275327,167.0],[29.183604362896233,54.529181219525327,167.0],[29.192393425396233,54.537359930462827,179.6408],[29.183970573833733,54.553473211712827,182.3462],[29.176036003521233,54.570563055462827,169.4733],[29.176402214458733,54.587530828900327,168.0022],[29.166758659771233,54.599371649212827,169.1508],[29.148203972271233,54.599737860150327,188.0465],[29.128428581646233,54.582403875775327,177.7559],[29.125254753521233,54.565680242962827,169.295],[29.133555534771233,54.553839422650327,168.6891],[29.154795769146233,54.542547918744077,167.0],[29.167002800396233,54.531317449994077,176.6542],[29.153575066021233,54.518561102337827,182.4508],[29.149058464458733,54.505804754681577,167.0]]]}
,"properties": {"name": null,"lge_id": null,"pfafstette": 74627.0,"lke_type": "N","altitude": 164,"objectid": 61891,"scalerank": 12,"featurecla": "Lake","note": "_untitled_61891","funkyname": 0,"min_zoom": 7.0,"min_label": 8.0,"area_km2": 23.2236,"hist_schema_id": "Elevation0-9000","hist_area_km2": {"175": 23.05136,"200": 0.17224}}}