{"type":"Feature","properties":{"id":110308.0,"name":null,"lge_id":null,"pfafstette":65841.0,"lke_type":"N","altitude":145,"objectid":62429,"scalerank":12,"featurecla":"Lake","note":"_untitled_62429","funkyname":0,"min_zoom":7.0,"min_label":8.0},
"geometry":{"type": "Polygon","coordinates": [[[26.524424675396233,54.764471746869077,149.0],[26.524424675396233,54.764471746869077,149.0],[26.541514519146233,54.764776922650327,149.0],[26.543711784771233,54.774176336712827,172.7833],[26.533702019146233,54.783270574994077,168.7329],[26.524790886333733,54.792731024212827,159.0572],[26.493418816021233,54.815802313275327,183.7524],[26.456675651958733,54.839239813275327,177.5825],[26.443858269146233,54.847113348431577,181.5005],[26.430186394146233,54.854986883587827,161.2629],[26.415049675396233,54.862921453900327,159.8585],[26.409922722271233,54.856207586712827,150.4633],[26.429087761333733,54.838873602337827,149.0],[26.457652214458733,54.817023016400327,149.0],[26.478892448833733,54.798468328900327,149.0],[26.500132683208733,54.779669500775327,149.0],[26.524424675396233,54.764471746869077,149.0]]]}}