{"type": "Feature","id": 112137.0,"bbox": [27.329356316021233,53.953558660931577,27.460337761333733,54.011603094525327],"geometry": {"type": "Polygon","coordinates": [[[27.385264519146233,53.960211492962827,229.2601],[27.385264519146233,53.960211492962827,229.2601],[27.401377800396233,53.968756414837827,209.5],[27.418711784771233,53.985724188275327,209.5],[27.434580925396233,53.993048407025327,209.5],[27.450938347271233,53.992743231244077,209.5],[27.460337761333733,54.000006414837827,209.7657],[27.444346550396233,54.006842352337827,222.4391],[27.404429558208733,54.011603094525327,259.8898],[27.373423698833733,54.004889227337827,225.1168],[27.356944206646233,53.996344305462827,213.8901],[27.338389519146233,53.982428289837827,209.9204],[27.329356316021233,53.962042547650327,240.176],[27.335093620708733,53.953558660931577,209.5],[27.340830925396233,53.962042547650327,224.2383],[27.360118034771233,53.964117742962827,209.5],[27.385264519146233,53.960211492962827,229.2601]]]}
,"properties": {"fillOpacity": 1,"fill": "#F0F","name": "Zaslawye Reservoir","title": "Zaslawye Reservoir","lge_id": null,"pfafstette": 84955.0,"lke_type": "N","altitude": 207,"objectid": 63958,"scalerank": 12,"featurecla": "Lake","note": "Zaslawye Reservoir","funkyname": 0,"min_zoom": 7.0,"min_label": 8.0,"area_km2": 26.74045,"hist_schema_id": "Elevation0-9000","hist_area_km2": {"200": 20.40949,"225": 5.91978,"250": 0.41118}}}