{"type":"Feature","properties":{"id":115171.0,"name":null,"lge_id":null,"pfafstette":444113.0,"lke_type":"N","altitude":141,"objectid":66144,"scalerank":12,"featurecla":"Lake","note":"_untitled_66144","funkyname":0,"min_zoom":7.0,"min_label":8.0},
"geometry":{"type": "Polygon","coordinates": [[[27.541270378521233,52.767828680462827,144.5],[27.541270378521233,52.767828680462827,144.5],[27.570323112896233,52.784552313275327,144.5],[27.591075066021233,52.795538641400327,145.6612],[27.609873894146233,52.807989813275327,144.0],[27.622935417583733,52.815558172650327,144.0],[27.634532097271233,52.827154852337827,144.5],[27.638438347271233,52.844122625775327,147.8574],[27.628672722271233,52.838629461712827,152.0159],[27.605357292583733,52.823126532025327,154.2626],[27.589854362896233,52.810431219525327,151.2352],[27.574351433208733,52.800360418744077,151.2624],[27.555796745708733,52.790045477337827,148.7665],[27.548106316021233,52.782721258587827,158.3063],[27.533213737896233,52.776617742962827,159.4482],[27.519053581646233,52.771795965619077,156.7336],[27.500987175396233,52.767218328900327,151.2907],[27.483653191021233,52.756598211712827,151.9454],[27.485240105083733,52.747442938275327,144.5],[27.498545769146233,52.745062567181577,144.5],[27.514170769146233,52.752691961712827,144.5],[27.541270378521233,52.767828680462827,144.5]]]}}