{"type": "Feature","bbox": [25.8821,53.3643,26.5713,53.6708],"geometry": {"type": "MultiPolygon","coordinates": [[[[26.3646,53.3735,153.1068],[26.3959,53.382,165.6784],[26.4046,53.3876,169.981],[26.4135,53.3904,172.5515],[26.4495,53.3908,188.6329],[26.4584,53.3963,183.3267],[26.4674,53.3964,188.3162],[26.481,53.3938,179.4202],[26.5036,53.394,181.5475],[26.5082,53.3913,184.4318],[26.5217,53.3915,187.6151],[26.5532,53.3999,182.3358],[26.5668,53.4,185.03],[26.5713,53.4028,183.4589],[26.571,53.4137,190.7051],[26.5662,53.4218,198.0874],[26.5523,53.4298,201.9415],[26.5426,53.4515,208.7406],[26.5423,53.4624,209.3974],[26.5466,53.4706,194.7367],[26.5466,53.4733,193.5015],[26.5509,53.4788,193.2703],[26.5551,53.4924,169.6286],[26.5503,53.5006,169.976],[26.5319,53.5086,167.4839],[26.5364,53.5113,176.1988],[26.5362,53.5168,167.5381],[26.5226,53.5167,152.571],[26.5181,53.5139,158.3425],[26.5137,53.5084,163.1277],[26.4956,53.5083,173.6956],[26.4909,53.511,175.8473],[26.5221,53.533,165.4882],[26.5446,53.5414,153.2341],[26.5444,53.5468,142.2054],[26.5397,53.5522,142.3757],[26.5395,53.5604,149.6918],[26.5347,53.5658,148.0269],[26.5301,53.5685,151.5657],[26.5119,53.5683,141.3371],[26.5071,53.5765,141.5989],[26.4887,53.5818,142.8243],[26.4606,53.6061,163.3603],[26.4369,53.6304,143.8373],[26.4041,53.6548,161.5109],[26.3992,53.6629,158.2343],[26.3622,53.6708,156.3141],[26.3302,53.6624,166.28],[26.3071,53.6594,157.1255],[26.2888,53.6537,146.825],[26.2339,53.6309,134.8866],[26.2199,53.6306,134.3501],[26.2103,53.6358,134.4659],[26.2058,53.633,134.3725],[26.206,53.6247,135.0583],[26.1922,53.618899999999996,141.7933],[26.1826,53.6241,158.6857],[26.1637,53.6291,178.2283],[26.1496,53.6315,185.0315],[26.1309,53.6309,199.6008],[26.1261,53.6336,202.226],[26.1169,53.6306,200.8138],[26.1121,53.6332,205.4298],[26.1075,53.633,202.3814],[26.1219,53.6225,204.4285],[26.1175,53.6168,202.3613],[26.1036,53.6137,199.1212],[26.094,53.6217,203.9096],[26.0844,53.6269,204.3581],[26.0521,53.6205,205.0112],[26.0471,53.6286,203.1248],[26.0423,53.6312,201.6077],[26.0096,53.633,195.0175],[26.0051,53.6301,198.9238],[26.0053,53.6274,198.7523],[26.0105,53.6166,202.6026],[26.0109,53.6084,229.2988],[25.9937,53.586,217.7719],[25.9807,53.572,203.3566],[25.9856,53.5667,213.2138],[25.9998,53.5616,213.4619],[25.9955,53.5561,217.7241],[25.9734,53.5419,236.071],[25.9471,53.5222,246.3159],[25.9425,53.5221,248.8034],[25.9329,53.5273,258.1247],[25.9375,53.5274,265.9897],[25.9417,53.5329,254.6472],[25.9414,53.5384,245.6972],[25.9318,53.5436,227.3094],[25.9224,53.5461,255.2639],[25.9172,53.5541,277.7361],[25.9124,53.5567,279.8657],[25.903199999999998,53.5565,286.6106],[25.8988,53.5536,283.9302],[25.8994,53.5455,276.5279],[25.8952,53.5399,271.4617],[25.8864,53.5343,278.2845],[25.8821,53.5288,291.7797],[25.8927,53.51,267.2975],[25.893,53.5046,254.4461],[25.8978,53.502,246.3383],[25.9116,53.5023,250.9872],[25.9138,53.4698,248.2493],[25.9055,53.4561,227.4993],[25.9293,53.4431,266.1974],[25.9343,53.4377,261.1992],[25.9346,53.4323,264.1376],[25.9307,53.4214,253.2718],[25.9311,53.416,250.8431],[25.9408,53.4081,250.1038],[25.9411,53.4027,243.2641],[25.9372,53.3917,256.8679],[25.9466,53.3892,243.2959],[25.9695,53.3897,248.8027],[25.979,53.3845,228.172],[25.9883,53.382,221.5202],[26.0063,53.3879,223.0378],[26.0155,53.3881,226.1235],[26.0202,53.3855,239.9136],[26.0209,53.3746,226.2811],[26.0348,53.3722,241.8307],[26.0483,53.3752,229.5872],[26.0622,53.3728,206.1305],[26.0666,53.3756,212.6009],[26.0752,53.3867,206.1945],[26.084,53.3923,217.9965],[26.0886,53.3924,232.9351],[26.0935,53.3871,227.1246],[26.0892,53.3816,199.8621],[26.0848,53.3787,204.9537],[26.0853,53.3706,188.1074],[26.0899,53.3707,212.8695],[26.1121,53.382,229.4187],[26.1258,53.3823,206.3582],[26.1674,53.3778,181.5931],[26.2041,53.3758,206.6128],[26.2269,53.379,198.623],[26.2592,53.3742,178.2224],[26.2912,53.3748,153.8796],[26.3005,53.3723,150.555],[26.3101,53.3643,162.4195],[26.3464,53.3704,148.3458],[26.3555,53.3706,151.0942],[26.3646,53.3735,153.1068]]]]}
,"properties": {"GID_2": "BLR.3.7_1","GID_0": "BLR","country": "Belarus","GID_1": "BLR.3_1","province": "Grodno","NL_NAME_1": "Гродзенская","county": "Karelichy","VARNAME_2": "Korelichi","NL_NAME_2": "Карэліцкіраён","TYPE_2": "Raion","ENGTYPE_2": "District","CC_2": "NA","HASC_2": "BY.HR.KL","name": "Karelichy.county","area_km2": 1093.3427,"hist_schema_id": "Elevation0-9000","hist_area_km2": {"125": 34.6855,"150": 429.9361,"175": 312.5417,"200": 153.4522,"225": 98.6354,"250": 51.8437,"275": 11.8701,"300": 0.378}}}