{"type":"Feature","properties":{"GID_2":"BLR.2.2_1","GID_0":"BLR","country":"Belarus","GID_1":"BLR.2_1","province":"Gomel","NL_NAME_1":"Гомельская","county":"Brahin","VARNAME_2":"NA","NL_NAME_2":"Брагінскіраён","TYPE_2":"Raion","ENGTYPE_2":"District","CC_2":"NA","HASC_2":"BY.HO.BG","name":"Brahin.county"},
"geometry":{"type": "MultiPolygon","coordinates": [[[[30.1731,51.5247,124.4158],[30.1814,51.5246,125.7754],[30.1818,51.5187,111.234],[30.2018,51.5065,109.576],[30.2113,51.5063,121.1652],[30.2213,51.5002,122.8237],[30.2308,51.5,121.3037],[30.2503,51.4937,109.2267],[30.2899,51.4692,111.622],[30.2994,51.4691,116.1076],[30.3092,51.4629,117.1264],[30.3196,51.4448,107.741],[30.3294,51.4387,109.2663],[30.3485,51.4323,108.2859],[30.3496,51.4145,109.9758],[30.3595,51.4024,109.9916],[30.3612,51.3786,118.9629],[30.3399,51.3744,113.5471],[30.3288,51.3696,122.2195],[30.3377,51.364,118.0529],[30.3461,51.3529,113.209],[30.3646,51.3471,113.004],[30.3826,51.33,108.9586],[30.401,51.3184,106.3832],[30.4102,51.3184,106.6339],[30.4194,51.3126,108.0905],[30.4284,51.3185,105.9963],[30.4466,51.3245,105.0747],[30.456,51.3243,105.5587],[30.4646,51.3188,123.9436],[30.4641,51.3005,107.4922],[30.455,51.2945,108.3484],[30.4549,51.2885,111.1611],[30.4637,51.2824,106.0181],[30.4816,51.2823,126.7153],[30.4905,51.2882,116.3469],[30.4994,51.2882,119.5682],[30.5262,51.2698,112.0761],[30.544,51.2696,119.139],[30.5617,51.2751,107.2517],[30.5794,51.2745,111.3139],[30.5881,51.2802,103.4231],[30.6052,51.3035,109.8583],[30.6048,51.3216,102.5],[30.6136,51.3212,107.1108],[30.6398,51.3262,114.773],[30.6571,51.3376,106.2646],[30.6574,51.3493,104.4059],[30.6487,51.3548,105.5113],[30.6317,51.3832,105.7068],[30.6234,51.4061,104.9184],[30.5969,51.4153,104.3556],[30.5881,51.4202,104.3892],[30.5791,51.4195,105.2929],[30.5705,51.4303,105.6048],[30.5706,51.4363,109.0161],[30.5889,51.4506,105.4418],[30.6158,51.4531,105.3184],[30.6166,51.4832,105.3504],[30.5988,51.4879,107.8517],[30.5723,51.5044,107.7865],[30.5725,51.5106,108.9348],[30.5638,51.5224,107.4879],[30.5639,51.5285,106.2483],[30.5731,51.535,106.0028],[30.5734,51.5471,107.1724],[30.5464,51.5466,108.1395],[30.5375,51.5529,106.884],[30.5288,51.5713,105.087],[30.5379,51.5772,106.3886],[30.547,51.577,107.3492],[30.5471,51.5831,104.5],[30.5381,51.5833,106.2721],[30.5382,51.5893,106.2936],[30.5292,51.5956,107.9203],[30.5384,51.6015,109.3802],[30.5565,51.6013,107.1831],[30.5658,51.6076,107.417],[30.566,51.6136,107.4114],[30.557,51.6195,109.7821],[30.5571,51.6256,105.5],[30.539,51.6379,108.6019],[30.521,51.6624,106.2061],[30.5211,51.6685,108.9071],[30.5305,51.6744,108.0404],[30.5306,51.6807,108.4859],[30.5491,51.6744,109.6289],[30.5677,51.6744,112.2717],[30.5771,51.6806,106.0],[30.5773,51.6866,109.2161],[30.5684,51.6988,110.7645],[30.5685,51.7049,110.4203],[30.5763,51.7099,113.2673],[30.5613,51.7134,111.9046],[30.5572,51.7165,113.0653],[30.5533,51.7223,123.9402],[30.5538,51.7279,114.9459],[30.5497,51.7337,112.0007],[30.5367,51.7372,111.8674],[30.5281,51.7433,120.3989],[30.5284,51.7489,110.474],[30.533,51.7515,111.1038],[30.5335,51.7627,111.8987],[30.5387,51.7765,110.7115],[30.5344,51.7795,111.7507],[30.5035,51.7808,114.7457],[30.4817,51.7871,114.4636],[30.4823,51.8036,133.4982],[30.4867,51.8034,133.9825],[30.4909,51.7978,127.8594],[30.4998,51.8002,118.6688],[30.509,51.8082,113.3585],[30.5003,51.8139,114.2555],[30.5004,51.8167,113.9949],[30.5094,51.8219,115.3776],[30.5096,51.8274,129.8586],[30.5053,51.8302,125.7379],[30.4921,51.8307,115.1971],[30.4787,51.8256,114.6635],[30.4784,51.8174,114.274],[30.4696,51.8177,114.0596],[30.448,51.8266,115.6072],[30.4392,51.8269,115.2989],[30.4088,51.8332,129.5293],[30.4003,51.8389,122.5327],[30.4139,51.8494,122.784],[30.4095,51.8495,122.6101],[30.3967,51.8553,125.0459],[30.3969,51.8607,122.3342],[30.4187,51.8601,140.8648],[30.4277,51.8653,136.1976],[30.4278,51.868,136.8873],[30.4236,51.8708,133.7312],[30.4149,51.8711,133.0421],[30.4153,51.8819,133.134],[30.4198,51.8845,138.3271],[30.4329,51.8842,131.1084],[30.4375,51.8895,132.6058],[30.4377,51.8949,132.4382],[30.447,51.9082,131.9463],[30.4342,51.914,134.4091],[30.3993,51.9149,128.2224],[30.3951,51.9178,134.4967],[30.3952,51.9205,129.2577],[30.4085,51.9255,133.6399],[30.4309,51.9385,125.9256],[30.4586,51.9731,137.7722],[30.4502,51.9814,134.9109],[30.4418,51.9871,137.9158],[30.407,51.988,139.0535],[30.3982,51.9855,141.5134],[30.3979,51.9801,139.3699],[30.3805,51.9805,133.7302],[30.358,51.9648,136.1029],[30.3486,51.9515,128.3666],[30.3441,51.9489,119.4628],[30.331,51.9493,121.5982],[30.3313,51.9547,120.2172],[30.3454,51.976,123.52],[30.3769,51.9969,146.8505],[30.3774,52.0077,144.5778],[30.3734,52.0159,147.4877],[30.3607,52.0244,152.5255],[30.3519,52.0219,144.7394],[30.3515,52.0138,144.481],[30.3469,52.0085,126.9035],[30.3425,52.0086,140.0793],[30.3383,52.0114,145.4451],[30.3302,52.0251,125.5385],[30.3214,52.0227,139.5775],[30.3127,52.0229,125.25],[30.3037,52.0177,125.8843],[30.2905,52.0153,146.7357],[30.2898,52.0018,144.642],[30.2808,51.9966,138.7075],[30.272,51.9941,129.5657],[30.2629,51.9862,130.8894],[30.2274,51.9762,138.4852],[30.2273,51.9735,128.4987],[30.2314,51.968,133.833],[30.2311,51.9626,131.0461],[30.2222,51.9574,132.3796],[30.2135,51.9603,136.4991],[30.2003,51.9579,129.1206],[30.1957,51.9526,124.2937],[30.1823,51.9475,132.6508],[30.1775,51.9395,137.8838],[30.164,51.9317,123.5138],[30.1467,51.9348,123.2173],[30.1423,51.9349,124.0195],[30.1378,51.9323,123.2039],[30.1373,51.9215,123.4928],[30.1501,51.9158,122.8726],[30.141,51.9079,124.0385],[30.1667,51.8965,136.46],[30.1616,51.8831,127.6162],[30.161,51.8696,128.1427],[30.1563,51.8643,128.5288],[30.1473,51.8591,129.28],[30.1429,51.8592,130.2007],[30.1466,51.8456,127.5586],[30.128,51.8245,126.5536],[30.1191,51.822,127.2035],[30.1104,51.8222,128.7216],[30.0969,51.8171,128.1571],[30.0966,51.8117,128.7983],[30.1009,51.8089,128.7886],[30.1004,51.8009,128.7458],[30.0958,51.7956,126.9856],[30.0953,51.7875,127.4377],[30.086,51.7769,122.6675],[30.0595,51.7749,125.2437],[30.0547,51.7669,120.9677],[30.0588,51.7615,119.5825],[30.0586,51.7588,120.0466],[30.045,51.751,138.043],[30.0408,51.7538,121.2537],[30.0319,51.7514,138.5095],[30.0272,51.7461,133.0696],[30.0268,51.7407,135.6856],[30.0178,51.7356,113.8196],[30.0171,51.7248,113.3588],[30.0126,51.7223,113.41],[30.0082,51.7224,113.5134],[29.9981,51.7012,112.9748],[29.9892,51.6987,117.9345],[29.9766,51.7071,118.4352],[29.9635,51.7074,126.0091],[29.9584,51.6968,120.6996],[29.9398,51.6786,119.8675],[29.9396,51.6759,121.1148],[29.9484,51.6757,120.6386],[29.9618,51.6807,118.2922],[29.966,51.6779,117.3454],[29.965699999999998,51.6726,116.6889],[29.9699,51.6698,118.2229],[29.9788,51.6723,118.0325],[29.9875,51.672,113.2309],[30.0008,51.6744,112.94],[30.0198,51.698,112.4819],[30.0284,51.6951,112.9313],[30.0282,51.6924,112.5285],[30.054,51.6837,112.6647],[30.0928,51.6746,112.3466],[30.079,51.6642,122.135],[30.0693,51.6511,113.5513],[30.0643,51.6406,113.3305],[30.0637,51.6326,112.1563],[30.0938,51.6237,118.3727],[30.0929,51.6103,111.426],[30.1013,51.6047,114.0682],[30.1101,51.6044,111.1342],[30.1446,51.5952,112.8601],[30.1486,51.5897,115.5581],[30.1483,51.5843,113.4919],[30.1437,51.5818,111.4414],[30.1563,51.5732,120.5783],[30.1607,51.5731,120.9484],[30.1649,51.5702,110.8672],[30.1647,51.5675,110.5904],[30.1509,51.5573,116.2737],[30.1236,51.5449,127.7441],[30.132,51.5391,117.7534],[30.1494,51.5356,113.6691],[30.158,51.5324,119.2532],[30.1668,51.526,127.4627],[30.1712,51.5277,128.7921],[30.1731,51.5247,124.4158]]]]}}