{"type": "Feature","bbox": [27.1403,52.8624,28.03,53.3893],"geometry": {"type": "MultiPolygon","coordinates": [[[[27.1871,52.9498,158.8567],[27.2144,52.9579,159.3964],[27.2235,52.9579,158.9996],[27.2281,52.9552,158.1391],[27.251,52.9498,161.905],[27.2878,52.9335,164.3329],[27.2878,52.9308,164.1345],[27.2788,52.9227,161.9135],[27.2606,52.9118,160.5103],[27.2698,52.9091,160.2879],[27.2789,52.9091,160.7624],[27.2926,52.9064,162.1353],[27.2972,52.9037,164.8612],[27.2973,52.8956,168.5434],[27.3065,52.8901,165.2416],[27.3248,52.8901,171.0128],[27.3476,52.8874,171.6576],[27.3568,52.8847,173.8006],[27.3659,52.8847,170.9392],[27.3796,52.8901,171.1735],[27.3932,52.8982,166.818],[27.4068,52.9036,158.2224],[27.4205,52.9144,155.529],[27.4296,52.9171,155.3802],[27.4524,52.917,153.3812],[27.457,52.9143,153.7892],[27.4571,52.9062,154.5646],[27.4662,52.9089,154.7614],[27.4937,52.9088,152.879],[27.5028,52.9115,150.6661],[27.5027,52.9278,150.7426],[27.5072,52.9305,152.5241],[27.5301,52.9359,157.5035],[27.5392,52.9358,169.4891],[27.5439,52.9304,175.0073],[27.553,52.9249,152.9166],[27.5531,52.9195,150.4205],[27.544,52.9114,151.17],[27.544,52.906,150.0713],[27.5532,52.9005,147.8577],[27.5807,52.8896,150.6266],[27.5899,52.8896,150.3323],[27.599,52.8868,150.1102],[27.5762,52.8761,157.6629],[27.5762,52.8733,160.4659],[27.5946,52.8624,164.9883],[27.6037,52.8651,155.6408],[27.6174,52.8759,146.5206],[27.6311,52.884,147.591],[27.6448,52.8894,145.528],[27.6585,52.8974,148.2015],[27.6676,52.8974,147.5665],[27.6768,52.8947,149.2777],[27.6997,52.9,150.8424],[27.718,52.8999,157.6064],[27.7271,52.9053,166.846],[27.7271,52.9107,161.9034],[27.7317,52.9134,166.6732],[27.7408,52.9161,164.0696],[27.7454,52.9106,153.461],[27.75,52.9106,150.9606],[27.7592,52.9133,150.4612],[27.7683,52.9214,151.2183],[27.7683,52.9241,151.9152],[27.7637,52.9295,151.6564],[27.7637,52.9349,150.6456],[27.7683,52.9376,153.5295],[27.7728,52.9376,150.7391],[27.7774,52.9322,151.2273],[27.7866,52.9348,150.9755],[27.7957,52.9484,161.3954],[27.8049,52.9483,152.5212],[27.8462,52.9562,153.5114],[27.8508,52.9589,148.8154],[27.8553,52.967,147.7071],[27.8507,52.9752,157.3181],[27.8553,52.9806,150.67],[27.8507,52.9806,150.278],[27.8553,52.986,152.7571],[27.8599,52.9887,152.8169],[27.8828,52.9886,158.2842],[27.9012,52.9966,156.0729],[27.915,53.0101,155.4033],[27.9195,53.0128,153.2527],[27.9333,53.0127,151.8726],[27.9471,53.0181,152.4073],[27.9609,53.018,159.6723],[27.9609,53.0234,151.3331],[27.9655,53.0288,152.0134],[27.9792,53.0369,166.3889],[27.9838,53.0477,152.3434],[27.9793,53.0505,152.7326],[27.9747,53.0478,152.6035],[27.9701,53.0505,153.9807],[27.9701,53.0614,153.6999],[27.9563,53.0615,154.496],[27.9471,53.0669,156.826],[27.9425,53.0778,188.4375],[27.9425,53.086,182.1924],[27.9334,53.0996,187.1878],[27.9334,53.1051,186.6423],[27.9563,53.1158,184.0159],[27.9793,53.1292,177.9241],[27.9794,53.1319,185.6062],[27.9656,53.1456,187.7428],[27.9702,53.151,185.2256],[27.9656,53.1538,194.4086],[27.9748,53.1591,195.1589],[27.984,53.1591,199.3122],[28.007,53.1508,201.7843],[28.0116,53.1535,168.6436],[28.0162,53.1643,171.8998],[28.0116,53.1671,186.4078],[28.007,53.1725,189.1314],[27.9932,53.1753,198.9809],[27.9978,53.1807,194.4299],[28.0024,53.1807,189.7306],[28.0162,53.1752,188.4983],[28.0208,53.1752,173.2764],[28.0254,53.1778,190.4177],[28.03,53.1833,186.4035],[28.0162,53.1915,190.9438],[27.984,53.189,203.0193],[27.9702,53.1918,203.6434],[27.9564,53.1891,187.2749],[27.9334,53.192,194.7887],[27.9196,53.1893,183.5916],[27.915,53.1921,192.6023],[27.9012,53.1894,185.4716],[27.8782,53.1923,182.9699],[27.8643,53.1896,183.2866],[27.8597,53.1924,181.4905],[27.8597,53.2168,180.3828],[27.8413,53.2169,186.0293],[27.8275,53.2143,186.667],[27.8183,53.2089,175.2483],[27.8091,53.2062,181.4388],[27.8045,53.209,181.6203],[27.8091,53.2116,169.5882],[27.8091,53.2144,182.7461],[27.7953,53.2144,166.6868],[27.7906,53.2172,169.0458],[27.7998,53.2226,167.0479],[27.7998,53.228,167.1398],[27.8044,53.2361,183.4154],[27.7998,53.2443,177.0329],[27.8044,53.247,180.8212],[27.7952,53.2579,181.0279],[27.7951,53.266,187.8767],[27.7905,53.2688,173.9868],[27.7905,53.2742,167.167],[27.7859,53.2797,165.4646],[27.7859,53.2824,165.8333],[27.7905,53.2851,165.8338],[27.7951,53.2851,164.8324],[27.7997,53.2823,164.7241],[27.8089,53.2823,163.6612],[27.8089,53.285,163.7039],[27.8043,53.2877,168.8119],[27.8043,53.2932,164.8982],[27.7905,53.3041,163.9608],[27.7951,53.3068,163.9662],[27.8089,53.3095,173.3564],[27.8089,53.3149,175.7685],[27.8043,53.3176,180.7276],[27.795,53.3204,183.5207],[27.7858,53.3204,179.04],[27.7674,53.3096,170.0157],[27.7489,53.3097,186.9147],[27.7166,53.3234,181.0741],[27.6751,53.3209,169.2095],[27.6705,53.3236,168.9964],[27.6797,53.329,169.398],[27.6981,53.3289,179.658],[27.6889,53.3344,179.9772],[27.6889,53.3398,170.4444],[27.6842,53.3426,180.9794],[27.6519,53.3481,172.9368],[27.6334,53.3482,172.7201],[27.6335,53.3455,173.7059],[27.6473,53.34,170.4619],[27.6381,53.3291,169.9492],[27.6382,53.3264,169.0768],[27.6289,53.3265,169.1746],[27.6243,53.3292,170.012],[27.6197,53.3292,169.9138],[27.6105,53.3265,170.3158],[27.6059,53.3211,170.2928],[27.6013,53.3184,170.5408],[27.5967,53.3211,170.281],[27.6058,53.332,170.0536],[27.6104,53.3347,170.7965],[27.6058,53.3401,170.5324],[27.5966,53.3429,173.1963],[27.5965,53.3456,170.8262],[27.6103,53.3537,175.542],[27.5826,53.3592,174.6309],[27.5641,53.3674,176.5404],[27.5595,53.3674,176.1825],[27.5549,53.3647,172.8056],[27.5549,53.3565,179.1733],[27.5457,53.3566,173.691],[27.5364,53.362,179.4675],[27.5318,53.3702,173.1657],[27.5271,53.3702,171.5292],[27.5271,53.3729,170.489],[27.5178,53.3811,188.5791],[27.5178,53.3865,192.3202],[27.5132,53.3892,190.3859],[27.4901,53.3893,192.6075],[27.4901,53.3866,190.6277],[27.4994,53.3757,182.9537],[27.5133,53.3675,185.3919],[27.518,53.3594,186.4303],[27.518,53.3566,174.74],[27.5134,53.3539,184.4438],[27.5088,53.3539,188.3634],[27.4903,53.3594,169.4569],[27.481,53.3649,170.1501],[27.4809,53.3757,189.3472],[27.4671,53.3785,182.4919],[27.4625,53.3758,184.2305],[27.4625,53.3703,168.9258],[27.4533,53.3622,175.2304],[27.4441,53.3622,169.3089],[27.4395,53.3568,166.3405],[27.4442,53.3541,176.9991],[27.4534,53.354,183.8413],[27.458,53.3513,183.2273],[27.4535,53.3486,168.4299],[27.4535,53.3459,168.4634],[27.4489,53.3405,170.8157],[27.4259,53.3351,179.5089],[27.4167,53.3269,166.3057],[27.4168,53.3188,173.4891],[27.4214,53.3161,169.1357],[27.4215,53.3052,170.9284],[27.4401,53.297,183.6208],[27.4401,53.2943,173.036],[27.4124,53.2971,167.0366],[27.4078,53.2943,167.1173],[27.4079,53.2889,184.9237],[27.4171,53.2835,167.7065],[27.4356,53.2834,182.2606],[27.4402,53.2807,187.5938],[27.4356,53.2726,170.3154],[27.4357,53.2699,168.92],[27.4403,53.2644,189.8466],[27.4496,53.2617,191.9478],[27.4773,53.2481,190.6978],[27.4911,53.2535,189.7168],[27.5049,53.2534,179.1582],[27.5095,53.248,192.9525],[27.5096,53.2453,193.5916],[27.5235,53.229,190.0995],[27.5189,53.2235,197.9387],[27.5005,53.2236,190.3276],[27.4913,53.2209,186.4667],[27.473,53.2101,205.6131],[27.4454,53.2074,213.0977],[27.4409,53.202,212.125],[27.4409,53.1993,209.435],[27.4455,53.1965,205.0739],[27.4547,53.1965,194.4225],[27.4593,53.1938,192.1587],[27.4548,53.1884,182.2024],[27.464,53.1829,177.0692],[27.4504,53.1667,184.7731],[27.4366,53.1613,186.7029],[27.432,53.1585,189.0367],[27.4275,53.1531,171.6049],[27.4413,53.1477,168.6847],[27.4367,53.145,165.3136],[27.4368,53.1423,164.911],[27.4276,53.1396,171.2433],[27.4184,53.1396,169.2022],[27.4092,53.145,165.653],[27.4046,53.145,164.4765],[27.4,53.1423,164.4244],[27.3816,53.1423,171.7518],[27.3771,53.1369,165.844],[27.3771,53.1342,166.0079],[27.3726,53.1315,166.117],[27.3542,53.1315,181.881],[27.3497,53.1261,182.7195],[27.3497,53.1234,182.5456],[27.3405,53.1207,177.9382],[27.336,53.1207,178.9066],[27.3313,53.1234,179.8326],[27.3222,53.1234,176.549],[27.3222,53.118,176.0872],[27.3177,53.1152,173.4447],[27.3085,53.118,166.9106],[27.2947,53.118,170.8039],[27.2902,53.1152,172.4832],[27.2902,53.1125,171.8838],[27.2948,53.1098,174.6524],[27.2995,53.1017,164.2354],[27.2813,53.0908,163.7066],[27.2583,53.0963,173.3979],[27.2491,53.0963,170.0037],[27.2264,53.0854,171.3526],[27.1898,53.0854,180.326],[27.1898,53.0799,182.6467],[27.1945,53.0745,176.3866],[27.2129,53.0637,170.5501],[27.213,53.061,171.4612],[27.2084,53.061,172.195],[27.1993,53.0555,165.3442],[27.1949,53.0447,160.2083],[27.1904,53.042,159.8532],[27.1813,53.0392,162.2784],[27.1676,53.0392,165.3814],[27.1538,53.0419,171.3892],[27.1447,53.0365,158.8932],[27.1448,53.0338,159.1099],[27.1403,53.0256,167.5211],[27.1404,53.0202,165.807],[27.1541,53.0202,163.6077],[27.1542,53.0175,165.3225],[27.1497,53.0094,165.8297],[27.1408,52.9985,164.6765],[27.1545,52.9985,166.5587],[27.1591,52.9958,167.1731],[27.1591,52.9931,164.407],[27.1637,52.9904,170.9851],[27.1637,52.9877,171.5863],[27.1684,52.9823,168.8884],[27.1689,52.9497,156.3555],[27.1871,52.9498,158.8567]]]]}
,"properties": {"GID_2": "BLR.5.16_1","GID_0": "BLR","country": "Belarus","GID_1": "BLR.5_1","province": "Minsk","NL_NAME_1": "Мінская","county": "Slutsak","VARNAME_2": "Slutsk","NL_NAME_2": "Слуцкіраён","TYPE_2": "Raion","ENGTYPE_2": "District","CC_2": "NA","HASC_2": "BY.MI.SK","name": "Slutsak.county","area_km2": 1804.897,"hist_schema_id": "Elevation0-9000","hist_area_km2": {"150": 759.12,"175": 930.512,"200": 114.883,"225": 0.381}}}