{"type":"Feature","properties":{"ISO3166-1-Alpha-3":"BLR","country":"Belarus","fill":"#F0F","id":"4825","name":"City of Minsk"},
"geometry":{"type": "Polygon","coordinates": [[[27.76076,53.80425,215.5315],[27.80328,53.80925,194.6244],[27.83079,53.83426,195.1051],[27.82078,53.85927,237.6721],[27.78827,53.87428,249.3929],[27.77577,53.90679,241.5148],[27.78077,53.9318,252.7731],[27.80828,53.96181,228.11],[27.83829,53.98182,215.9537],[27.83579,54.01684,231.493],[27.80828,54.02184,253.2155],[27.78077,54.00683,219.0495],[27.75326,53.99683,242.0732],[27.71324,53.98932,256.7391],[27.68823,53.98932,248.1655],[27.64851,53.99826,231.8604],[27.63821,53.99933,230.4492],[27.6057,54.00683,220.7595],[27.56568,54.01183,231.382],[27.50315,54.01684,222.5664],[27.44063,54.00933,220.7508],[27.40812,53.99683,209.5],[27.38561,53.96431,209.5],[27.3756,53.9218,246.6943],[27.3706,53.89429,261.6155],[27.3706,53.86427,259.7429],[27.38311,53.83676,235.9252],[27.42312,53.83176,246.9187],[27.47814,53.81675,238.3804],[27.51566,53.80925,217.7163],[27.53317,53.78924,226.731],[27.55568,53.78424,225.3126],[27.58319,53.80425,219.9783],[27.65071,53.80925,187.8263],[27.68823,53.81175,196.779],[27.71324,53.80675,190.9025],[27.76076,53.80425,215.5315]]]}}