{"type": "Feature","bbox": [28.2831,55.7015,29.4798,56.1031],"geometry": {"type": "MultiPolygon","coordinates": [[[[29.3794,55.7853,154.7303],[29.379,55.7939,159.9284],[29.3967,55.8169,171.4901],[29.4103,55.8284,157.151],[29.4101,55.837,166.6098],[29.4146,55.8427,168.0085],[29.4046,55.8571,170.9746],[29.4043,55.8628,170.9915],[29.409,55.8657,162.19],[29.4229,55.88,144.5],[29.4228,55.8828,171.4611],[29.4175,55.8915,172.5702],[29.4025,55.8973,162.6117],[29.4021,55.903,151.6548],[29.4163,55.9116,168.5506],[29.426,55.9144,154.3937],[29.4456,55.9143,159.7106],[29.4602,55.9171,166.3219],[29.4748,55.9227,170.4422],[29.4798,55.9227,170.9898],[29.4743,55.929,171.736],[29.4433,55.9458,164.7543],[29.4141,55.9459,164.11],[29.4141,55.9485,158.3429],[29.4199,55.9562,155.8844],[29.4352,55.9613,156.192],[29.4358,55.9664,163.7291],[29.4262,55.9717,160.7713],[29.4166,55.9717,156.1709],[29.3969,55.977,154.0975],[29.3778,55.977,157.8357],[29.3627,55.9745,167.3836],[29.3529,55.9745,166.0582],[29.3337,55.9797,163.64],[29.3092,55.9929,160.5956],[29.3044,55.9929,164.0244],[29.2993,55.9956,161.2356],[29.2516,55.9955,175.8673],[29.2265,55.9905,181.8858],[29.2069,55.9906,170.1239],[29.2071,55.9932,176.8004],[29.2022,55.9932,175.1203],[29.1977,55.9983,190.7897],[29.1977,56.0088,173.3941],[29.1866,56.0195,180.0582],[29.166,56.0302,183.9659],[29.1423,56.0302,188.9413],[29.1242,56.0247,163.5799],[29.11,56.0247,178.3877],[29.0993,56.0327,173.2591],[29.0799,56.0354,170.4721],[29.0657,56.0353,185.3543],[29.0329,56.0325,179.6714],[29.0236,56.0299,187.9028],[29.0067,56.0216,169.7005],[28.9631,56.0164,160.7349],[28.938,56.0088,184.8102],[28.9331,56.0038,178.9731],[28.9282,56.0014,177.1061],[28.9283,55.9989,176.9474],[28.9033,55.9992,165.9221],[28.8933,55.9944,159.5709],[28.8577,55.9849,176.4435],[28.8577,55.9824,175.7322],[28.8525,55.9775,179.7715],[28.8523,55.9673,175.6478],[28.8471,55.9649,173.5966],[28.8318,55.9652,145.8382],[28.8165,55.9705,166.7034],[28.8012,55.9734,163.0057],[28.7496,55.9668,138.3461],[28.7292,55.9669,138.4258],[28.7241,55.9698,137.5],[28.719,55.9774,137.5],[28.7192,55.9823,143.9446],[28.7142,55.9873,137.5],[28.7092,55.9898,137.9328],[28.7093,55.9948,139.9686],[28.7046,56.0071,151.7569],[28.7048,56.0121,153.1362],[28.7103,56.0218,164.008],[28.7052,56.0244,162.1711],[28.7054,56.0293,158.9917],[28.6902,56.0369,156.8042],[28.6696,56.0396,159.6263],[28.6647,56.0446,152.3233],[28.6596,56.0472,154.8584],[28.6649,56.052,159.4426],[28.6508,56.0698,161.8124],[28.657,56.0775,161.3739],[28.6626,56.08,160.4185],[28.6787,56.0826,153.3596],[28.6835,56.0854,161.9061],[28.6831,56.0881,162.2783],[28.6684,56.0933,165.1653],[28.6541,56.0932,152.0025],[28.6306,56.0903,151.2447],[28.6209,56.0929,159.3393],[28.606,56.1007,157.6938],[28.5871,56.1005,158.1872],[28.5821,56.1031,154.1339],[28.5536,56.1002,154.7494],[28.529,56.1003,155.1694],[28.4739,56.0932,138.5417],[28.4728,56.0861,141.2637],[28.4665,56.0791,138.8367],[28.4563,56.0768,145.8233],[28.4554,56.072,149.7339],[28.4398,56.0417,146.9361],[28.4433,56.0362,134.4141],[28.4475,56.0334,134.3504],[28.4526,56.0362,148.5402],[28.4536,56.0417,143.9202],[28.4624,56.039,162.9959],[28.4776,56.0443,134.0],[28.4823,56.0442,134.0],[28.4817,56.0416,145.9391],[28.4658,56.02,150.023],[28.4509,56.0198,131.4843],[28.451,56.0225,129.9788],[28.4414,56.0224,125.5755],[28.4215,56.0115,134.9409],[28.4215,56.0061,134.6886],[28.4418,56.001,142.7999],[28.4424,55.9904,125.1254],[28.433,55.9796,142.3946],[28.4284,55.9713,141.8182],[28.4289,55.9631,137.5],[28.4196,55.9491,152.4734],[28.4147,55.9462,156.0489],[28.4046,55.9489,154.4093],[28.3748,55.9431,142.8083],[28.3751,55.9375,135.7225],[28.3805,55.9319,149.363],[28.3809,55.9235,152.9915],[28.3662,55.9178,143.9757],[28.3562,55.9177,149.9904],[28.3414,55.9148,155.0668],[28.3417,55.9092,146.5446],[28.3369,55.9063,137.5854],[28.3378,55.8895,133.6735],[28.3185,55.8754,137.0553],[28.3032,55.8809,147.4046],[28.2979,55.8865,143.5311],[28.2928,55.8893,126.5817],[28.2831,55.8836,135.5474],[28.2847,55.8529,144.4029],[28.2898,55.8501,128.8546],[28.2948,55.8501,129.8806],[28.3189,55.867,124.2585],[28.3289,55.867,119.3547],[28.3293,55.8586,137.8884],[28.32,55.8447,148.0827],[28.33,55.8447,126.8337],[28.3351,55.8419,119.2738],[28.3353,55.8364,119.688],[28.3404,55.8336,121.9826],[28.355,55.842,147.3533],[28.365,55.8421,138.8923],[28.3748,55.8449,125.4958],[28.3846,55.8505,122.9725],[28.3895,55.8505,123.6816],[28.4047,55.845,146.4421],[28.4195,55.8506,147.8276],[28.4245,55.8479,155.576],[28.4246,55.8451,156.8741],[28.4449,55.834,154.8161],[28.44,55.8312,151.4322],[28.4301,55.8312,170.5038],[28.4302,55.8284,150.084],[28.4552,55.8229,150.9553],[28.4554,55.8174,157.5952],[28.4604,55.8146,158.8698],[28.4457,55.809,153.4236],[28.4608,55.8007,151.1322],[28.461,55.7924,154.5286],[28.476,55.7869,142.6359],[28.4859,55.7869,155.7599],[28.5009,55.7814,154.9375],[28.516,55.7732,140.9453],[28.5259,55.7704,140.5856],[28.531,55.7649,134.2278],[28.5311,55.7594,147.1179],[28.5164,55.751,140.2593],[28.5166,55.74,135.3087],[28.5267,55.729,145.3719],[28.5366,55.7262,121.272],[28.5367,55.7152,132.4139],[28.5417,55.7097,140.099],[28.5712,55.7097,125.7808],[28.5958,55.7015,143.656],[28.6057,55.7015,140.0461],[28.6155,55.7042,135.7967],[28.6302,55.7043,122.8383],[28.6597,55.7015,128.7222],[28.6646,55.707,126.997],[28.6744,55.7098,142.8865],[28.6892,55.7071,137.8973],[28.7089,55.7126,133.6407],[28.7285,55.7126,135.1142],[28.7335,55.7154,135.8357],[28.7286,55.7209,142.5208],[28.7483,55.7292,144.1726],[28.7483,55.732,140.6928],[28.7533,55.7347,137.4693],[28.773,55.732,138.5405],[28.7878,55.7375,144.9965],[28.7829,55.7403,144.8442],[28.7879,55.743,150.9007],[28.8125,55.7374,127.0],[28.8222,55.7319,127.0],[28.822,55.718,146.7364],[28.8367,55.7097,158.328],[28.8464,55.7069,153.6519],[28.8711,55.7123,154.2953],[28.8958,55.715,147.8803],[28.9156,55.7205,154.5537],[28.9353,55.7204,155.2589],[28.9699,55.723,161.606],[28.9898,55.7284,151.8665],[28.9997,55.7284,151.3405],[29.0147,55.7338,154.8024],[29.0251,55.7449,161.393],[29.0353,55.7503,159.4911],[29.0401,55.7475,151.9233],[29.0452,55.7503,158.6772],[29.0453,55.753,161.3399],[29.0504,55.7558,155.8],[29.15,55.7551,167.778],[29.1502,55.7578,164.0339],[29.1455,55.7606,165.7052],[29.1457,55.7633,165.0529],[29.1713,55.7686,155.7734],[29.202,55.771,155.5907],[29.2118,55.7681,161.9525],[29.2224,55.7707,155.9957],[29.2532,55.7703,155.291],[29.2852,55.7725,161.7727],[29.3152,55.7827,152.0],[29.3501,55.7883,154.0335],[29.3649,55.7882,168.1626],[29.3794,55.7853,154.7303]]]]}
,"properties": {"GID_2": "BLR.6.14_1","GID_0": "BLR","country": "Belarus","GID_1": "BLR.6_1","province": "Vitebsk","NL_NAME_1": "Вiцебская","county": "Rasony","VARNAME_2": "Rossonu","NL_NAME_2": "Расонскіраён","TYPE_2": "Raion","ENGTYPE_2": "District","CC_2": "NA","HASC_2": "BY.VI.RS","name": "Rasony.county","area_km2": 1951.665,"hist_schema_id": "Elevation0-9000","hist_area_km2": {"125": 150.149,"150": 1234.634,"175": 500.516,"200": 64.894,"225": 1.461}}}