{"type": "Feature","bbox": [26.3409,51.6024,27.6179,52.1727],"geometry": {"type": "MultiPolygon","coordinates": [[[[26.7205,52.1323,132.0663],[26.7162,52.1322,132.2832],[26.7117,52.1349,132.3197],[26.7031,52.1348,131.5022],[26.6854,52.14,131.8977],[26.6375,52.1423,132.001],[26.6292,52.1341,132.0261],[26.6036,52.123,132.8066],[26.6041,52.1149,132.1607],[26.5959,52.104,132.7803],[26.5872,52.1039,132.3772],[26.5781,52.1092,132.1175],[26.5693,52.1091,132.2647],[26.5651,52.1063,133.0638],[26.5653,52.1036,132.8177],[26.5742,52.101,132.9615],[26.5743,52.0983,133.1894],[26.566,52.0901,133.3312],[26.5676,52.0604,134.314],[26.5721,52.0577,134.1247],[26.5984,52.058,132.5873],[26.625,52.0529,132.6319],[26.6256,52.0421,135.7528],[26.6086,52.0338,132.5617],[26.5955,52.0309,132.8603],[26.556,52.0305,148.249],[26.5471,52.0331,144.5264],[26.512,52.0299,133.9665],[26.4947,52.0243,133.8053],[26.4903,52.0242,133.7996],[26.4817,52.0187,133.9386],[26.4556,52.013,137.2283],[26.4554,52.0157,135.0808],[26.4507,52.021,134.5208],[26.4503,52.0292,134.631],[26.4459,52.0291,134.6994],[26.4376,52.0182,145.5272],[26.4291,52.0126,144.4602],[26.4204,52.0098,141.8203],[26.4158,52.0125,141.0981],[26.4063,52.0259,136.0222],[26.4019,52.0258,135.8108],[26.3976,52.0231,135.2699],[26.3978,52.0204,134.5993],[26.4026,52.0123,139.0071],[26.3983,52.0095,135.2712],[26.3892,52.0148,136.0902],[26.3627,52.0145,136.1553],[26.3451,52.0115,135.4304],[26.3409,52.0088,135.3504],[26.3558,51.9764,135.4283],[26.3605,51.971,135.5143],[26.3649,51.971,135.584],[26.3695,51.9684,138.4112],[26.3698,51.9629,148.9027],[26.366,51.9518,139.788],[26.3662,51.949,151.8434],[26.3709,51.9436,139.6711],[26.371,51.9408,139.5708],[26.3669,51.9323,158.5253],[26.367,51.9267,137.7559],[26.3715,51.9268,137.7232],[26.3758,51.9297,138.2278],[26.3803,51.927,137.3699],[26.3848,51.9271,137.2089],[26.3805,51.9213,139.3654],[26.3849,51.9214,138.4415],[26.3894,51.9187,137.871],[26.3983,51.9189,138.6557],[26.4071,51.922,138.25],[26.416,51.9194,137.4233],[26.425,51.914,150.8975],[26.4253,51.8998,138.1519],[26.4209,51.8939,137.9353],[26.4209,51.8853,139.4802],[26.4188,51.8754,141.8867],[26.4125,51.8618,143.83],[26.4131,51.8563,151.1894],[26.423,51.8511,154.6691],[26.4235,51.8455,148.4184],[26.4423,51.8463,166.9551],[26.4522,51.8412,158.7549],[26.4626,51.8303,166.4576],[26.4725,51.8251,166.4491],[26.4918,51.8203,168.3556],[26.5022,51.8093,164.7467],[26.5117,51.8098,149.5349],[26.5217,51.8044,147.8033],[26.5407,51.8054,146.6315],[26.5588,51.8122,147.113],[26.5684,51.8126,161.3976],[26.5786,51.8292,158.5452],[26.598,51.8353,144.3791],[26.6266,51.8364,143.096],[26.6653,51.8324,141.6292],[26.6758,51.8272,141.2571],[26.6933,51.8335,150.0218],[26.7118,51.8342,146.4149],[26.7327,51.824,134.853],[26.7498,51.8303,135.3718],[26.759,51.8307,135.7514],[26.7694,51.8256,135.0438],[26.7785,51.826,135.1897],[26.7893,51.7927,136.9357],[26.8007,51.7876,137.9415],[26.8099,51.788,148.7823],[26.8074,51.7762,149.8351],[26.8163,51.7708,144.9209],[26.8265,51.7714,145.1076],[26.8673,51.781,141.9494],[26.8844,51.7817,136.9264],[26.8873,51.7773,135.4979],[26.9361,51.7705,152.6288],[26.9449,51.771,147.3822],[26.9852,51.764,139.0131],[26.9928,51.7768,146.4816],[26.9985,51.7816,138.2919],[27.1935,51.7873,138.0551],[27.1945,51.7813,138.3843],[27.1891,51.7632,139.2429],[27.1993,51.6837,142.4605],[27.2093,51.6714,145.7823],[27.2506,51.6733,143.1188],[27.262,51.6679,144.2436],[27.2625,51.6553,150.7501],[27.2516,51.6418,149.5574],[27.2399,51.6345,151.1486],[27.2296,51.6148,152.3483],[27.2302,51.6024,154.7001],[27.2393,51.6026,154.7741],[27.2594,51.6105,161.2603],[27.2894,51.6129,167.0113],[27.2993,51.6074,157.1592],[27.3193,51.609,149.4577],[27.3392,51.6169,148.4705],[27.349,51.6241,148.265],[27.3688,51.6193,147.2064],[27.3788,51.6138,146.8761],[27.4183,51.6169,143.6161],[27.418,51.6232,143.986],[27.4272,51.6303,143.2115],[27.4466,51.6318,142.5088],[27.457,51.6263,147.4183],[27.4576,51.62,147.4049],[27.4674,51.6208,141.8564],[27.4667,51.6269,141.8917],[27.4764,51.6275,150.4812],[27.4771,51.6215,153.1081],[27.4868,51.6221,139.4432],[27.4782,51.6089,141.2347],[27.488,51.6097,140.5238],[27.4982,51.6042,140.8872],[27.518,51.6057,141.4295],[27.5166,51.6176,143.0805],[27.507,51.6171,151.6873],[27.5061,51.623,145.0783],[27.4957,51.6285,140.1463],[27.4941,51.6403,142.2098],[27.503,51.6465,148.15],[27.5126,51.6469,141.8186],[27.5238,51.6356,148.8025],[27.5298,51.6358,145.0103],[27.5298,51.6369,145.0103],[27.5224,51.6435,140.376],[27.5221,51.6573,150.1165],[27.4858,51.7195,139.5917],[27.4853,51.7276,137.7095],[27.4979,51.7437,137.26],[27.5067,51.7464,137.5952],[27.5159,51.7438,137.9449],[27.5293,51.7465,138.3199],[27.538,51.7518,142.536],[27.5469,51.7545,140.3406],[27.5552,51.7653,140.2201],[27.5502,51.7733,143.8443],[27.5406,51.784,139.9758],[27.5401,51.7921,139.796],[27.5527,51.8082,153.5367],[27.5523,51.8162,138.7862],[27.5471,51.8297,135.9209],[27.5278,51.8538,136.6484],[27.5094,51.8619,133.8635],[27.5049,51.8619,133.2123],[27.4956,51.8699,133.1224],[27.5262,51.886,132.8516],[27.5388,51.913,133.6709],[27.5385,51.9238,136.0081],[27.5337,51.9346,136.3067],[27.5198,51.9508,131.1713],[27.5195,51.9643,135.1681],[27.5283,51.9751,139.7295],[27.5372,51.9805,132.3409],[27.5686,51.994,134.382],[27.5731,51.994,141.1068],[27.6001,52.0049,126.6432],[27.6135,52.0184,126.1227],[27.6179,52.0265,125.7431],[27.6178,52.04,126.1272],[27.6132,52.0509,125.8111],[27.6041,52.0563,125.3705],[27.586,52.0536,126.1641],[27.5815,52.0563,126.4681],[27.577,52.059,125.7632],[27.5723,52.0752,126.2691],[27.5633,52.0779,126.1063],[27.5452,52.078,126.0637],[27.5407,52.0807,125.989],[27.5272,52.0834,125.707],[27.5271,52.0915,125.1047],[27.5315,52.1023,124.7426],[27.527,52.1104,126.4012],[27.527,52.1159,125.8122],[27.5314,52.1186,125.5803],[27.5314,52.124,126.7489],[27.5268,52.1321,125.5611],[27.5358,52.1429,126.0983],[27.5357,52.151,127.18],[27.5178,52.1429,125.5711],[27.5132,52.1456,125.5453],[27.5042,52.1456,125.8026],[27.4907,52.1375,125.96],[27.4772,52.1375,127.2624],[27.4727,52.1402,128.0018],[27.4726,52.1456,126.4247],[27.4816,52.1538,126.2027],[27.4861,52.1619,129.9967],[27.4815,52.1646,126.1739],[27.477,52.1646,126.2165],[27.459,52.1592,124.8006],[27.4545,52.1619,125.9244],[27.4455,52.1619,127.3514],[27.441,52.1592,126.7726],[27.4366,52.1538,127.57],[27.4411,52.1511,125.8262],[27.4456,52.1456,128.5307],[27.4457,52.1429,126.5672],[27.4367,52.1429,126.4858],[27.4321,52.1483,128.7919],[27.4186,52.1483,130.8541],[27.4141,52.1511,127.9624],[27.4141,52.1538,129.1107],[27.4231,52.1565,128.697],[27.423,52.1592,129.4576],[27.4095,52.1592,130.1845],[27.396,52.1619,130.5082],[27.3871,52.1592,132.3548],[27.3871,52.1565,130.6438],[27.3782,52.1538,129.1861],[27.3647,52.1565,126.7821],[27.3601,52.1646,132.4708],[27.3601,52.17,127.7725],[27.3556,52.1727,128.7126],[27.3422,52.1646,126.8898],[27.3468,52.1565,127.3405],[27.3468,52.1538,127.5811],[27.3424,52.1511,127.1574],[27.3289,52.1565,126.6335],[27.32,52.1565,126.5161],[27.3155,52.1592,127.7435],[27.3153,52.1673,127.1428],[27.3108,52.17,128.0043],[27.2797,52.1647,127.7479],[27.2663,52.1647,129.519],[27.2663,52.1674,127.7635],[27.2529,52.1647,127.862],[27.2486,52.1593,127.7048],[27.2308,52.1593,127.9116],[27.2176,52.1567,125.9776],[27.2132,52.154,127.227],[27.2088,52.154,127.1873],[27.1999,52.1594,127.8465],[27.1822,52.1595,127.7699],[27.1821,52.1622,127.7896],[27.156,52.1541,127.7617],[27.1254,52.1542,127.8313],[27.1165,52.157,128.336],[27.0991,52.157,128.4118],[27.0861,52.1544,128.0767],[27.0817,52.1571,128.2857],[27.0425,52.16,129.0015],[27.0299,52.1519,129.0017],[27.0211,52.1547,129.2096],[27.0082,52.1547,129.7138],[27.004,52.152,128.2934],[27.0042,52.1466,129.2332],[26.9831,52.1359,130.2278],[26.9788,52.1359,129.5459],[26.9743,52.1386,130.0185],[26.974,52.1467,130.1542],[26.9696,52.1494,130.0943],[26.9565,52.1521,129.8232],[26.9263,52.1521,130.0195],[26.9175,52.1548,130.8659],[26.883,52.1548,130.8405],[26.8526,52.1601,132.4726],[26.8396,52.16,136.1507],[26.7797,52.1516,135.0789],[26.7756,52.1489,132.5933],[26.7676,52.138,131.9395],[26.7293,52.1296,134.1352],[26.7205,52.1323,132.0663]]]]}
,"properties": {"GID_2": "BLR.1.15_1","GID_0": "BLR","country": "Belarus","GID_1": "BLR.1_1","province": "Brest","NL_NAME_1": "Брэсцкая","county": "Stolin","VARNAME_2": "NA","NL_NAME_2": "Столінскіраён","TYPE_2": "Raion","ENGTYPE_2": "District","CC_2": "NA","HASC_2": "BY.BR.ST","name": "Stolin.county","area_km2": 3318.636,"hist_schema_id": "Elevation0-9000","hist_area_km2": {"125": 2087.763,"150": 1181.875,"175": 48.998}}}