{"type": "Feature","bbox": [26.0163,53.8234,27.1949,54.2957],"geometry": {"type": "MultiPolygon","coordinates": [[[[26.0163,54.1702,211.7617],[26.0171,54.1538,190.3733],[26.0363,54.1403,185.5481],[26.0552,54.1323,176.3476],[26.102,54.1218,170.1569],[26.111,54.1273,173.9811],[26.1107,54.1328,172.8488],[26.0962,54.1463,177.9404],[26.0914,54.149,182.3157],[26.0909,54.1599,187.7407],[26.1188,54.1574,174.8311],[26.1278,54.163,166.4652],[26.1324,54.163,166.2478],[26.1418,54.1603,164.1358],[26.1513,54.155,164.3191],[26.1515,54.1522,170.8051],[26.1425,54.1467,183.9646],[26.1294,54.1302,184.8038],[26.1301,54.1138,184.7025],[26.149,54.1058,188.9997],[26.1496,54.0949,167.2046],[26.1452,54.0894,179.7365],[26.1501,54.084,178.5639],[26.1504,54.0785,175.5121],[26.1609,54.0513,158.0322],[26.1659,54.0431,147.7674],[26.1707,54.0404,147.3344],[26.1757,54.0323,142.16],[26.1804,54.0296,141.5875],[26.1898,54.027,149.4964],[26.2357,54.0329,158.7391],[26.2448,54.0357,155.3649],[26.2491,54.0412,146.5902],[26.2672,54.0495,146.3195],[26.281,54.0523,146.478],[26.3039,54.0606,146.3292],[26.3178,54.0634,148.808],[26.3226,54.0607,166.4425],[26.3333,54.0308,148.3542],[26.3289,54.0253,157.0375],[26.3291,54.0198,159.9389],[26.334,54.0144,156.3677],[26.3342,54.009,150.1356],[26.3301,53.998,149.1495],[26.321,53.9925,145.3106],[26.3167,53.9843,151.0472],[26.3213,53.9843,158.521],[26.3215,53.9816,142.4297],[26.3354,53.9817,143.5419],[26.3538,53.9872,144.406],[26.3582,53.9927,144.8089],[26.3766,53.9983,153.1534],[26.3904,54.0011,154.8136],[26.3997,54.0011,163.104],[26.4143,53.9848,152.1462],[26.419,53.9821,158.0437],[26.4191,53.9794,159.6438],[26.4239,53.9767,147.9914],[26.4339,53.9576,156.6998],[26.4343,53.9467,156.2587],[26.4253,53.9412,153.2846],[26.3886,53.9329,164.4003],[26.3655,53.93,155.4271],[26.361,53.9273,151.8053],[26.3612,53.9218,156.1013],[26.366,53.9191,165.2159],[26.3804,53.9055,146.8269],[26.4037,53.9029,145.2353],[26.4129,53.903,165.1006],[26.4174,53.9057,146.0487],[26.4267,53.9058,157.5611],[26.4314,53.9031,163.2374],[26.427,53.8976,164.0856],[26.4271,53.8949,155.2628],[26.4365,53.8895,162.8043],[26.4505,53.8868,171.0337],[26.4692,53.8788,158.6081],[26.5111,53.8681,165.4211],[26.5204,53.8682,165.0856],[26.5294,53.8737,170.2768],[26.5386,53.8737,171.4224],[26.5525,53.8738,177.1986],[26.5619,53.8684,179.7161],[26.6034,53.8686,179.7038],[26.6128,53.8632,183.8188],[26.6131,53.855,199.1052],[26.6224,53.8524,211.3738],[26.6502,53.8498,216.1925],[26.6828,53.8418,221.1236],[26.6921,53.8364,221.7135],[26.7014,53.8365,219.3128],[26.7012,53.8419,213.5021],[26.7151,53.842,223.5459],[26.7244,53.8393,221.8394],[26.7337,53.8394,226.2689],[26.7474,53.8449,219.0099],[26.7521,53.8449,217.2807],[26.7568,53.8422,220.1518],[26.757,53.8313,212.8504],[26.7617,53.8286,205.9689],[26.7756,53.8314,225.0557],[26.7803,53.8287,237.1797],[26.7941,53.8315,222.5628],[26.7941,53.8288,227.47],[26.7988,53.8261,235.4404],[26.7989,53.8234,228.5022],[26.8082,53.8234,234.2269],[26.8219,53.8317,244.0274],[26.8218,53.8344,230.604],[26.8124,53.8398,222.115],[26.8122,53.8479,222.2743],[26.8214,53.8507,236.2083],[26.8354,53.848,223.5799],[26.8399,53.8535,257.5233],[26.8585,53.8536,241.1809],[26.8723,53.8591,254.1774],[26.8862,53.8591,242.3264],[26.9043,53.8782,290.0087],[26.9089,53.881,290.7723],[26.9088,53.8837,292.444],[26.8994,53.8891,311.9629],[26.8993,53.8946,302.9266],[26.9131,53.9028,301.6024],[26.9317,53.9001,299.1628],[26.9365,53.8947,296.5461],[26.9457,53.8974,305.8807],[26.9457,53.9001,308.9239],[26.9595,53.9056,315.9583],[26.9732,53.9165,293.7846],[26.973,53.9274,275.6611],[26.9776,53.9302,274.9067],[26.9822,53.9302,286.9124],[26.9824,53.922,283.5921],[26.9872,53.9166,301.5031],[26.9965,53.9166,293.1895],[27.015,53.9221,258.744],[27.0243,53.9221,274.958],[27.0289,53.9248,284.0539],[27.0334,53.933,290.8005],[27.0332,53.9412,279.3534],[27.047,53.9494,230.6678],[27.0703,53.9494,232.7886],[27.0749,53.9521,228.4454],[27.0842,53.9522,229.3594],[27.1026,53.9658,235.8089],[27.1072,53.9712,227.9442],[27.107,53.9794,270.864],[27.0976,53.9848,284.5669],[27.0975,53.993,271.3452],[27.1113,54.0012,300.7105],[27.1206,54.0012,289.0685],[27.1206,54.0039,297.4874],[27.1298,54.0094,286.3332],[27.1485,54.0094,297.231],[27.153199999999998,54.0067,289.268],[27.1718,54.0067,287.4563],[27.181,54.0203,289.3941],[27.1903,54.0203,282.1534],[27.1949,54.0258,282.7575],[27.1901,54.0312,293.5135],[27.19,54.0366,305.9309],[27.1852,54.0448,293.9312],[27.1852,54.0475,268.5235],[27.1898,54.053,280.9955],[27.185,54.0557,283.2104],[27.1757,54.053,286.5699],[27.1664,54.053,290.9265],[27.1662,54.0666,300.7806],[27.1614,54.0747,292.0321],[27.1613,54.0774,293.6184],[27.1707,54.0775,283.2817],[27.1846,54.0802,261.855],[27.1846,54.0829,257.6455],[27.1705,54.0856,273.7095],[27.1658,54.0883,277.1298],[27.1656,54.0992,248.6899],[27.1609,54.1019,245.7161],[27.1516,54.1019,251.209],[27.147,54.0965,253.1484],[27.1471,54.091,282.6394],[27.1425,54.0829,274.3401],[27.1148,54.0665,304.8283],[27.1055,54.0665,322.6802],[27.1007,54.0692,312.7639],[27.1007,54.0719,309.1935],[27.1146,54.0801,290.6749],[27.1144,54.0883,254.3933],[27.1051,54.0883,258.6166],[27.1003,54.091,258.3362],[27.0863,54.0937,257.4056],[27.0769,54.0937,266.4495],[27.0629,54.0964,251.5146],[27.0346,54.1072,262.1187],[27.0207,54.1044,276.0145],[27.0113,54.1044,259.8676],[27.0019,54.1071,257.5229],[26.9692,54.107,273.3514],[26.9647,54.1016,280.9529],[26.9506,54.1015,270.6162],[26.9365,54.107,261.1855],[26.9318,54.1069,255.5645],[26.9271,54.1096,280.178],[26.9269,54.1178,257.7188],[26.9127,54.1259,247.6156],[26.9034,54.1259,253.5788],[26.8941,54.1232,245.7504],[26.8942,54.1177,248.9137],[26.8897,54.1123,258.7564],[26.8757,54.1122,230.1905],[26.8711,54.1095,240.9764],[26.876,54.0986,220.1743],[26.8668,54.0931,217.8418],[26.8388,54.093,214.4196],[26.8341,54.0957,214.4335],[26.8339,54.1012,221.5428],[26.8196,54.1147,237.6615],[26.8149,54.1147,239.1264],[26.8103,54.112,234.184],[26.8009,54.1147,234.403],[26.7776,54.1146,230.5102],[26.7776,54.1118,229.4453],[26.7824,54.1091,236.0124],[26.7824,54.1064,232.8681],[26.7778,54.1037,225.7618],[26.7685,54.1036,226.6429],[26.7593,54.1009,223.7132],[26.7591,54.1063,232.9808],[26.7543,54.1117,241.2171],[26.7542,54.1145,226.6606],[26.7495,54.1172,228.306],[26.7168,54.117,246.5498],[26.7121,54.1197,244.7006],[26.7119,54.1252,248.1896],[26.7211,54.1307,258.4774],[26.7444,54.1308,247.2849],[26.7534,54.1444,254.7963],[26.7439,54.1498,237.8673],[26.7158,54.1524,239.3217],[26.7112,54.1497,247.2234],[26.7066,54.1497,240.9853],[26.7018,54.1524,248.1255],[26.7017,54.1551,226.4462],[26.7108,54.1633,217.2456],[26.7105,54.1742,199.2741],[26.7057,54.1796,198.7551],[26.7055,54.1851,187.3388],[26.7008,54.1878,172.4901],[26.6916,54.1823,178.2785],[26.6822,54.1822,187.312],[26.6775,54.1849,178.9944],[26.6774,54.1877,177.7363],[26.6727,54.1904,178.62],[26.668,54.1903,194.632],[26.6541,54.1848,180.3582],[26.6494,54.1875,176.5696],[26.6445,54.193,182.0551],[26.6537,54.1985,176.9451],[26.6536,54.2012,173.2629],[26.649,54.2012,172.622],[26.6442,54.2039,174.9534],[26.6349,54.2011,175.525],[26.6258,54.1929,173.9907],[26.6212,54.1929,172.6157],[26.6163,54.1983,171.5416],[26.6161,54.2065,171.6257],[26.5881,54.2036,170.6127],[26.5789,54.2009,170.343],[26.5697,54.1954,170.4058],[26.565,54.1954,170.3259],[26.5554,54.2035,170.6743],[26.5317,54.2116,167.865],[26.5177,54.2115,168.2052],[26.5219,54.2252,197.3226],[26.5215,54.2361,225.7498],[26.5353,54.2443,224.0566],[26.5493,54.2471,213.0546],[26.5584,54.2526,227.83],[26.5581,54.2635,250.2883],[26.5486,54.2661,229.0518],[26.5346,54.2661,240.1163],[26.525,54.2715,243.4564],[26.5016,54.2714,254.3772],[26.4921,54.2741,265.382],[26.4734,54.2713,249.222],[26.4687,54.274,272.9955],[26.4634,54.2903,282.4556],[26.4585,54.2957,276.3048],[26.4397,54.2957,265.5507],[26.4218,54.2711,250.7697],[26.4037,54.2547,228.5006],[26.3807,54.2409,181.336],[26.3671,54.23,170.0607],[26.3392,54.2217,170.1618],[26.3252,54.2189,171.094],[26.2877,54.2214,186.6131],[26.2783,54.2241,182.2216],[26.2638,54.2349,202.6056],[26.2449,54.2429,196.4863],[26.2263,54.2428,178.831],[26.2171,54.24,191.1036],[26.2078,54.2399,210.8858],[26.2033,54.2371,213.9701],[26.1939,54.2398,208.5039],[26.1528,54.2231,260.0513],[26.1302,54.2093,208.3064],[26.1168,54.1983,214.2509],[26.1029,54.1982,199.5659],[26.0985,54.1927,198.9508],[26.0799,54.1926,183.7451],[26.0659,54.1952,209.346],[26.0611,54.1979,207.8562],[26.0608,54.2034,211.1004],[26.0653,54.2061,197.8087],[26.0651,54.2116,187.2803],[26.0603,54.2143,191.7979],[26.0469,54.2033,203.3058],[26.0382,54.1923,214.7887],[26.0432,54.1869,190.81],[26.0163,54.1702,211.7617]]]]}
,"properties": {"GID_2": "BLR.5.21_1","GID_0": "BLR","country": "Belarus","GID_1": "BLR.5_1","province": "Minsk","NL_NAME_1": "Мінская","county": "Valozhyn","VARNAME_2": "Volozhin","NL_NAME_2": "Валожынскіраён","TYPE_2": "Raion","ENGTYPE_2": "District","CC_2": "NA","HASC_2": "BY.MI.VZ","name": "Valozhyn.county","area_km2": 1916.612,"hist_schema_id": "Elevation0-9000","hist_area_km2": {"150": 250.948,"175": 498.471,"200": 383.124,"225": 330.955,"250": 217.153,"275": 135.416,"300": 84.733,"325": 15.65,"350": 0.162}}}