{"type": "Feature","bbox": [25.0072,53.2228,25.7836,53.6586],"geometry": {"type": "MultiPolygon","coordinates": [[[[25.7025,53.3996,220.7532],[25.7013,53.4158,230.0175],[25.7055,53.4213,207.1721],[25.7053,53.424,191.2822],[25.7143,53.427,197.0276],[25.7275,53.4354,222.1783],[25.7317,53.4409,181.7532],[25.7315,53.4436,183.029],[25.7266,53.4489,183.3271],[25.7264,53.4516,181.1559],[25.7354,53.4546,207.0461],[25.7491,53.4549,198.5677],[25.7625,53.4607,238.8488],[25.7614,53.4769,222.8309],[25.775,53.48,238.0055],[25.7836,53.4883,268.6278],[25.7834,53.491,282.7862],[25.7742,53.4908,254.6709],[25.774,53.4935,249.9399],[25.7736,53.4989,244.7185],[25.7823,53.5073,249.0115],[25.7821,53.51,247.5466],[25.7773,53.5126,263.8951],[25.7683,53.5096,255.4781],[25.7591,53.5094,233.8885],[25.7589,53.5121,254.4574],[25.7267,53.5112,247.442],[25.7219,53.5138,224.1995],[25.7215,53.5192,237.5917],[25.7072,53.5243,264.2184],[25.698,53.524,263.7052],[25.6936,53.5212,244.8148],[25.6798,53.5209,240.6979],[25.6704,53.5233,238.4397],[25.6608,53.5285,228.6882],[25.633,53.5304,180.0666],[25.6236,53.5329,170.9868],[25.614,53.5381,178.5262],[25.6184,53.5409,175.9209],[25.6182,53.5436,177.0277],[25.6362,53.5495,190.239],[25.6405,53.5523,204.2388],[25.6397,53.5631,200.314],[25.6439,53.5687,188.39],[25.6573,53.5744,217.3032],[25.652,53.5824,177.4946],[25.6424,53.5876,184.0519],[25.6334,53.5846,200.4074],[25.5874,53.5834,177.3138],[25.564,53.5881,165.3463],[25.5592,53.5907,162.3703],[25.554,53.5987,166.6266],[25.5527,53.6149,182.4637],[25.5343,53.6144,155.5492],[25.5302,53.6089,151.6008],[25.5308,53.6007,170.6342],[25.5264,53.5979,165.3604],[25.5269,53.5925,161.0542],[25.5227,53.587,158.8872],[25.5092,53.5839,164.3462],[25.4674,53.5881,144.0089],[25.4626,53.5907,148.0516],[25.4661,53.6043,154.1767],[25.4659,53.607,148.3885],[25.4611,53.6096,142.7135],[25.4244,53.6085,149.8991],[25.41,53.6162,130.1864],[25.4091,53.627,140.0927],[25.4176,53.6354,144.4483],[25.4161,53.6543,136.8367],[25.3883,53.6562,121.9952],[25.3789,53.6586,140.3887],[25.3422,53.6575,120.2076],[25.3378,53.6547,120.7927],[25.3477,53.6469,123.1657],[25.3619,53.6419,128.5212],[25.3621,53.6392,128.0507],[25.3534,53.6335,130.6751],[25.3442,53.6332,131.2124],[25.3306,53.6301,124.8442],[25.3265,53.6246,125.3702],[25.3173,53.6243,122.5932],[25.3086,53.6187,119.3744],[25.3042,53.6158,119.8133],[25.3047,53.6104,138.549],[25.2959,53.6048,141.2097],[25.278,53.5988,137.9821],[25.2737,53.596,129.7499],[25.27,53.5851,134.8386],[25.2574,53.5712,139.1819],[25.253,53.5683,137.2202],[25.2395,53.5652,120.7128],[25.212,53.5644,132.5051],[25.1985,53.5613,127.8128],[25.1854,53.5528,115.2067],[25.1671,53.5523,128.7232],[25.1627,53.5494,119.461],[25.1586,53.5439,134.4896],[25.16,53.5278,131.5941],[25.1421,53.5218,128.9383],[25.1437,53.503,121.0439],[25.1394,53.5002,120.8626],[25.1405,53.4867,125.5879],[25.1359,53.4866,136.7183],[25.1357,53.4893,123.8289],[25.1261,53.4944,136.4669],[25.1243,53.5159,117.4331],[25.1284,53.5214,117.6794],[25.1231,53.5293,130.7668],[25.1131,53.5398,120.4121],[25.0954,53.5312,117.041],[25.0817,53.5308,113.4051],[25.0684,53.525,124.0837],[25.0455,53.5243,130.9083],[25.0361,53.5267,121.3875],[25.0226,53.5235,120.5784],[25.0185,53.518,118.574],[25.0141,53.5152,120.7218],[25.0235,53.5128,135.9128],[25.024,53.5074,137.243],[25.0153,53.5017,133.4467],[25.0159,53.4937,134.4563],[25.0072,53.488,126.4182],[25.0127,53.4774,136.7064],[25.0178,53.4721,136.9662],[25.0182,53.4668,116.9131],[25.0326,53.4591,125.0103],[25.051,53.4597,139.2118],[25.0606,53.4546,133.4385],[25.0565,53.4491,127.0529],[25.0567,53.4464,131.4919],[25.0661,53.444,123.9297],[25.0663,53.4413,136.006],[25.0617,53.4412,132.8714],[25.0574,53.4383,135.2627],[25.0526,53.4409,131.3636],[25.0434,53.4406,137.0814],[25.0487,53.4327,125.6179],[25.0519,53.3951,133.0398],[25.0478,53.3896,127.3294],[25.0348,53.3811,116.6581],[25.0302,53.3809,116.0255],[25.0258,53.3781,120.4632],[25.0402,53.3705,120.5648],[25.0316,53.3648,118.4929],[25.032,53.3595,118.2262],[25.0416,53.3544,116.8768],[25.0439,53.3275,118.7308],[25.0489,53.3223,125.0322],[25.0535,53.3224,128.7445],[25.0631,53.3173,134.6398],[25.0633,53.3146,133.0401],[25.0592,53.3091,119.6076],[25.0594,53.306399999999996,123.1075],[25.0832,53.2964,121.4091],[25.0882,53.2911,120.1231],[25.1211,53.2813,121.6647],[25.1496,53.2687,124.2321],[25.15,53.2633,121.4268],[25.1593,53.2609,122.7783],[25.1728,53.264,124.246],[25.1871,53.2563,123.4107],[25.1965,53.2539,124.1958],[25.201,53.254,129.501],[25.2002,53.2648,126.6151],[25.2141,53.2624,130.0115],[25.2228,53.2681,144.9181],[25.2217,53.2815,135.0928],[25.2445,53.2822,157.2617],[25.2434,53.2956,141.7665],[25.2843,53.2994,156.8037],[25.2938,53.2943,172.8271],[25.2942,53.2889,159.7903],[25.3038,53.2838,158.9657],[25.3268,53.2817,168.5226],[25.363,53.2854,195.6385],[25.3726,53.2803,204.473],[25.3786,53.2615,193.0682],[25.3837,53.2536,208.4585],[25.3933,53.2484,206.9815],[25.4024,53.2487,197.1459],[25.4113,53.2516,197.503],[25.421,53.2438,189.8613],[25.4214,53.2384,190.7292],[25.4263,53.2331,178.538],[25.4454,53.2228,165.2168],[25.4497,53.2256,167.3719],[25.4679,53.2261,180.4262],[25.4723,53.2289,191.3133],[25.4719,53.2343,198.6512],[25.481,53.2345,202.7381],[25.4857,53.2319,199.6024],[25.4903,53.2321,205.3931],[25.4946,53.2349,184.1297],[25.4988,53.2404,190.3355],[25.5075,53.246,196.1048],[25.5212,53.2463,173.4253],[25.5253,53.2518,192.4377],[25.5251,53.2545,195.0302],[25.5204,53.2571,179.7464],[25.52,53.2625,186.124],[25.5338,53.2602,188.7607],[25.538,53.2657,192.2131],[25.5376,53.2711,194.9283],[25.542,53.2739,195.5276],[25.5521,53.2606,228.8577],[25.5523,53.2579,232.1855],[25.5808,53.2424,199.5331],[25.5947,53.2401,212.5991],[25.5988,53.2456,212.9513],[25.5985,53.251,214.639],[25.6024,53.2592,222.4968],[25.6023,53.2619,225.024],[25.6066,53.2647,227.5538],[25.6062,53.2701,207.3614],[25.6106,53.2729,191.7249],[25.6152,53.273,208.3698],[25.6194,53.2785,210.4794],[25.619,53.2839,224.7837],[25.6049,53.289,221.2892],[25.6043,53.2971,210.1881],[25.6178,53.3001,209.0916],[25.6275,53.2922,210.8931],[25.6367,53.2925,230.8433],[25.6454,53.2981,231.2284],[25.6496,53.3036,200.1398],[25.6445,53.3116,183.0435],[25.6443,53.3143,176.1768],[25.6527,53.3253,192.3419],[25.6573,53.3254,188.629],[25.6607,53.3417,213.8188],[25.6557,53.347,225.7242],[25.6548,53.3605,226.1974],[25.659,53.366,213.0856],[25.6633,53.3688,215.0719],[25.6769,53.3719,230.0744],[25.6805,53.3855,239.8799],[25.6897,53.3857,220.6503],[25.6941,53.3886,237.4042],[25.6937,53.394,228.1096],[25.7025,53.3996,220.7532]]]]}
,"properties": {"GID_2": "BLR.3.4_1","GID_0": "BLR","country": "Belarus","GID_1": "BLR.3_1","province": "Grodno","NL_NAME_1": "Гродзенская","county": "Dzyatlava","VARNAME_2": "Dyatlovo","NL_NAME_2": "Дзятлаўскіраён","TYPE_2": "Raion","ENGTYPE_2": "District","CC_2": "NA","HASC_2": "BY.HR.DY","name": "Dzyatlava.county","area_km2": 1505.86,"hist_schema_id": "Elevation0-9000","hist_area_km2": {"125": 234.174,"150": 434.123,"175": 347.724,"200": 259.025,"225": 194.653,"250": 32.826,"275": 3.321,"300": 0.013}}}