{"type": "Feature","bbox": [23.1783,52.1949,24.1625,52.6251],"geometry": {"type": "MultiPolygon","coordinates": [[[[23.8492,52.254,161.9521],[23.8486,52.2593,156.996],[23.8395,52.2588,165.0762],[23.8344,52.2639,167.0652],[23.8341,52.2665,166.5602],[23.8141,52.2814,166.8002],[23.8123,52.2972,192.3637],[23.8291,52.3087,160.5639],[23.833,52.3143,178.7333],[23.8414,52.32,185.0913],[23.8363,52.325,184.7923],[23.8441,52.3361,190.1046],[23.8609,52.3476,173.6363],[23.8654,52.3478,167.9265],[23.866,52.3426,156.3369],[23.8751,52.3431,158.1459],[23.8802,52.3381,174.588],[23.8809,52.3328,169.7789],[23.886,52.3278,157.8255],[23.9006,52.3207,150.6938],[23.8989,52.2967,148.6395],[23.9231,52.2849,145.4061],[23.9325,52.2828,145.981],[23.9416,52.2833,151.8328],[23.9407,52.2912,150.316],[23.9352,52.2989,148.2318],[23.9345,52.3041,147.1753],[23.9388,52.307,148.3843],[23.952,52.3105,152.2546],[23.9732,52.3251,178.6592],[23.981,52.3362,183.2256],[23.9975,52.3505,188.0564],[24.0014,52.356,184.5367],[24.0105,52.3566,174.7717],[24.0293,52.3526,181.9748],[24.0612,52.3547,176.7784],[24.07,52.3579,175.8097],[24.074,52.3635,187.5902],[24.077,52.3768,168.0035],[24.0626,52.3812,166.0412],[24.0623,52.3838,183.8437],[24.0662,52.3893,164.3633],[24.0754,52.3899,167.0674],[24.0794,52.3954,161.1299],[24.0788,52.4006,163.1055],[24.0929,52.3989,157.6029],[24.1021,52.3994,157.2252],[24.107,52.3971,151.3437],[24.0984,52.3913,154.4877],[24.1086,52.384,174.4392],[24.1273,52.3825,169.9193],[24.1366,52.383,175.2891],[24.1625,52.4003,150.7695],[24.1474,52.41,149.7978],[24.1471,52.4126,149.6374],[24.1558,52.4184,150.1902],[24.1549,52.4262,155.9222],[24.145,52.4309,177.8218],[24.1225,52.4243,161.297],[24.1132,52.4238,157.7678],[24.1037,52.4259,147.2333],[24.1028,52.4337,147.6548],[24.0935,52.4332,147.2346],[24.0892,52.4303,149.8728],[24.08,52.4297,149.9262],[24.0791,52.4376,155.2308],[24.0738,52.4425,164.9839],[24.064,52.4472,151.9614],[24.0499,52.449,167.5788],[24.0407,52.4484,178.4486],[24.0322,52.4426,162.3735],[24.0276,52.4423,150.5584],[24.0178,52.447,152.2124],[24.0172,52.4522,166.152],[24.0214,52.4551,153.4795],[24.0306,52.4557,169.8212],[24.0345,52.4612,175.5814],[24.0196,52.4708,174.5574],[24.0235,52.4763,178.5454],[24.018,52.4839,159.1619],[24.0033,52.4909,173.3188],[23.9942,52.4903,185.4077],[23.9893,52.4927,185.9936],[23.9842,52.4976,188.907],[23.9878,52.5057,192.5892],[23.9829,52.5081,196.5465],[23.9738,52.5075,195.3897],[23.9729,52.5153,198.7696],[23.9755,52.5313,179.3849],[23.9759,52.5655,193.1289],[23.9741,52.5811,207.1998],[23.978,52.5866,188.7499],[23.9725,52.5941,173.7602],[23.9349,52.6046,187.3029],[23.9253,52.6092,177.6626],[23.9247,52.6143,182.7061],[23.9104,52.6212,166.4513],[23.9059,52.6209,163.7688],[23.8875,52.6251,168.7715],[23.8488,52.6154,173.8921],[23.8447,52.6126,174.5886],[23.8061,52.6059,182.8241],[23.7928,52.6081,168.1767],[23.7713,52.6075,172.6917],[23.762,52.6153,169.4614],[23.7663,52.6154,172.0372],[23.7661,52.6181,165.1728],[23.7535,52.6138,157.4952],[23.7507,52.6145,159.1412],[23.7449,52.6121,172.4295],[23.7392,52.612,164.7827],[23.7342,52.6065,149.7992],[23.7331,52.609,158.9047],[23.7186,52.6147,155.8157],[23.6414,52.6075,186.2845],[23.5877,52.5941,179.3633],[23.5402,52.5802,181.8629],[23.4666,52.5494,182.5856],[23.4579,52.5404,190.6577],[23.4358,52.53,186.8527],[23.4081,52.5115,183.6766],[23.3567,52.4689,178.1779],[23.3122,52.425,153.2836],[23.3103,52.414,159.21],[23.2999,52.4038,163.2041],[23.278,52.3928,174.1258],[23.2413,52.3574,168.1102],[23.2156,52.3297,174.2615],[23.1783,52.2831,122.0767],[23.1978,52.2791,123.0233],[23.2044,52.2757,123.094],[23.1997,52.2678,125.049],[23.2056,52.2572,123.9127],[23.2016,52.2498,122.8993],[23.1979,52.2472,121.8882],[23.1941,52.2395,123.019],[23.2005,52.229,124.4576],[23.2037,52.2266,122.5658],[23.219,52.2252,123.2898],[23.2362,52.2202,123.8439],[23.2523,52.2187,124.6871],[23.2675,52.2149,127.8877],[23.2906,52.2159,135.2548],[23.3068,52.2208,125.9825],[23.3073,52.2174,122.7375],[23.3051,52.215,123.4633],[23.2992,52.2136,125.2306],[23.2991,52.2117,124.6268],[23.3147,52.208,125.0668],[23.3292,52.2097,126.0922],[23.3377,52.2062,124.4226],[23.3447,52.2099,125.3995],[23.3525,52.2107,123.7221],[23.3548,52.2091,124.1498],[23.3517,52.2057,125.1552],[23.3531,52.2044,124.2614],[23.366,52.208,123.2942],[23.3705,52.2048,123.9915],[23.3712,52.1965,126.7743],[23.3768,52.1949,125.1925],[23.3873,52.1971,126.3018],[23.3979,52.1966,134.4695],[23.4019,52.1995,129.6706],[23.4016,52.2022,128.6402],[23.4104,52.2026,129.8815],[23.4107,52.1999,133.7491],[23.4147,52.2028,129.0269],[23.4185,52.2084,128.436],[23.42,52.2357,155.3511],[23.4141,52.249,159.571],[23.4039,52.2621,156.3091],[23.4036,52.2648,153.8421],[23.4077,52.2677,155.3982],[23.4124,52.2651,152.5178],[23.4165,52.268,159.819],[23.4157,52.2761,164.7306],[23.4019,52.281,156.9928],[23.397,52.2862,164.9033],[23.3967,52.2889,172.978],[23.4102,52.2867,171.4939],[23.4185,52.2924,172.1075],[23.4229,52.2926,179.5406],[23.4275,52.29,172.1729],[23.4498,52.2881,171.0066],[23.4576,52.2992,169.5866],[23.448,52.3069,180.9078],[23.4475,52.3123,172.016],[23.4563,52.3126,159.4624],[23.4609,52.3101,161.2114],[23.4692,52.3158,161.5964],[23.4824,52.3162,164.8071],[23.4946,52.3274,197.0761],[23.499,52.3276,192.5675],[23.5037,52.325,195.9899],[23.5045,52.317,170.3925],[23.5089,52.3171,174.7212],[23.5135,52.3146,176.155],[23.5138,52.3119,175.0246],[23.5275,52.307,166.8812],[23.5363,52.3073,174.186],[23.5443,52.3106,166.187],[23.5474,52.3216,162.5472],[23.5513,52.3246,160.6804],[23.5554,52.3249,159.6535],[23.59,52.3089,153.0241],[23.5861,52.3059,154.605],[23.582,52.3056,156.7364],[23.5733,52.3102,162.1908],[23.5651,52.3096,167.3357],[23.5665,52.2936,157.5237],[23.5709,52.2913,154.0212],[23.575,52.2916,153.4891],[23.5946,52.3039,149.9262],[23.6311,52.3148,145.2615],[23.6406,52.3023,155.765],[23.6328,52.2964,138.1647],[23.6293,52.2881,135.5013],[23.63,52.2802,134.741],[23.6344,52.2779,136.9577],[23.6428,52.2786,142.119],[23.6507,52.2845,143.6595],[23.6631,52.2881,153.4908],[23.6759,52.289,143.2191],[23.6757,52.2916,143.2294],[23.684,52.2948,143.8583],[23.6932,52.2901,144.2883],[23.6894,52.2845,158.4622],[23.6899,52.2793,157.5049],[23.7029,52.28,156.5085],[23.7075,52.2777,156.3155],[23.7081,52.2724,157.847],[23.704,52.2695,159.4102],[23.7086,52.2671,159.4065],[23.7173,52.2676,153.9122],[23.7264,52.2655,154.2868],[23.7313,52.2606,144.4287],[23.7274,52.255,142.3111],[23.7318,52.2553,142.8458],[23.7365,52.2529,142.1568],[23.7586,52.2543,141.7448],[23.768,52.2496,146.5949],[23.7773,52.2475,150.0019],[23.7815,52.2504,150.7144],[23.804,52.2516,158.7913],[23.8178,52.2497,163.5289],[23.822,52.2526,179.9032],[23.8266,52.2528,176.9066],[23.8317,52.2478,172.1688],[23.832,52.2451,177.2788],[23.8408,52.2483,168.2957],[23.8492,52.254,161.9521]]]]}
,"properties": {"GID_2": "BLR.1.8_1","GID_0": "BLR","country": "Belarus","GID_1": "BLR.1_1","province": "Brest","NL_NAME_1": "Брэсцкая","county": "Kamyanyets","VARNAME_2": "Kamenets","NL_NAME_2": "Камянецкіраён","TYPE_2": "Raion","ENGTYPE_2": "District","CC_2": "NA","HASC_2": "BY.BR.KN","name": "Kamyanyets.county","area_km2": 1709.335,"hist_schema_id": "Elevation0-9000","hist_area_km2": {"125": 35.179,"150": 842.905,"175": 710.744,"200": 119.876,"225": 0.631}}}