{"type": "Feature","bbox": [30.3319,54.7667,31.0254,55.2729],"geometry": {"type": "MultiPolygon","coordinates": [[[[30.6831,54.795,171.4748],[30.7072,54.7996,185.0676],[30.7268,54.8072,186.2291],[30.7606,54.8118,203.2619],[30.7998,54.8725,203.6908],[30.8036,54.8735,215.3593],[30.8037,54.8749,215.4101],[30.8087,54.8777,214.8475],[30.825,54.8786,216.0478],[30.8297,54.8873,221.6588],[30.8285,54.889,223.4021],[30.8292,54.8977,226.4333],[30.8379,54.9026,224.4766],[30.8408,54.908,217.6046],[30.8394,54.9222,223.5616],[30.8324,54.9353,221.4038],[30.8332,54.944,218.9068],[30.8381,54.9468,216.5587],[30.8384,54.9497,206.5546],[30.8481,54.9523,210.4556],[30.8616,54.9532,210.5978],[30.8984,54.9526,207.519],[30.9438,54.9596,194.9227],[30.9505,54.9647,208.7955],[30.9462,54.9799,207.3403],[30.9564,54.9874,198.0795],[30.9603,54.9936,197.5099],[30.9608,54.9993,192.7464],[30.9593,55.0026,191.5204],[30.9555,55.0051,192.2299],[30.9378,55.012,187.3422],[30.9296,55.017,184.0935],[30.9307,55.0284,184.1623],[30.937,55.03,184.6143],[30.9407,55.034,184.2039],[30.9551,55.0365,185.1813],[30.9879,55.0361,200.1391],[30.9968,55.0332,197.5674],[31.006,55.0332,205.4934],[31.0211,55.0373,195.1997],[31.0254,55.0493,200.975],[31.0223,55.0517,198.5038],[31.0175,55.0524,205.2252],[31.01,55.0659,198.6898],[30.9977,55.08,203.9404],[30.9938,55.0883,205.9541],[30.9974,55.1219,219.7019],[31.0062,55.1298,226.2012],[31.0231,55.1333,219.402],[31.0035,55.1369,230.2245],[30.9894,55.1443,225.7836],[30.9897,55.1482,225.6625],[30.9863,55.1493,230.8442],[30.9849,55.1591,246.219],[30.9915,55.1713,210.3365],[30.987,55.1746,208.0988],[30.9876,55.1825,219.0235],[30.9844,55.1869,220.9539],[30.9321,55.2064,241.7618],[30.928,55.2161,227.5199],[30.9162,55.2293,201.4075],[30.9125,55.245,179.1413],[30.9021,55.2549,167.6198],[30.9027,55.2641,169.0813],[30.888,55.2704,176.4018],[30.8556,55.268,162.8018],[30.8317,55.2639,165.6918],[30.8136,55.2641,168.1429],[30.8095,55.27,168.4757],[30.8006,55.2729,169.4418],[30.7774,55.2697,164.9647],[30.7726,55.2667,162.7112],[30.7616,55.2434,173.6416],[30.7512,55.2316,201.9459],[30.7318,55.2253,205.7999],[30.727,55.2252,211.2852],[30.7225,55.228,202.1015],[30.723,55.2337,189.3155],[30.7182,55.2336,186.2786],[30.703,55.2245,192.9049],[30.6971,55.2128,213.4225],[30.6966,55.207,242.3893],[30.6914,55.204,243.3909],[30.6903,55.1924,239.8433],[30.6992,55.184,233.4203],[30.6989,55.181,213.8135],[30.6885,55.175,238.9281],[30.6837,55.1748,254.8099],[30.6782,55.1689,245.688],[30.6475,55.1565,243.1562],[30.6459,55.142,263.406],[30.6124,55.1499,244.5218],[30.5985,55.1583,248.2213],[30.5948,55.1697,226.4695],[30.5901,55.1725,220.7509],[30.5806,55.1751,213.8204],[30.5707,55.1749,217.4186],[30.5504,55.1689,191.4209],[30.5448,55.1631,207.688],[30.5421,55.1373,237.3824],[30.5508,55.1259,248.7602],[30.5504,55.123,244.2885],[30.5446,55.1144,244.4636],[30.5393,55.1114,246.7587],[30.5298,55.1142,242.7204],[30.5245,55.1113,259.1938],[30.5187,55.1027,247.0195],[30.5184,55.0998,244.7781],[30.4946,55.1055,235.5149],[30.4805,55.1113,243.3324],[30.466,55.1114,244.0012],[30.4658,55.1086,235.0985],[30.4702,55.1029,235.2931],[30.4642,55.0862,227.8664],[30.444,55.0697,220.5017],[30.4196,55.0591,194.3437],[30.4146,55.0536,184.8204],[30.4187,55.0424,177.3313],[30.4135,55.0342,174.6204],[30.3691,55.0019,167.3244],[30.3687,54.9937,158.3887],[30.3778,54.9879,153.0861],[30.3825,54.9878,151.3145],[30.3631,54.9772,154.3954],[30.358,54.9718,153.669],[30.3579,54.9691,157.4129],[30.3808,54.9575,154.0078],[30.3901,54.9545,157.205],[30.39,54.9517,154.4785],[30.3849,54.9463,152.8741],[30.3801,54.9437,167.0417],[30.3372,54.9336,150.5761],[30.332,54.9254,148.2842],[30.3319,54.9227,151.9021],[30.3409,54.9142,149.0514],[30.3501,54.9113,159.3156],[30.3783,54.9106,171.5277],[30.3828,54.9078,164.1982],[30.3825,54.9023,154.0041],[30.4012,54.8991,166.0119],[30.4148,54.8905,171.6164],[30.4288,54.8874,164.5967],[30.4617,54.8865,168.9739],[30.4611,54.8755,178.1781],[30.4504,54.8538,186.2279],[30.4583,54.8261,182.7953],[30.4625,54.8178,188.4294],[30.4718,54.8148,181.9662],[30.4755,54.7982,172.5384],[30.4752,54.7927,177.0226],[30.4699,54.7819,186.7211],[30.4885,54.7786,192.5462],[30.4976,54.7729,203.6553],[30.5255,54.7667,196.8459],[30.5311,54.783,186.6104],[30.5316,54.7912,190.1277],[30.5365,54.7938,197.9264],[30.541,54.791,199.438],[30.5452,54.7826,191.5374],[30.5543,54.7769,176.6374],[30.5592,54.7795,186.4817],[30.5597,54.7877,185.6528],[30.5644,54.7876,190.0669],[30.5874,54.7787,179.2997],[30.6108,54.7753,177.5057],[30.6831,54.795,171.4748]]]]}
,"properties": {"GID_2": "BLR.6.10_1","GID_0": "BLR","country": "Belarus","GID_1": "BLR.6_1","province": "Vitebsk","NL_NAME_1": "Вiцебская","county": "Lyozna","VARNAME_2": "Liozno","NL_NAME_2": "Лёзненскіраён","TYPE_2": "Raion","ENGTYPE_2": "District","CC_2": "NA","HASC_2": "BY.VI.LZ","name": "Lyozna.county","area_km2": 1402.785,"hist_schema_id": "Elevation0-9000","hist_area_km2": {"150": 49.838,"175": 437.026,"200": 495.121,"225": 261.134,"250": 114.562,"275": 41.726,"300": 3.378}}}