{"type": "Feature","bbox": [23.8189,51.5841,24.4749,52.07],"geometry": {"type": "MultiPolygon","coordinates": [[[[23.8372,51.6586,166.8829],[23.8386,51.6586,166.8829],[23.8445,51.6387,169.6432],[23.8579,51.6318,181.2209],[23.8789,51.6397,170.4665],[23.9033,51.6347,167.6481],[23.9451,51.6389,159.1388],[23.9729,51.6268,163.1768],[23.9661,51.6185,171.5035],[23.9673,51.6119,175.229],[23.9531,51.5916,162.0159],[23.9434,51.5893,163.0451],[23.9524,51.5869,165.8032],[23.9679,51.5937,160.5641],[23.9927,51.594,166.2711],[24.0097,51.592,161.4436],[24.0271,51.5841,178.9383],[24.0697,51.5932,176.802],[24.12,51.6211,178.9723],[24.1526,51.651,176.4812],[24.1601,51.6644,175.3436],[24.1594,51.6702,173.3343],[24.1932,51.6884,177.1269],[24.2021,51.6899,176.653],[24.2543,51.7108,160.7706],[24.2633,51.7122,160.473],[24.2806,51.721,160.1053],[24.3135,51.7505,163.3606],[24.3401,51.7605,169.0372],[24.3473,51.7739,169.9615],[24.3554,51.7811,177.348],[24.3543,51.7872,174.0129],[24.3418,51.8043,162.8129],[24.3359,51.8348,153.2791],[24.3425,51.8484,152.5903],[24.357,51.8696,151.3849],[24.3728,51.8847,153.6822],[24.3869,51.9106,150.3413],[24.3946,51.9131,150.4162],[24.3936,51.9203,161.5777],[24.3834,51.9301,150.5712],[24.383,51.9327,150.1176],[24.4131,51.9468,158.7798],[24.417,51.9521,149.0088],[24.4132,51.9858,158.4395],[24.4174,51.9886,147.2762],[24.4218,51.9887,147.5155],[24.4495,51.9815,160.2116],[24.454,51.9815,159.9938],[24.4581,51.9842,145.973],[24.462,51.9895,146.3282],[24.4749,51.995,145.5126],[24.4729,52.0133,145.4212],[24.4637,52.0157,145.4313],[24.4551,52.0129,146.3188],[24.4231,52.0174,145.5945],[24.4234,52.0148,145.8881],[24.4141,52.0171,144.8962],[24.4138,52.0197,145.4284],[24.4042,52.0246,145.3608],[24.3813,52.0264,144.7554],[24.3572,52.0357,145.2917],[24.3472,52.0431,145.0881],[24.3374,52.0478,152.0873],[24.3328,52.0475,151.3786],[24.3279,52.0499,152.1376],[24.3097,52.0488,149.0732],[24.3048,52.0511,144.7536],[24.3228,52.0548,144.6852],[24.327,52.0577,144.2838],[24.3075,52.067,146.9125],[24.2808,52.0602,157.4828],[24.2763,52.0598,151.8008],[24.2666,52.0645,141.9831],[24.253,52.0635,140.7795],[24.2444,52.0601,142.9806],[24.2351,52.062,151.9651],[24.2206,52.0689,145.313],[24.2023,52.07,143.9161],[24.1933,52.0693,159.4304],[24.1813,52.0575,140.6168],[24.1817,52.0548,140.9406],[24.1921,52.0449,141.6282],[24.188,52.0418,148.7275],[24.1791,52.041,150.3094],[24.1661,52.0372,142.6359],[24.1579,52.031,149.1098],[24.1587,52.0256,147.9165],[24.1696,52.013,145.7294],[24.17,52.0103,164.0548],[24.1615,52.0067,150.576],[24.1522,52.0086,144.3568],[24.1465,52.0164,153.5838],[24.1457,52.0218,159.2127],[24.14,52.0295,160.5426],[24.1397,52.0322,153.861],[24.1141,52.0518,155.7791],[24.0966,52.0476,151.6029],[24.097,52.0449,149.9202],[24.1018,52.0426,153.3467],[24.1022,52.0399,161.8405],[24.0896,52.0334,159.4294],[24.09,52.0307,152.6628],[24.0994,52.0287,158.7125],[24.1128,52.0299,161.3181],[24.1136,52.0244,161.0683],[24.1189,52.0194,146.6526],[24.1287,52.0148,159.5923],[24.1246,52.0117,159.9117],[24.1112,52.0105,155.9523],[24.1027,52.007,143.8341],[24.0718,52.0016,155.5182],[24.0413,51.9936,158.737],[24.0247,51.9839,159.1923],[24.0296,51.9815,156.3486],[24.0301,51.9787,144.0391],[24.026,51.9756,147.0849],[23.9936,51.9786,156.8416],[23.9736,51.9883,141.335],[23.9591,51.9928,142.3497],[23.9586,51.9955,141.2523],[23.9627,51.9986,151.6882],[23.9718,51.9993,144.9313],[23.9709,52.0048,147.8523],[23.9659,52.0072,152.3511],[23.9523,52.0062,140.7402],[23.9373,52.0135,139.6891],[23.9282,52.0128,140.6719],[23.9199,52.0068,153.9601],[23.9071,52.0004,161.6865],[23.8796,51.9987,159.5746],[23.8754,51.9957,155.5285],[23.8718,51.9899,155.2505],[23.9036,51.9666,173.6827],[23.9082,51.9669,165.3949],[23.9132,51.9645,172.3838],[23.9091,51.9614,164.5129],[23.9101,51.9558,175.3762],[23.9248,51.9512,157.355],[23.9304,51.9459,159.6328],[23.9329,51.9319,156.0143],[23.9436,51.9241,162.1282],[23.9452,51.9156,174.9248],[23.9423,51.9068,176.777],[23.9384,51.9036,174.7998],[23.9293,51.9029,171.5432],[23.9123,51.8958,173.227],[23.9095,51.8868,177.3314],[23.9017,51.8804,170.8501],[23.8699,51.8779,168.6063],[23.8622,51.8712,177.8816],[23.8636,51.8653,166.2719],[23.8483,51.8518,164.0496],[23.8497,51.8459,161.0935],[23.8654,51.8381,156.5154],[23.8668,51.8321,168.615],[23.8727,51.8265,169.215],[23.8825,51.8243,159.8012],[23.9005,51.8259,165.4305],[23.9109,51.8207,160.0873],[23.9168,51.8151,157.7404],[23.9197,51.8032,157.3143],[23.9271,51.7916,157.3884],[23.9286,51.7856,163.4353],[23.927,51.7732,157.8011],[23.9233,51.7698,157.6838],[23.9052,51.7682,157.1657],[23.8954,51.7705,157.5604],[23.8947,51.7735,157.4998],[23.8977,51.7798,157.6657],[23.897,51.7828,157.5727],[23.8865,51.7881,166.909],[23.8889,51.7974,157.2923],[23.8836,51.8,156.4028],[23.8693,51.8019,159.1192],[23.8616,51.7952,174.8499],[23.8566,51.7767,171.1902],[23.841,51.7637,170.6709],[23.8257,51.748,171.3326],[23.8189,51.736,157.2401],[23.8285,51.6957,160.4539],[23.8395,51.6673,173.2074],[23.8372,51.6586,166.8829]]]]}
,"properties": {"GID_2": "BLR.1.12_1","GID_0": "BLR","country": "Belarus","GID_1": "BLR.1_1","province": "Brest","NL_NAME_1": "Брэсцкая","county": "Malaryta","VARNAME_2": "Malorita","NL_NAME_2": "Маларыцкіраён","TYPE_2": "Raion","ENGTYPE_2": "District","CC_2": "NA","HASC_2": "BY.BR.ML","name": "Malaryta.county","area_km2": 1413.649,"hist_schema_id": "Elevation0-9000","hist_area_km2": {"150": 903.366,"175": 509.916,"200": 0.368}}}