{"type": "Feature","bbox": [28.1841,54.546,29.1061,55.1181],"geometry": {"type": "MultiPolygon","coordinates": [[[[28.6381,54.662,200.7216],[28.6288,54.673,180.1215],[28.6241,54.6757,180.086],[28.6242,54.6785,184.7616],[28.6715,54.6809,169.655],[28.6762,54.6781,176.7634],[28.6714,54.6727,212.6566],[28.6713,54.6672,212.9195],[28.6808,54.6672,187.7957],[28.6902,54.6698,175.2094],[28.7044,54.6697,168.3521],[28.7138,54.6669,178.6237],[28.7184,54.6587,182.5543],[28.7183,54.6505,181.711],[28.7229,54.645,165.2585],[28.7371,54.6449,177.5852],[28.756,54.6475,184.6856],[28.7608,54.6502,186.7352],[28.7515,54.6557,165.2816],[28.7515,54.6585,165.5075],[28.761,54.6611,170.7901],[28.7611,54.6666,178.8456],[28.7564,54.6666,175.8021],[28.7565,54.6748,185.2667],[28.766,54.6775,186.5497],[28.7754,54.6774,188.156],[28.7895,54.6718,191.3829],[28.7942,54.6718,190.2852],[28.8133,54.6799,192.097],[28.8275,54.6797,195.2905],[28.8512,54.685,193.7435],[28.8702,54.6903,208.5265],[28.8797,54.6957,234.5093],[28.9133,54.7201,261.3677],[28.9322,54.7199,260.6143],[28.937,54.7226,240.5713],[28.9418,54.7281,230.6032],[28.9561,54.7334,216.1717],[28.9892,54.7331,237.136],[28.9893,54.7359,226.6868],[28.999,54.7467,209.1604],[29.0179,54.7466,194.9717],[29.0227,54.7493,200.622],[29.0227,54.752,200.0193],[29.0276,54.7574,189.9033],[29.0277,54.7602,189.308],[29.0184,54.7685,186.7159],[29.0185,54.7712,203.5588],[29.0328,54.7766,191.0089],[29.0329,54.7821,196.8298],[29.0284,54.7903,194.9119],[29.0285,54.7958,192.4811],[29.0381,54.8012,200.3669],[29.0382,54.8067,200.0933],[29.0242,54.815,197.6489],[29.01,54.8152,197.547],[28.9957,54.8098,212.6168],[28.9815,54.8099,218.1463],[28.9671,54.8046,250.368],[28.9577,54.8046,250.486],[28.9483,54.8102,241.5592],[28.9439,54.824,220.9221],[28.9393,54.8322,221.999],[28.9253,54.8406,211.29],[28.9254,54.8461,240.4164],[28.9398,54.8542,210.1807],[28.94,54.8624,199.2762],[28.9496,54.8678,172.8742],[28.9686,54.8704,171.6154],[28.9687,54.8731,168.6439],[28.9545,54.876,168.7554],[28.9499,54.8788,179.9728],[28.9499,54.8815,170.6676],[28.969,54.8869,163.105],[28.9737,54.8841,171.5405],[28.9833,54.8895,160.4015],[28.9928,54.8894,169.0277],[29.0217,54.9057,144.2969],[29.0266,54.9111,145.2895],[29.0172,54.9167,141.8833],[29.0174,54.9249,157.1461],[29.0224,54.9331,142.0061],[29.0227,54.9469,152.0069],[29.0322,54.9468,147.0425],[29.0321,54.944,141.3036],[29.0369,54.944,140.02],[29.0417,54.9467,141.4084],[29.0418,54.9522,157.3199],[29.0515,54.9576,150.2617],[29.0518,54.9686,162.1884],[29.0566,54.9713,156.9617],[29.0566,54.9741,150.9139],[29.0807,54.9849,141.9492],[29.0951,54.9875,136.4773],[29.0904,54.993,138.3563],[29.0906,54.9985,136.7343],[29.0955,55.004,135.9386],[29.0958,55.0177,139.6025],[29.0865,55.0261,132.3629],[29.0867,55.0316,132.9695],[29.1059,55.0396,128.8797],[29.1061,55.0451,129.4088],[29.092,55.0535,137.1448],[29.0827,55.0618,135.1241],[29.0827,55.0646,130.351],[29.0877,55.0728,130.8891],[29.0926,55.0783,131.1852],[29.0928,55.0838,132.0361],[29.0834,55.0894,131.9236],[29.0835,55.0949,137.0286],[29.0885,55.1031,139.3042],[29.079,55.1059,134.1575],[29.0647,55.106,133.0576],[29.06,55.1088,132.922],[29.0649,55.1143,137.0466],[29.0602,55.1171,134.2208],[29.0554,55.1171,131.3836],[29.0553,55.1116,135.3439],[29.041,55.1117,137.6793],[29.0361,55.109,134.6895],[29.036,55.1035,134.0584],[29.0215,55.0981,132.588],[29.0168,55.0982,146.7844],[29.0074,55.1065,140.7267],[28.9788,55.1067,131.7117],[28.9646,55.1096,131.3252],[28.9457,55.118,140.195],[28.9361,55.1181,134.1602],[28.936,55.1126,137.8196],[28.931,55.1016,141.8148],[28.9212,55.0907,144.7743],[28.9116,55.0852,143.7449],[28.9113,55.0715,137.0202],[28.9065,55.0688,137.0161],[28.8969,55.0688,144.6807],[28.8874,55.0717,147.7903],[28.8731,55.0718,141.1936],[28.8539,55.0609,143.8886],[28.8394,55.0555,144.9244],[28.8251,55.0556,152.7427],[28.8157,55.0612,158.7723],[28.8062,55.0612,159.1181],[28.8013,55.0585,159.5604],[28.8013,55.053,163.7574],[28.8059,55.0475,152.3575],[28.8011,55.042,157.5418],[28.7915,55.0393,154.857],[28.7677,55.0422,160.9308],[28.7629,55.0395,163.5108],[28.7534,55.0423,174.5152],[28.7294,55.0342,185.3979],[28.7101,55.0206,172.5258],[28.7006,55.0207,165.6371],[28.6864,55.0262,171.63],[28.6721,55.0263,162.5],[28.6624,55.0209,190.2932],[28.6195,55.0211,183.255],[28.6148,55.0266,188.6946],[28.6101,55.0294,195.9999],[28.6005,55.0294,193.6158],[28.5909,55.024,179.1412],[28.5814,55.0268,179.8955],[28.5719,55.0268,176.492],[28.5623,55.0241,182.8939],[28.5527,55.0159,176.195],[28.5383,55.0105,175.8687],[28.5001,55.0024,175.8195],[28.4856,54.9888,187.3548],[28.4856,54.9833,185.2333],[28.4713,54.9834,187.7794],[28.4665,54.9861,182.9435],[28.457,54.9862,187.79],[28.4474,54.9807,162.4312],[28.4473,54.967,162.888],[28.4424,54.9588,163.0673],[28.4424,54.956,173.0616],[28.4376,54.9506,170.3857],[28.4374,54.9341,169.5918],[28.4327,54.9369,166.7582],[28.4184,54.9397,159.3284],[28.404,54.9206,182.3349],[28.3944,54.9151,172.6538],[28.3944,54.9096,170.8139],[28.4085,54.8986,171.3259],[28.4322,54.8848,173.7198],[28.4274,54.8794,174.6007],[28.4178,54.8739,169.1985],[28.4082,54.8603,161.0],[28.4082,54.8548,161.0],[28.4176,54.8465,163.1732],[28.427,54.841,180.6893],[28.4317,54.8273,167.7231],[28.4315,54.8164,163.3464],[28.4409,54.8026,181.622],[28.4409,54.7971,172.2716],[28.398,54.7809,168.4065],[28.3837,54.7673,163.9877],[28.3741,54.7646,187.4921],[28.3552,54.7647,165.8372],[28.3504,54.762,167.0274],[28.3362,54.7648,179.5221],[28.3315,54.7676,179.2771],[28.3268,54.7731,187.8609],[28.3743,54.7783,162.9259],[28.379,54.781,161.5205],[28.3791,54.792,165.4168],[28.3839,54.792,161.0],[28.3839,54.7947,161.5004],[28.3792,54.7974,170.7896],[28.3222,54.795,192.6493],[28.2747,54.7952,201.2496],[28.2557,54.798,183.4244],[28.2415,54.798,174.6583],[28.2367,54.7953,174.3835],[28.2367,54.7898,172.7544],[28.2319,54.7817,174.3756],[28.2176,54.7708,163.4933],[28.2176,54.7599,170.4124],[28.2128,54.7544,166.1614],[28.2128,54.7517,163.1061],[28.2175,54.7489,167.5459],[28.2317,54.7461,162.4138],[28.2412,54.7406,165.6927],[28.2412,54.7379,164.3118],[28.2364,54.7324,170.8241],[28.1937,54.719,176.3814],[28.1889,54.7162,166.3618],[28.1841,54.7081,165.8096],[28.1889,54.7053,164.1729],[28.1936,54.6944,172.0082],[28.1983,54.6916,168.3595],[28.203,54.6861,178.3518],[28.2029,54.6698,160.0096],[28.2076,54.6643,164.1183],[28.2171,54.6642,158.3849],[28.2407,54.6478,157.9649],[28.2643,54.6422,160.3413],[28.2738,54.6422,158.7355],[28.2785,54.6394,161.2798],[28.2784,54.6285,159.0984],[28.2737,54.6258,157.3259],[28.2784,54.6203,158.4788],[28.2878,54.6148,159.4517],[28.2877,54.6039,157.9831],[28.2971,54.6011,158.4545],[28.2972,54.6038,157.2189],[28.3066,54.6093,157.7887],[28.3208,54.6092,164.9455],[28.3302,54.6037,160.1506],[28.3255,54.601,159.8305],[28.3255,54.5982,158.8534],[28.3302,54.5928,156.4307],[28.3443,54.5927,162.5166],[28.349,54.5899,160.2621],[28.3585,54.5899,157.9223],[28.3584,54.5844,160.6368],[28.3537,54.5817,160.2023],[28.3631,54.5762,158.7967],[28.3629,54.5544,159.0067],[28.3676,54.5516,158.5099],[28.3959,54.5487,156.4948],[28.4006,54.546,155.7562],[28.4053,54.546,155.61],[28.4148,54.5514,156.8801],[28.4243,54.5541,158.3533],[28.4339,54.5704,163.0636],[28.453,54.5921,162.9585],[28.4578,54.603,162.4815],[28.4628,54.6221,173.0833],[28.4629,54.633,182.6034],[28.4677,54.6466,181.613],[28.4725,54.6521,172.6918],[28.4773,54.6548,172.6874],[28.5671,54.6542,172.0011],[28.6098,54.6622,174.1255],[28.6192,54.6594,176.9787],[28.6287,54.6621,184.5126],[28.6381,54.662,200.7216]]]]}
,"properties": {"GID_2": "BLR.6.9_1","GID_0": "BLR","country": "Belarus","GID_1": "BLR.6_1","province": "Vitebsk","NL_NAME_1": "Вiцебская","county": "Lyepyel","VARNAME_2": "Lepiel","NL_NAME_2": "Лепельскіраён","TYPE_2": "Raion","ENGTYPE_2": "District","CC_2": "NA","HASC_2": "BY.VI.LP","name": "Lyepyel.county","area_km2": 1872.879,"hist_schema_id": "Elevation0-9000","hist_area_km2": {"125": 71.507,"150": 496.53,"175": 990.682,"200": 205.223,"225": 78.406,"250": 27.535,"275": 2.948,"300": 0.049}}}