{"type":"Feature","properties":{"ISO3166-1-Alpha-3":"BLR","country":"Belarus","fill":"#F0F","id":"2340","name":"Mogilev"},
"geometry":{"type": "Polygon","coordinates": [[[31.15725,54.45166,210.6408],[31.13519,54.45425,220.7243],[31.12604,54.45404,236.7496],[31.11813,54.45239,221.5594],[31.09596,54.44143,197.392],[31.08878,54.43957,216.8342],[31.0632,54.43508,222.677],[31.05483,54.43275,223.4964],[31.04956,54.43001,220.5134],[31.04863,54.42691,221.1881],[31.04971,54.42386,222.5347],[31.05359,54.41751,222.6891],[31.05514,54.4142,227.0475],[31.05576,54.41076,223.421],[31.05591,54.40735,227.9746],[31.05281,54.40459,219.8699],[31.04785,54.40311,220.9355],[31.03809,54.40443,231.968],[31.03173,54.40629,243.9846],[31.02207,54.41084,237.9328],[31.00207,54.41776,222.3332],[30.96713,54.42422,221.5868],[30.94093,54.43376,215.8087],[30.93504,54.43502,221.0696],[30.92636,54.43477,216.5705],[30.91577,54.4327,215.5475],[30.90507,54.42748,214.0084],[30.90197,54.42345,215.4672],[30.90166,54.41957,218.5581],[30.90321,54.41632,217.1953],[30.90429,54.41316,212.6795],[30.90367,54.41014,218.0509],[30.90119,54.40753,218.4969],[30.89701,54.40559,217.7698],[30.89174,54.40428,213.1008],[30.87081,54.40273,209.5144],[30.80358,54.40373,209.991],[30.7533,54.40924,227.5083],[30.71438,54.42086,208.0357],[30.70803,54.4219,207.8708],[30.69852,54.42117,201.2495],[30.68782,54.41916,202.7122],[30.66984,54.41337,197.5024],[30.66302,54.41017,196.5753],[30.65914,54.40606,200.3684],[30.65713,54.39862,199.6465],[30.65387,54.39552,199.3215],[30.64891,54.39306,197.1946],[30.60514,54.38477,197.6244],[30.59537,54.382,205.6152],[30.58917,54.37883,203.6307],[30.587,54.37544,203.5103],[30.58648,54.37177,200.4315],[30.58824,54.36867,200.3007],[30.59165,54.36609,198.9655],[30.61227,54.35459,195.0599],[30.61475,54.3518,194.9504],[30.61522,54.34865,197.3717],[30.61305,54.3457,198.1176],[30.60979,54.34309,193.1361],[30.59646,54.3371,190.2565],[30.59289,54.33446,192.6553],[30.58995,54.33136,190.7616],[30.58762,54.3278,189.3616],[30.58183,54.31581,191.2982],[30.57935,54.31234,196.3304],[30.57625,54.3093,198.1762],[30.56866,54.30444,217.0896],[30.56028,54.30012,217.157],[30.55563,54.29826,219.5853],[30.52489,54.28945,192.596],[30.51776,54.28862,215.0144],[30.50876,54.28868,197.3245],[30.49373,54.29085,206.5272],[30.479,54.29534,211.3853],[30.46174,54.30408,209.2108],[30.4481,54.31291,213.0256],[30.44639,54.31451,209.5268],[30.43027,54.33477,213.1183],[30.425,54.34043,211.9312],[30.42112,54.34276,209.6133],[30.41657,54.34477,208.9243],[30.41068,54.34547,206.2893],[30.40464,54.34433,205.2404],[30.39921,54.34004,218.3672],[30.39797,54.33617,220.2561],[30.39704,54.32873,205.7891],[30.39487,54.32562,203.6992],[30.39177,54.32289,201.0635],[30.38789,54.32048,202.2508],[30.36045,54.30948,193.7237],[30.33994,54.30397,200.8426],[30.32273,54.30338,185.8707],[30.26578,54.31103,162.8424],[30.2616,54.31234,180.529],[30.25803,54.31444,170.074],[30.2557,54.3172,175.5673],[30.25446,54.3202,181.4508],[30.25601,54.3232,185.3366],[30.25911,54.32588,184.331],[30.28438,54.344,171.1328],[30.29043,54.35004,179.9546],[30.2957,54.35691,182.287],[30.29803,54.36051,178.1959],[30.30847,54.37384,170.2774],[30.30986,54.37689,166.2302],[30.30661,54.37849,179.2941],[30.29958,54.37774,187.0087],[30.25136,54.35792,208.3757],[30.24356,54.35658,207.2802],[30.23348,54.3557,197.3296],[30.21472,54.35614,189.6929],[30.19085,54.35924,206.2333],[30.1863,54.35813,204.3725],[30.18367,54.35317,201.1321],[30.1815,54.34413,201.3055],[30.17964,54.34035,211.4328],[30.17623,54.33767,202.6529],[30.17095,54.33632,201.2204],[30.16475,54.33612,200.3629],[30.15654,54.33834,204.3732],[30.14398,54.34617,199.8066],[30.10781,54.3588,200.3401],[30.10564,54.36123,205.2319],[30.10688,54.36392,210.6572],[30.11463,54.36774,235.9709],[30.1168,54.37022,230.2745],[30.11571,54.37293,197.8667],[30.11168,54.37487,214.3993],[30.10595,54.37635,213.7264],[30.09866,54.37616,214.5461],[30.09215,54.37441,213.4132],[30.08548,54.36937,219.5091],[30.08202,54.36542,206.5008],[30.08037,54.36211,211.5113],[30.07923,54.35921,208.9915],[30.07737,54.35586,207.3965],[30.07179,54.34958,234.0859],[30.06435,54.34462,232.3932],[30.03055,54.33239,208.2182],[30.0259,54.32847,211.2919],[30.02414,54.32459,212.7407],[30.02745,54.31002,204.2292],[30.02884,54.30661,203.9957],[30.03288,54.30036,199.6916],[30.03551,54.29751,210.0882],[30.03784,54.29449,205.6329],[30.0397,54.29131,212.9618],[30.04063,54.2878,235.9791],[30.04078,54.28403,231.401],[30.03923,54.28025,221.423],[30.03691,54.27684,241.9019],[30.03381,54.27395,241.4187],[30.02476,54.27193,236.1884],[30.01112,54.27103,217.1626],[29.98197,54.27198,205.5764],[29.96988,54.27416,230.2938],[29.9643,54.27757,227.1868],[29.96595,54.2848,211.9383],[29.9644,54.2879,203.99],[29.9565,54.28984,207.4824],[29.91759,54.2909,201.3073],[29.90575,54.2924,202.1474],[29.89862,54.29452,197.5562],[29.898,54.29767,194.7776],[29.90064,54.30377,200.5066],[29.89971,54.30666,197.1738],[29.89645,54.30919,199.0381],[29.88343,54.3155,197.9462],[29.88079,54.31816,198.1786],[29.88033,54.32123,198.6574],[29.88219,54.32826,206.6827],[29.88095,54.33141,206.1115],[29.87785,54.33405,203.1012],[29.87257,54.33581,202.8174],[29.83423,54.34307,214.2724],[29.82772,54.34291,217.7133],[29.82152,54.34123,200.7162],[29.81594,54.33663,227.8182],[29.81501,54.33276,219.6259],[29.8178,54.33002,205.0636],[29.83175,54.32413,191.3512],[29.83454,54.32206,195.0786],[29.83346,54.31963,193.9086],[29.83036,54.3173,192.4935],[29.82601,54.31524,190.2364],[29.80245,54.31079,209.8778],[29.7132,54.30247,189.1135],[29.69848,54.30338,208.112],[29.66928,54.29963,213.5822],[29.65517,54.30072,205.649],[29.59683,54.31568,217.0849],[29.58303,54.31741,228.2061],[29.56934,54.3173,227.8869],[29.56221,54.31529,205.8014],[29.55507,54.31136,208.745],[29.54624,54.30154,201.7003],[29.53957,54.29015,200.1559],[29.53523,54.28658,208.5455],[29.50758,54.28175,193.8417],[29.48945,54.2802,197.0104],[29.48402,54.27834,200.0769],[29.47952,54.27534,200.1511],[29.4696,54.25935,198.0287],[29.46676,54.25607,215.0115],[29.45405,54.24785,207.4819],[29.41452,54.23126,196.5228],[29.41684,54.22217,194.9347],[29.41948,54.21969,195.3551],[29.42459,54.21731,193.9646],[29.44459,54.2139,197.2672],[29.44955,54.21204,189.441],[29.45172,54.20899,192.4417],[29.45203,54.197,200.4083],[29.45343,54.19354,208.7287],[29.45637,54.19085,204.7579],[29.46056,54.18871,198.3675],[29.46273,54.18605,197.493],[29.46139,54.18274,196.5285],[29.45436,54.17858,191.9957],[29.43343,54.17096,205.7433],[29.42955,54.16874,191.5675],[29.42769,54.16558,191.4048],[29.42971,54.14856,186.4089],[29.42893,54.11179,178.3708],[29.42769,54.10778,182.8507],[29.42506,54.10435,193.9819],[29.41839,54.10187,179.0338],[29.41188,54.10078,180.5596],[29.4063,54.09918,178.8842],[29.40284,54.09657,181.3391],[29.40113,54.093,180.5654],[29.40268,54.08828,201.0849],[29.40599,54.08523,201.276],[29.4142,54.08037,194.9659],[29.41715,54.07753,209.3505],[29.41932,54.07448,204.684],[29.42087,54.07112,201.4866],[29.42196,54.06755,198.7505],[29.42242,54.06383,185.449],[29.42134,54.05949,185.4829],[29.41824,54.05489,185.411],[29.41012,54.04859,184.9662],[29.39121,54.03763,185.0031],[29.38129,54.02931,187.9892],[29.37323,54.02492,184.9869],[29.3585,54.02019,184.0022],[29.35442,54.01794,183.5811],[29.35069,54.01492,184.9273],[29.34077,54.00316,189.2105],[29.33907,53.99991,193.5573],[29.33845,53.99683,187.4014],[29.33798,53.98993,182.9863],[29.34,53.98585,184.8092],[29.34279,53.98229,184.2726],[29.34914,53.97694,198.4079],[29.35648,53.96808,187.2764],[29.35943,53.96136,186.6136],[29.36113,53.95392,191.5584],[29.36129,53.92978,184.9957],[29.35958,53.9149,193.2781],[29.35989,53.91283,199.862],[29.36113,53.91071,194.64],[29.36346,53.90831,181.069],[29.36516,53.90534,179.2221],[29.36423,53.90159,174.5573],[29.35741,53.89539,194.1021],[29.35431,53.89087,191.8763],[29.35586,53.88495,194.8093],[29.36036,53.88198,188.2921],[29.38284,53.87519,186.5367],[29.38516,53.87242,188.3719],[29.38346,53.8687,196.5076],[29.37028,53.85927,178.5236],[29.36113,53.85408,179.849],[29.35819,53.85144,189.9313],[29.35741,53.84855,204.015],[29.36113,53.84503,175.4187],[29.36609,53.84441,175.5734],[29.37137,53.84503,173.4835],[29.39059,53.85144,175.5959],[29.39524,53.85211,179.4947],[29.39943,53.85124,188.4873],[29.40113,53.84834,201.553],[29.4016,53.84462,186.6861],[29.39989,53.84038,186.2914],[29.39617,53.83643,185.4888],[29.38795,53.83253,195.5458],[29.36594,53.82555,193.6312],[29.36206,53.82385,203.0164],[29.3602,53.82199,188.5374],[29.36315,53.82023,184.6917],[29.36888,53.8192,182.2962],[29.38873,53.81842,175.0596],[29.39446,53.81713,180.9003],[29.39881,53.81511,181.7227],[29.40568,53.81005,179.5302],[29.40971,53.80809,177.3659],[29.4156,53.80736,190.0316],[29.43219,53.80969,194.6264],[29.43792,53.80982,207.1948],[29.4432,53.80876,194.1401],[29.44769,53.80685,196.1043],[29.45513,53.80199,204.2023],[29.45947,53.80002,211.2838],[29.47782,53.79798,180.5791],[29.48185,53.7962,179.2717],[29.48045,53.79196,176.6179],[29.47611,53.78643,178.699],[29.46459,53.77754,184.6019],[29.45188,53.76959,174.2506],[29.43777,53.76457,192.7345],[29.40609,53.75659,194.9927],[29.40206,53.75434,175.1634],[29.39974,53.75129,180.0951],[29.40067,53.74677,174.557],[29.40361,53.74364,175.358],[29.40857,53.74147,175.7312],[29.41452,53.73998,176.0259],[29.42785,53.73791,177.8958],[29.4325,53.73605,176.9959],[29.43343,53.73315,177.0256],[29.43048,53.72974,176.9442],[29.42258,53.72587,177.0875],[29.40981,53.7223,181.7265],[29.40516,53.71987,189.5429],[29.40144,53.71631,171.5831],[29.39881,53.70959,171.4176],[29.39493,53.7053,170.7318],[29.38811,53.70277,184.6588],[29.38191,53.70313,187.0554],[29.37695,53.70484,182.9543],[29.37338,53.70732,189.7561],[29.36718,53.71295,186.0178],[29.36361,53.71548,188.9948],[29.35927,53.71734,188.1693],[29.35349,53.71817,187.1166],[29.34775,53.71786,187.1542],[29.34232,53.71688,181.2494],[29.33752,53.71522,185.3266],[29.33349,53.713,183.2829],[29.32573,53.70685,183.6948],[29.3138,53.69515,163.3092],[29.30419,53.68768,165.304],[29.28739,53.67941,171.0343],[29.21013,53.65404,166.0191],[29.19866,53.65249,166.399],[29.19215,53.65259,166.8498],[29.17939,53.6545,176.0035],[29.17443,53.65636,168.6501],[29.1704,53.65859,170.0234],[29.16729,53.66132,171.5058],[29.16357,53.6638,172.124],[29.15877,53.66551,166.1774],[29.13954,53.66784,161.8713],[29.12849,53.67055,163.736],[29.1229,53.6714,164.7236],[29.11748,53.67086,164.4096],[29.11252,53.66962,162.414],[29.10353,53.66592,158.095],[29.06456,53.64238,161.5759],[29.06131,53.63913,162.2163],[29.05929,53.63492,163.1529],[29.05976,53.62835,156.9201],[29.06146,53.62404,162.439],[29.07082,53.61135,164.2108],[29.07216,53.60789,163.4464],[29.07299,53.60412,159.4869],[29.07144,53.59957,165.5865],[29.06782,53.59464,165.6736],[29.05898,53.58872,165.3962],[29.05231,53.58588,162.9315],[29.0458,53.58422,164.2168],[28.95578,53.57968,143.5025],[28.95036,53.57854,143.0847],[28.94664,53.57668,143.7383],[28.94757,53.57167,142.6566],[28.94912,53.56789,145.2223],[28.94958,53.56324,142.7923],[28.94927,53.55854,154.2518],[28.94757,53.55262,156.0874],[28.94726,53.54792,158.4588],[28.94757,53.54381,157.6647],[28.95516,53.52666,143.0188],[28.95563,53.52366,142.1586],[28.95501,53.521,143.6351],[28.94912,53.51927,147.5069],[28.94276,53.51865,167.9148],[28.9071,53.51989,168.421],[28.90121,53.52071,174.9697],[28.89713,53.52273,174.7958],[28.89403,53.52539,163.7267],[28.87605,53.54963,171.3568],[28.86349,53.56019,170.3441],[28.86287,53.56363,176.0575],[28.86488,53.56753,176.9907],[28.87031,53.57301,169.1566],[28.87357,53.57745,170.1919],[28.87481,53.58179,174.1609],[28.87434,53.58552,172.2374],[28.87217,53.58846,171.0788],[28.86814,53.58996,179.6302],[28.86302,53.58986,179.2558],[28.85868,53.58836,180.4937],[28.84561,53.57968,172.7791],[28.84111,53.57957,173.5065],[28.83786,53.58141,172.3326],[28.83259,53.58691,169.4865],[28.82577,53.59197,178.8683],[28.82142,53.59404,175.9627],[28.816,53.5957,184.0802],[28.80949,53.59642,194.8779],[28.80313,53.59632,189.9765],[28.79771,53.59528,177.4466],[28.78463,53.58934,173.7355],[28.77952,53.58807,165.7571],[28.77331,53.58743,166.5101],[28.68304,53.59771,168.4568],[28.66035,53.60386,171.3562],[28.64144,53.61143,180.4744],[28.63074,53.61461,180.9661],[28.62392,53.61487,170.0898],[28.61735,53.61383,166.9061],[28.61115,53.61104,180.5033],[28.60697,53.60805,186.4548],[28.60371,53.60487,171.6218],[28.60154,53.60071,168.1309],[28.60077,53.5957,164.4058],[28.6034,53.58753,165.6311],[28.60588,53.58262,169.6421],[28.61053,53.57549,172.1104],[28.61115,53.57146,179.2174],[28.60991,53.5667,168.6697],[28.60542,53.56037,169.9417],[28.60123,53.55665,165.7182],[28.59643,53.5541,163.8505],[28.59131,53.5527,175.0983],[28.55095,53.54676,170.3975],[28.54738,53.54528,171.7436],[28.54707,53.54335,171.5685],[28.55343,53.54138,169.826],[28.568,53.53906,172.1575],[28.57395,53.53761,168.3705],[28.57627,53.53508,169.9041],[28.57534,53.5319,167.1147],[28.56986,53.52903,173.2018],[28.56449,53.52717,168.8452],[28.53142,53.52035,170.6621],[28.52677,53.51867,170.7472],[28.52304,53.51642,169.2721],[28.51607,53.51123,168.3451],[28.51095,53.51017,173.7178],[28.50578,53.51033,176.166],[28.48532,53.51322,181.5911],[28.47168,53.51356,174.8943],[28.45943,53.5125,177.7079],[28.45432,53.5112,176.9629],[28.44977,53.5094,164.322],[28.43442,53.50017,178.9814],[28.42434,53.49188,176.0953],[28.41225,53.48004,161.7402],[28.40233,53.46811,177.6151],[28.40171,53.45245,171.6979],[28.4045,53.43007,164.4824],[28.40264,53.39948,158.7064],[28.40088,53.39338,176.6122],[28.39892,53.38945,181.489],[28.39654,53.38594,172.4565],[28.3936,53.38297,160.782],[28.36678,53.36594,174.4601],[28.36445,53.36307,175.1355],[28.36259,53.35943,179.0393],[28.36181,53.35571,176.8767],[28.3629,53.35186,160.8453],[28.36771,53.34827,161.8843],[28.37329,53.34594,157.5935],[28.42682,53.33297,162.4874],[28.43287,53.33013,168.6192],[28.43845,53.32579,154.0589],[28.44434,53.3168,164.6219],[28.45256,53.30812,165.5982],[28.45442,53.30458,157.5835],[28.45401,53.30042,158.9787],[28.44946,53.29468,158.6723],[28.44434,53.2921,157.5869],[28.43845,53.29042,157.0388],[28.38894,53.28641,169.6596],[28.38383,53.28509,165.9629],[28.37995,53.28285,171.009],[28.37732,53.27959,175.0896],[28.37515,53.27595,167.2386],[28.37282,53.27251,167.304],[28.36957,53.26967,162.5903],[28.36491,53.26807,160.5008],[28.35871,53.26755,159.8646],[28.24265,53.27225,156.8304],[28.23598,53.27153,157.0512],[28.22973,53.27029,157.1072],[28.22461,53.26605,157.3235],[28.21981,53.26548,157.3752],[28.21609,53.26659,157.5067],[28.1902,53.28714,158.7836],[28.18245,53.29181,158.6531],[28.1734,53.29584,173.0659],[28.1579,53.30067,175.1801],[28.15123,53.30129,171.1165],[28.13247,53.30026,176.3488],[28.12131,53.29832,164.9581],[28.09181,53.28918,172.2385],[28.08917,53.28621,174.4374],[28.08901,53.28181,175.576],[28.10452,53.2638,169.5165],[28.10715,53.25946,170.3551],[28.11366,53.24352,158.8584],[28.11759,53.23784,160.9968],[28.12612,53.23458,161.9731],[28.16782,53.22846,168.3076],[28.18911,53.22285,159.7602],[28.19547,53.22016,158.9891],[28.2026,53.21603,160.6743],[28.22167,53.1958,174.6338],[28.22901,53.19283,177.8172],[28.23629,53.19146,177.6861],[28.2721,53.18854,165.1008],[28.28389,53.1858,176.826],[28.31432,53.17546,163.2172],[28.31851,53.175,163.3027],[28.32177,53.17686,166.1862],[28.32425,53.1798,182.8533],[28.33029,53.19102,187.9825],[28.33262,53.19453,166.1693],[28.33572,53.19737,177.1844],[28.3398,53.19952,173.7844],[28.34548,53.19998,160.5473],[28.38057,53.19722,172.405],[28.38832,53.19112,175.4438],[28.39592,53.18042,157.9957],[28.40636,53.15314,164.0509],[28.41396,53.14342,175.5431],[28.4214,53.1382,161.5306],[28.45866,53.14099,161.5149],[28.46858,53.14381,177.6049],[28.48098,53.15004,165.3708],[28.49106,53.15257,163.2654],[28.50909,53.15366,159.826],[28.51514,53.15309,160.2051],[28.52025,53.15154,154.3001],[28.52335,53.14885,152.0055],[28.52335,53.14565,157.7034],[28.5123,53.13714,152.0872],[28.5094,53.13288,151.5861],[28.51126,53.12565,172.1835],[28.51354,53.12105,175.8468],[28.5339,53.08849,152.9454],[28.53467,53.08374,171.4968],[28.53343,53.07728,173.9117],[28.5232,53.05242,154.1542],[28.52227,53.04891,152.6338],[28.52227,53.0441,152.3643],[28.52429,53.03738,152.3037],[28.52615,53.03271,152.3727],[28.52863,53.02906,152.5528],[28.53095,53.02604,153.2276],[28.53638,53.02043,153.5132],[28.53808,53.0178,154.1792],[28.53824,53.01568,153.6854],[28.53328,53.0147,153.6064],[28.50098,53.01718,156.1761],[28.4971,53.01682,156.7523],[28.49338,53.01532,155.5326],[28.49059,53.01248,154.3088],[28.47307,52.98369,186.6577],[28.4647,52.97429,183.0571],[28.45525,52.96584,175.1989],[28.45349,52.96276,177.7928],[28.45401,52.95966,172.8626],[28.4585,52.95641,164.2585],[28.48749,52.94437,164.8979],[28.49106,52.94189,166.0856],[28.49276,52.93822,175.8986],[28.49245,52.93346,168.4424],[28.48858,52.9269,165.1185],[28.48486,52.92287,171.9433],[28.48098,52.91959,171.052],[28.45194,52.90003,143.9421],[28.44667,52.89346,149.8647],[28.44496,52.88954,159.2665],[28.43985,52.87228,146.5363],[28.43814,52.86835,163.1377],[28.43349,52.8614,159.5427],[28.4307,52.8583,158.0269],[28.40931,52.83791,159.0766],[28.292,52.76567,142.9148],[28.29836,52.75978,140.7856],[28.31339,52.75122,139.9007],[28.41148,52.71322,150.4355],[28.4692,52.68012,136.5564],[28.53188,52.68392,144.7861],[28.58092,52.67919,150.2235],[28.58836,52.6795,138.9825],[28.5955,52.68118,147.8244],[28.60309,52.68531,141.3869],[28.6079,52.68867,140.9687],[28.6141,52.69141,162.8788],[28.62144,52.69288,161.4142],[28.63539,52.69239,139.7725],[28.66345,52.68769,142.0842],[28.66996,52.68784,139.9948],[28.67663,52.68932,141.0965],[28.68412,52.69358,143.1657],[28.69203,52.69663,136.6481],[28.70179,52.6989,133.2523],[28.74944,52.69929,131.5395],[28.75719,52.70102,131.9969],[28.76618,52.70624,136.1399],[28.77564,52.71345,133.2108],[28.78138,52.71546,131.4973],[28.78949,52.71637,137.1885],[28.81429,52.7158,152.7614],[28.82297,52.71717,140.5546],[28.83042,52.72154,150.4318],[28.83476,52.72544,148.5609],[28.8377,52.72947,141.7523],[28.8391,52.73322,150.5212],[28.8391,52.73699,148.3855],[28.83739,52.74019,147.5396],[28.83383,52.7427,148.151],[28.82887,52.74456,155.2974],[28.80375,52.74913,154.2706],[28.79895,52.75099,136.7451],[28.79569,52.75298,131.4589],[28.79352,52.755,131.7713],[28.79238,52.75626,131.8257],[28.79228,52.75825,131.8011],[28.79331,52.76081,132.5444],[28.79646,52.76293,132.5379],[28.80112,52.76507,146.1873],[28.8191,52.77117,144.6498],[28.96033,52.79848,141.2253],[28.9656,52.80484,141.2532],[28.96777,52.80851,146.1601],[28.96886,52.81259,143.1732],[28.97025,52.8252,153.0048],[28.9687,52.86551,156.4835],[28.96932,52.86943,159.6704],[28.97397,52.87269,155.5812],[28.98328,52.87419,155.2115],[29.08291,52.87574,149.8424],[29.08942,52.8777,149.9937],[29.095,52.88344,158.9176],[29.09717,52.88817,154.0861],[29.09872,52.89264,149.8015],[29.10244,52.89625,137.3454],[29.10895,52.89899,137.2952],[29.12849,52.90447,143.929],[29.1335,52.90731,144.0972],[29.14652,52.91837,155.4093],[29.17024,52.94245,155.699],[29.17753,52.94744,157.0749],[29.18192,52.94948,150.2102],[29.19076,52.95098,149.3545],[29.20362,52.95165,143.4606],[29.24538,52.94964,149.1066],[29.34341,52.9317,133.5051],[29.34682,52.9299,132.4577],[29.34775,52.92819,133.0178],[29.34728,52.92488,132.7522],[29.3448,52.91708,133.5893],[29.34465,52.91346,132.2724],[29.34759,52.91145,132.2267],[29.35349,52.91088,132.1134],[29.39198,52.92085,150.9022],[29.3971,52.92444,155.6014],[29.39927,52.92835,157.6674],[29.39865,52.93201,159.0481],[29.39586,52.93475,156.127],[29.38811,52.93915,147.2551],[29.38609,52.94163,153.2681],[29.38718,52.94447,154.7625],[29.39028,52.947,146.7127],[29.39632,52.94855,149.4355],[29.40454,52.94902,140.6498],[29.41901,52.94705,141.0058],[29.42661,52.9448,140.9077],[29.43172,52.94209,144.99],[29.44428,52.92752,156.2032],[29.44738,52.92488,159.6334],[29.4525,52.92328,155.6886],[29.45947,52.9232,153.8067],[29.49766,52.93677,146.6635],[29.50557,52.94077,156.7308],[29.5127,52.94865,161.5495],[29.51709,52.95108,159.8563],[29.52267,52.95279,149.106],[29.54376,52.95599,144.4148],[29.65083,52.95511,133.8524],[29.66013,52.95385,133.8991],[29.66695,52.95201,134.5249],[29.67068,52.94969,134.7836],[29.67951,52.9455,134.9956],[29.68463,52.94375,136.6327],[29.69073,52.94248,139.0633],[29.69863,52.94245,136.3874],[29.707,52.94359,137.8363],[29.71801,52.94767,138.4255],[29.7239,52.95119,141.8826],[29.72824,52.95465,146.7829],[29.74002,52.9701,146.9505],[29.74096,52.97222,153.7482],[29.74147,52.97532,149.0253],[29.73956,52.97811,157.2809],[29.73584,52.98044,157.5318],[29.69445,52.99408,143.7139],[29.68618,52.99801,141.4016],[29.68261,53.0002,146.7105],[29.67548,53.00581,143.4151],[29.66788,53.01051,143.1457],[29.63874,53.02152,141.9413],[29.63512,53.02343,143.8966],[29.63533,53.02648,144.8864],[29.63765,53.02911,146.581],[29.65781,53.04565,144.4747],[29.66044,53.04891,142.9009],[29.66246,53.05252,143.5403],[29.66308,53.05637,144.5204],[29.66277,53.06009,145.5795],[29.66199,53.06384,149.4539],[29.6606,53.0672,146.9384],[29.65812,53.07007,145.8984],[29.65424,53.07195,143.2539],[29.64339,53.07361,142.1875],[29.63936,53.07542,141.2376],[29.63688,53.07831,141.587],[29.63068,53.0918,143.4982],[29.62954,53.09516,147.0341],[29.62877,53.09826,147.5486],[29.63016,53.101,146.08],[29.63192,53.10239,147.4722],[29.66246,53.11097,147.6247],[29.66742,53.11479,147.98],[29.66819,53.11818,149.0922],[29.66509,53.12079,146.3498],[29.65362,53.12709,147.3515],[29.65316,53.12932,146.7422],[29.66277,53.1304,150.0125],[29.74876,53.12531,146.4375],[29.75418,53.12839,143.89],[29.75759,53.13154,145.1545],[29.75961,53.13466,145.5393],[29.75853,53.13745,146.8804],[29.7548,53.13962,159.3608],[29.73832,53.14456,146.249],[29.73444,53.14683,146.0732],[29.73196,53.14952,149.3479],[29.73429,53.15314,150.2379],[29.74018,53.15673,147.1799],[29.7531,53.16182,147.2815],[29.75853,53.16639,146.9943],[29.76178,53.17112,144.9739],[29.76535,53.1874,147.3497],[29.7638,53.1905,147.2346],[29.76101,53.19332,146.1756],[29.74519,53.20239,148.4205],[29.74178,53.20484,150.2774],[29.73987,53.2074,150.5127],[29.74426,53.20934,147.4306],[29.75356,53.20962,144.118],[29.77387,53.20709,142.5435],[29.78472,53.20699,143.0759],[29.79217,53.20978,143.8791],[29.79325,53.21324,142.6708],[29.79263,53.21698,143.4728],[29.78953,53.22368,144.192],[29.77217,53.24802,145.3421],[29.76845,53.25445,146.1935],[29.76302,53.26817,148.0603],[29.75573,53.28106,149.0573],[29.75418,53.2844,152.5743],[29.75201,53.29148,156.4769],[29.75108,53.29912,149.3651],[29.75139,53.30318,150.6894],[29.75372,53.31625,165.301],[29.75527,53.32031,162.6888],[29.75759,53.32377,170.0946],[29.76085,53.32662,166.707],[29.77651,53.33561,167.0263],[29.78876,53.34755,160.2615],[29.79248,53.34992,161.0895],[29.79666,53.35186,160.7146],[29.80162,53.35338,163.0532],[29.80896,53.35364,145.5057],[29.81811,53.35248,145.7643],[29.83377,53.34703,168.1254],[29.84121,53.34315,170.3827],[29.84973,53.33705,150.9726],[29.85423,53.33538,150.3681],[29.85971,53.33504,156.6727],[29.86622,53.33705,152.2504],[29.87552,53.3415,149.8575],[29.88126,53.34217,150.5166],[29.88808,53.34083,147.9211],[29.8966,53.33561,160.1973],[29.89893,53.3315,164.2999],[29.89862,53.32762,175.0109],[29.90219,53.32491,166.224],[29.91076,53.323,153.9346],[29.93448,53.32341,144.7859],[29.94518,53.32543,133.8937],[29.95293,53.32801,133.3411],[29.95634,53.33075,133.2403],[29.96771,53.33793,156.7749],[29.97205,53.3399,145.7337],[29.98213,53.34258,140.3955],[29.98864,53.34243,168.2975],[29.99593,53.34067,158.1419],[30.00507,53.33545,171.9304],[30.01391,53.32817,163.6349],[30.02197,53.32501,162.5138],[30.06156,53.31638,166.1476],[30.07303,53.31264,166.9551],[30.07954,53.30884,169.7146],[30.08037,53.30109,160.9986],[30.08109,53.29742,167.2679],[30.08378,53.29468,160.3441],[30.09137,53.29297,157.9854],[30.12408,53.29163,172.381],[30.13618,53.28998,152.693],[30.14615,53.28559,148.4168],[30.15003,53.28192,147.5297],[30.15452,53.27509,149.6668],[30.16909,53.24523,164.3453],[30.17344,53.23923,163.1843],[30.17995,53.2367,162.4979],[30.19023,53.23474,158.7643],[30.23813,53.23499,145.279],[30.24852,53.2353,131.0],[30.25679,53.24476,132.8096],[30.27214,53.24786,132.57],[30.3094,53.24833,132.7574],[30.3605,53.26148,133.0109],[30.3789,53.26197,133.733],[30.37518,53.27029,150.0713],[30.37332,53.27843,144.4942],[30.37208,53.29122,148.223],[30.37895,53.29303,134.5975],[30.39254,53.29432,133.6759],[30.39688,53.29628,138.1625],[30.40029,53.29892,158.7036],[30.40293,53.30225,159.8373],[30.4051,53.30605,165.8089],[30.40789,53.30899,165.3202],[30.41161,53.31091,167.2005],[30.41833,53.31116,168.7226],[30.44453,53.30969,166.2289],[30.4543,53.31003,154.1901],[30.46158,53.31132,154.5967],[30.47094,53.31489,153.9873],[30.48101,53.31737,149.0291],[30.48783,53.31788,149.6263],[30.59615,53.30042,158.4799],[30.61227,53.29321,156.6481],[30.61909,53.28496,155.0933],[30.62684,53.28199,157.6309],[30.63961,53.27936,152.2968],[30.66767,53.2761,151.2878],[30.69139,53.27587,156.7823],[30.69656,53.27727,155.0724],[30.7009,53.27918,153.4476],[30.70415,53.28199,156.0484],[30.70849,53.28949,149.2744],[30.71159,53.29277,158.1829],[30.71547,53.29525,157.642],[30.72012,53.29706,153.1907],[30.72741,53.29659,151.8616],[30.73702,53.29411,153.3408],[30.75268,53.28778,148.4045],[30.76358,53.28525,168.6483],[30.77598,53.28546,156.2483],[30.78978,53.28776,135.4344],[30.86316,53.27998,159.0109],[30.87282,53.28052,158.821],[30.87515,53.28341,158.2901],[30.87639,53.2907,153.1754],[30.87778,53.29447,170.0903],[30.87996,53.29814,158.3118],[30.88275,53.3014,154.7375],[30.886,53.30419,156.7313],[30.89003,53.30641,161.7878],[30.89484,53.30786,165.27],[30.90042,53.30874,159.9489],[30.90678,53.30899,157.2819],[30.99075,53.30352,154.8182],[30.99478,53.30272,154.6561],[30.99757,53.30101,152.1401],[30.9999,53.29693,142.3645],[31.00114,53.29365,164.0574],[31.00377,53.2814,128.6683],[31.00532,53.27812,128.9365],[31.00904,53.27437,127.989],[31.02284,53.26318,147.2981],[31.02517,53.25807,160.6599],[31.02625,53.25365,141.9724],[31.02594,53.25008,160.8843],[31.02625,53.24641,151.9679],[31.02687,53.24285,149.6641],[31.02796,53.23949,152.8288],[31.02997,53.23672,163.5128],[31.03462,53.23406,164.8421],[31.04196,53.232,156.2489],[31.05622,53.22998,172.9516],[31.06444,53.22753,173.1358],[31.06971,53.22319,177.7689],[31.07157,53.21931,165.1021],[31.07684,53.21476,170.5359],[31.08444,53.20993,170.4433],[31.1017,53.20202,169.7082],[31.10604,53.19727,173.1145],[31.10697,53.19314,156.8405],[31.10464,53.18962,168.3706],[31.10294,53.1859,160.9984],[31.10247,53.18197,156.8039],[31.10278,53.17825,159.3931],[31.10387,53.17469,160.6356],[31.10542,53.17138,159.1147],[31.10728,53.16823,157.0981],[31.10899,53.165,167.827],[31.10945,53.16166,167.5125],[31.10821,53.1582,173.1524],[31.10573,53.15505,171.3576],[31.10247,53.15226,175.205],[31.09085,53.14554,176.2876],[31.08806,53.14275,161.5911],[31.08713,53.13994,173.3755],[31.08847,53.13702,165.8746],[31.09126,53.13443,158.4867],[31.09488,53.13203,156.8714],[31.10123,53.1303,163.8939],[31.1093,53.12957,171.6226],[31.15214,53.13634,179.6838],[31.1588,53.13619,176.9218],[31.16593,53.13505,176.9561],[31.17461,53.13149,165.0892],[31.17927,53.12826,161.8843],[31.1881,53.11945,170.0329],[31.19446,53.11417,180.0922],[31.20567,53.10699,165.9236],[31.2097,53.10557,171.4251],[31.21404,53.10557,170.6295],[31.21823,53.10929,172.557],[31.22397,53.11673,145.6758],[31.22707,53.1196,146.5163],[31.2311,53.12205,159.8219],[31.23559,53.12384,158.1847],[31.24148,53.12435,156.0679],[31.24784,53.12368,156.2321],[31.25611,53.12012,164.2161],[31.26045,53.11686,156.1308],[31.26681,53.11084,154.4597],[31.27099,53.10875,157.494],[31.29626,53.1096,158.5986],[31.36142,53.12001,153.2903],[31.36157,53.12004,153.2903],[31.36117,53.12131,163.2373],[31.35993,53.13384,169.8435],[31.37853,53.18203,171.3222],[31.41636,53.19998,158.6854],[31.464,53.19998,168.0963],[31.51206,53.19407,161.1294],[31.53594,53.19487,159.0258],[31.57366,53.20709,147.5131],[31.59361,53.21068,149.2417],[31.61402,53.20975,152.816],[31.67494,53.19523,161.9477],[31.69448,53.1929,147.1092],[31.73856,53.19254,149.4379],[31.75628,53.18657,147.5789],[31.76972,53.16926,155.364],[31.78047,53.12787,150.371],[31.79628,53.11239,141.8227],[31.80682,53.11002,149.9028],[31.84263,53.11219,158.1663],[31.8555,53.11025,161.8232],[31.90718,53.09193,181.9204],[31.93074,53.08834,171.3574],[31.95472,53.08999,150.7461],[31.98056,53.09803,158.9341],[32.00991,53.09996,162.4164],[32.08278,53.08195,170.1919],[32.11729,53.0811,171.9129],[32.12655,53.08423,177.994],[32.15233,53.09635,178.2508],[32.18861,53.09924,180.1349],[32.19739,53.09774,178.8436],[32.20111,53.09756,175.9733],[32.20592,53.10035,179.1504],[32.20701,53.10516,164.5931],[32.20649,53.10986,168.2523],[32.2067,53.11239,168.9464],[32.20907,53.11635,173.4693],[32.21052,53.12177,173.7246],[32.21569,53.12552,177.4824],[32.26798,53.12477,180.483],[32.29517,53.14087,179.6714],[32.32028,53.16278,172.136],[32.35284,53.18045,182.0053],[32.38911,53.18763,175.1758],[32.40555,53.19267,174.2414],[32.42363,53.2044,172.7219],[32.45567,53.23667,183.9417],[32.46921,53.25546,193.8009],[32.47913,53.27491,174.5926],[32.45598,53.27778,173.976],[32.4472,53.28876,158.9683],[32.45485,53.30044,165.7181],[32.48058,53.30517,153.0335],[32.50564,53.29719,171.7634],[32.53732,53.29507,181.1673],[32.56915,53.29884,185.0739],[32.59592,53.30827,167.9681],[32.59189,53.31184,164.5769],[32.58347,53.32122,164.1494],[32.57995,53.32437,170.8138],[32.64987,53.33367,164.8654],[32.66672,53.33135,161.6979],[32.68181,53.3268,171.8813],[32.69793,53.32589,181.4898],[32.71747,53.33494,185.786],[32.70444,53.36641,186.8243],[32.71779,53.43106,168.857],[32.71953,53.43948,172.1896],[32.70124,53.46211,179.9599],[32.68853,53.46222,170.8114],[32.65824,53.45565,168.2152],[32.64677,53.45798,182.3034],[32.64166,53.46899,174.8988],[32.6476,53.47932,172.42],[32.65029,53.48764,171.3755],[32.63571,53.49265,178.5851],[32.61814,53.49426,174.7112],[32.60057,53.49239,172.94],[32.59251,53.48645,173.0881],[32.58429,53.48423,169.1266],[32.5768,53.48604,167.8568],[32.56988,53.49239,169.3346],[32.56988,53.4926,169.3346],[32.55427,53.51079,170.9559],[32.53081,53.52144,173.9987],[32.48058,53.53565,178.6334],[32.45293,53.5464,187.6101],[32.42942,53.56159,181.4033],[32.41149,53.58236,205.2859],[32.4011,53.60986,214.8252],[32.398,53.62743,199.262],[32.39909,53.63538,197.8615],[32.40611,53.63941,215.1633],[32.48058,53.66241,188.7864],[32.48781,53.66965,203.3079],[32.49019,53.67714,186.694],[32.48781,53.68468,184.4202],[32.48058,53.69207,189.1247],[32.46156,53.7068,197.6191],[32.44213,53.71393,197.0306],[32.42157,53.71579,193.4051],[32.3718,53.7144,206.0523],[32.35738,53.71972,207.7953],[32.32581,53.74545,194.0267],[32.29041,53.76085,200.2562],[32.16484,53.78168,178.2348],[32.10603,53.80695,175.8787],[32.0836,53.80964,178.2869],[31.87318,53.77713,147.1232],[31.78729,53.79439,144.4503],[31.74466,53.79486,143.3778],[31.7538,53.81961,157.9142],[31.79256,53.85744,145.793],[31.81013,53.8826,146.5035],[31.82646,53.94017,164.6302],[31.83793,53.96213,160.4682],[31.83928,53.96978,199.6095],[31.83969,53.97722,201.561],[31.84145,53.98456,201.545],[31.84651,53.99231,180.7957],[31.82357,54.04549,205.842],[31.82388,54.05014,202.7472],[31.82264,54.05345,201.122],[31.81385,54.05706,203.1727],[31.80848,54.05598,205.0152],[31.78352,54.0458,197.6643],[31.77127,54.04854,207.1128],[31.76259,54.06032,216.9401],[31.75577,54.07494,214.8534],[31.74812,54.08631,203.1998],[31.73675,54.09417,195.0143],[31.72579,54.09747,214.5426],[31.69784,54.09794,186.9245],[31.66693,54.10187,160.6212],[31.58312,54.12951,206.0045],[31.53087,54.13742,211.7343],[31.50638,54.14393,213.8668],[31.48064,54.15664,207.6341],[31.32468,54.22925,210.1016],[31.3098,54.24434,209.6556],[31.29915,54.27261,193.8544],[31.29202,54.33126,215.4898],[31.28479,54.34738,233.0154],[31.27414,54.35663,217.2614],[31.26174,54.36449,216.2293],[31.24872,54.37679,214.1513],[31.22536,54.42805,240.7962],[31.20903,54.44805,230.9523],[31.17921,54.45311,221.2304],[31.17902,54.45335,221.2304],[31.17306,54.45208,222.7991],[31.15725,54.45166,210.6408]]]}}