{"type": "Feature","id": 112307.0,"bbox": [29.825694206646233,53.436041571087827,29.868662956646233,53.556280828900327],"geometry": {"type": "Polygon","coordinates": [[[29.838633659771233,53.436041571087827,141.5],[29.838633659771233,53.436041571087827,141.5],[29.859141472271233,53.449408270306577,166.4605],[29.856455925396233,53.478277899212827,162.6663],[29.857676628521233,53.499029852337827,141.5],[29.868662956646233,53.517218328900327,154.1187],[29.851084831646233,53.545416571087827,155.9249],[29.834849480083733,53.556280828900327,143.2884],[29.829600456646233,53.527899481244077,141.5],[29.840220573833733,53.512701727337827,154.4888],[29.831553581646233,53.501105047650327,161.9521],[29.825694206646233,53.486578680462827,168.3014],[29.829844597271233,53.468756414837827,141.5],[29.832896355083733,53.451788641400327,152.6028],[29.838633659771233,53.436041571087827,141.5]]]}
,"properties": {"name": null,"lge_id": null,"pfafstette": 9233.0,"lke_type": "N","altitude": 139,"objectid": 63853,"scalerank": 12,"featurecla": "Lake","note": "_untitled_63853","funkyname": 0,"min_zoom": 7.0,"min_label": 8.0,"area_km2": 21.58043,"hist_schema_id": "Elevation0-9000","hist_area_km2": {"150": 18.9821,"175": 2.59832}}}