{"type": "Feature","bbox": [28.0901,52.684,32.7946,54.4752],"geometry": {"type": "MultiPolygon","coordinates": [[[[28.9869,52.8265,150.7626],[29.0009,52.8427,172.6617],[29.0011,52.8536,183.4192],[28.9967,52.8618,172.4841],[29.0014,52.8672,177.4953],[29.015,52.867,187.3593],[29.0516,52.872,162.9676],[29.0698,52.8718,158.1124],[29.0972,52.8769,145.4229],[29.1109,52.8768,142.5893],[29.1106,52.8659,145.1482],[29.1151,52.8631,141.1836],[29.1243,52.8657,140.6661],[29.1336,52.8738,141.9215],[29.152,52.8844,146.6057],[29.143,52.89,154.723],[29.1432,52.8954,140.8773],[29.1523,52.898,143.1185],[29.1524,52.9007,156.6746],[29.1434,52.9036,143.4455],[29.1389,52.9091,152.257],[29.1391,52.9145,156.7191],[29.1438,52.9199,157.9856],[29.1576,52.9279,146.5492],[29.1624,52.936,146.4888],[29.1947,52.9547,150.3593],[29.1903,52.9602,156.8929],[29.195,52.9656,156.9646],[29.1951,52.9683,156.2972],[29.2088,52.9708,164.885],[29.2134,52.9735,155.1097],[29.2091,52.9845,156.5623],[29.2228,52.9843,139.0069],[29.227,52.9706,146.6182],[29.2315,52.9678,163.5849],[29.2406,52.9677,155.3326],[29.2544,52.9703,146.9986],[29.2678,52.9592,148.9185],[29.2858,52.9508,160.343],[29.3132,52.9532,150.8398],[29.3451,52.9527,134.3174],[29.3721,52.9442,134.6817],[29.39,52.9304,145.6661],[29.3993,52.9384,148.1243],[29.4132,52.9464,153.0775],[29.4176,52.9436,153.5849],[29.4174,52.9354,140.3355],[29.4219,52.9326,140.5821],[29.4355,52.9325,157.7943],[29.44,52.9297,155.4866],[29.4443,52.9214,149.0234],[29.4488,52.9214,147.748],[29.481,52.9318,146.6376],[29.5088,52.9505,160.4005],[29.5593,52.9634,139.9295],[29.5637,52.9606,140.0009],[29.5638,52.9634,138.9042],[29.5729,52.9632,138.1954],[29.5819,52.9604,141.5932],[29.5908,52.9548,139.1712],[29.5999,52.9547,137.312],[29.6092,52.96,139.2164],[29.6322,52.9678,137.3881],[29.6501,52.9621,137.7157],[29.6682,52.9591,134.5362],[29.6818,52.9589,141.4962],[29.6862,52.9561,141.4679],[29.6861,52.9534,140.8951],[29.6814,52.948,135.7655],[29.6813,52.9453,135.3878],[29.6949,52.9451,136.9009],[29.7133,52.9502,138.4267],[29.7314,52.95,140.2533],[29.7361,52.9553,144.0369],[29.7318,52.9609,142.5778],[29.732,52.9663,144.2736],[29.7459,52.9743,145.9521],[29.746,52.977,145.6524],[29.7507,52.9797,142.8865],[29.7418,52.9853,143.3113],[29.7327,52.9854,145.9297],[29.7104,52.9967,143.906],[29.6969,52.9996,140.3377],[29.688,53.0052,141.2994],[29.6705,53.0245,144.4027],[29.6988,53.0514,144.0728],[29.6948,53.0678,147.2943],[29.6765,53.0654,147.9645],[29.6629,53.0656,148.7181],[29.6495,53.074,142.1014],[29.6363,53.0878,145.1404],[29.6364,53.0905,144.9589],[29.641,53.0932,148.3122],[29.6547,53.093,149.1602],[29.6688,53.1064,148.5394],[29.6645,53.1119,149.2236],[29.6647,53.1174,148.0746],[29.6602,53.1202,145.342],[29.6603,53.1229,145.4305],[29.6652,53.131,148.4368],[29.6744,53.1336,145.8915],[29.6699,53.1364,146.0509],[29.6746,53.1391,147.3454],[29.7021,53.1441,139.8535],[29.7066,53.1413,141.8433],[29.7064,53.1359,139.9098],[29.7106,53.1276,139.0163],[29.7195,53.122,144.5634],[29.7286,53.1219,138.7797],[29.7424,53.1244,145.6171],[29.7792,53.1348,159.5491],[29.7794,53.1403,163.8488],[29.766,53.1459,148.1297],[29.7661,53.1487,143.6198],[29.7708,53.1513,142.5037],[29.7892,53.1565,145.1256],[29.7893,53.1592,148.0372],[29.7803,53.1621,142.5651],[29.7759,53.1676,144.6401],[29.7761,53.1731,145.972],[29.7537,53.1843,147.6983],[29.7584,53.187,146.8824],[29.786,53.192,146.5514],[29.7863,53.2002,143.4316],[29.7954,53.2001,143.0124],[29.8047,53.2054,144.4695],[29.7961,53.2192,145.6613],[29.7963,53.2247,147.4718],[29.8011,53.23,151.3039],[29.797,53.2438,171.2879],[29.7837,53.2521,163.1993],[29.7793,53.2577,152.8837],[29.775,53.2659,165.7206],[29.7758,53.2878,171.1983],[29.7624,53.2961,164.4474],[29.7626,53.3016,165.5599],[29.7721,53.3097,164.7699],[29.7722,53.3124,164.6158],[29.7905,53.3121,161.202],[29.809,53.3173,167.5348],[29.8092,53.3228,167.7548],[29.8141,53.3309,149.7939],[29.8142,53.3336,151.9373],[29.8559,53.3494,154.5494],[29.8605,53.3493,147.8278],[29.864,53.322,169.8621],[29.8685,53.3192,155.7871],[29.8776,53.319,163.2321],[29.8961,53.3242,168.1823],[29.8962,53.327,175.016],[29.8918,53.3298,173.9432],[29.8919,53.3325,169.8432],[29.9059,53.3405,155.8823],[29.9105,53.3404,151.7493],[29.9104,53.3377,151.8134],[29.9236,53.3265,143.7869],[29.9235,53.3238,142.8967],[29.9187,53.3184,139.1862],[29.905,53.3186,149.075],[29.9049,53.3159,154.7325],[29.9003,53.3132,161.722],[29.9046,53.3077,172.1116],[29.9091,53.3049,163.5681],[29.9228,53.3047,175.3884],[29.9317,53.2991,144.6605],[29.9362,53.299,132.5415],[29.9407,53.2962,132.4842],[29.9499,53.2988,146.5992],[29.9642,53.3123,161.9717],[29.9644,53.3177,163.4562],[29.9693,53.3258,158.7626],[29.974,53.3285,155.1779],[30.0014,53.3281,161.9113],[30.0104,53.3252,165.1025],[30.0327,53.3139,163.2673],[30.0555,53.3136,154.9019],[30.0693,53.3161,155.8959],[30.0965,53.3102,166.7853],[30.1052,53.3018,157.9422],[30.1409,53.2848,147.8717],[30.1497,53.2792,147.1906],[30.1495,53.2737,147.6944],[30.1572,53.2435,167.8916],[30.179,53.224,164.1388],[30.1971,53.2237,158.7688],[30.2018,53.2263,165.7968],[30.2151,53.2206,157.1116],[30.2425,53.2229,131.6343],[30.2518,53.2282,132.659],[30.27,53.2279,132.6183],[30.2887,53.2385,132.7507],[30.3431,53.2374,155.4974],[30.3477,53.2401,133.2559],[30.3435,53.2457,134.7084],[30.3483,53.251,132.9143],[30.3621,53.2535,135.1461],[30.3852,53.2613,132.6472],[30.3938,53.2529,133.3309],[30.4028,53.2527,138.7267],[30.4075,53.2554,142.1325],[30.4125,53.2635,154.5628],[30.4132,53.2772,158.396],[30.4226,53.2825,138.1808],[30.4407,53.2821,165.6728],[30.4811,53.2758,150.2156],[30.4858,53.2785,162.7781],[30.4861,53.2839,165.9821],[30.4908,53.2866,158.6275],[30.5273,53.2913,157.517],[30.5461,53.3046,160.2199],[30.5507,53.3045,168.9155],[30.5549,53.2989,161.7924],[30.5594,53.2988,161.2923],[30.5883,53.3284,157.6457],[30.5935,53.3392,154.8616],[30.5981,53.3418,157.4045],[30.6072,53.3416,155.6634],[30.6161,53.3387,155.7717],[30.6159,53.336,159.6567],[30.6019,53.3281,155.8692],[30.6015,53.3226,157.0308],[30.6059,53.3198,157.7268],[30.6149,53.3196,156.4213],[30.6191,53.314,162.3149],[30.6051,53.3061,162.2852],[30.5959,53.3035,160.3436],[30.591,53.2982,160.561],[30.5909,53.2954,156.2448],[30.6043,53.2924,157.0519],[30.6316,53.2946,158.6506],[30.654,53.2913,154.5361],[30.6858,53.2934,151.8432],[30.6901,53.2905,150.7828],[30.6851,53.2824,150.2908],[30.6804,53.2798,155.6625],[30.6799,53.2716,154.8156],[30.6926,53.2576,159.4601],[30.7013,53.252,153.2323],[30.7242,53.2569,157.6073],[30.7422,53.2565,155.8557],[30.7429,53.2675,158.4376],[30.748,53.2756,158.9571],[30.7795,53.2749,150.5049],[30.7978,53.2772,150.1917],[30.8116,53.2824,148.6054],[30.8567,53.2814,159.1623],[30.8704,53.2838,159.2993],[30.8713,53.2974,155.5304],[30.876,53.3,157.2777],[30.8895,53.2997,156.9858],[30.9169,53.3072,161.5957],[30.9214,53.3071,163.0712],[30.9256,53.3015,164.3431],[30.9299,53.2987,160.9836],[30.9435,53.301,168.4735],[30.9881,53.2996,158.5811],[31.0242,53.3117,128.644],[31.0327,53.3059,135.4408],[31.0362,53.2897,156.498],[31.022,53.2715,153.088],[31.0082,53.2638,147.6001],[31.0079,53.2584,149.7772],[31.0166,53.2555,145.208],[31.0255,53.2552,143.9244],[31.0389,53.2574,173.8507],[31.0432,53.2545,174.4873],[31.0473,53.249,158.7549],[31.0471,53.2463,162.389],[31.0422,53.2384,160.668],[31.0419,53.233,162.2194],[31.0593,53.227,172.2818],[31.0859,53.2286,174.6744],[31.0897,53.2177,179.6157],[31.0847,53.2072,168.752],[31.0889,53.2017,158.2779],[31.1066,53.2036,171.1564],[31.1109,53.2007,161.7263],[31.1062,53.1956,168.0112],[31.1059,53.1902,156.7962],[31.1276,53.1839,174.3399],[31.1361,53.1782,159.2347],[31.1358,53.1729,160.5925],[31.1217,53.1575,170.4289],[31.1254,53.1466,160.4407],[31.1381,53.1354,176.3442],[31.1601,53.1345,167.2658],[31.1823,53.1387,168.4089],[31.1954,53.138,169.7021],[31.2123,53.1291,165.5378],[31.2248,53.1178,145.7118],[31.2376,53.1144,168.4913],[31.3311,53.0997,149.2491],[31.340699999999998,53.0997,166.2268],[31.3537,53.0942,151.3302],[31.3631,53.0942,147.2425],[31.3714,53.0887,147.0673],[31.3901,53.089,139.525],[31.4001,53.0921,138.6833],[31.4011,53.0975,140.7418],[31.4077,53.1085,144.5405],[31.404,53.1138,151.5778],[31.3994,53.1137,172.3126],[31.3952,53.1163,168.9959],[31.3819,53.1188,165.4674],[31.3789,53.1268,161.2349],[31.3896,53.1348,159.7578],[31.4048,53.143,151.5232],[31.4103,53.1483,148.1063],[31.413,53.1615,161.9096],[31.4229,53.167,158.5186],[31.4264,53.1824,164.414],[31.4236,53.1901,158.9062],[31.429,53.1954,166.8368],[31.4462,53.1995,164.8496],[31.4711,53.2017,168.6651],[31.5074,53.1996,160.7808],[31.5239,53.2012,157.9608],[31.5397,53.1974,151.1283],[31.5554,53.1908,167.1267],[31.5678,53.1922,156.1171],[31.5805,53.1964,150.9808],[31.5902,53.2017,152.6946],[31.6059,53.2143,147.4325],[31.616,53.2191,157.8084],[31.6216,53.2269,163.5293],[31.6313,53.2292,169.4645],[31.6316,53.2318,154.9938],[31.641,53.2314,156.1543],[31.6828,53.2183,148.7045],[31.6923,53.2178,153.8545],[31.6921,53.215,151.6854],[31.7299,53.2075,159.9343],[31.7539,53.2063,156.005],[31.7859,53.1881,170.1136],[31.7994,53.1763,161.625],[31.7989,53.1707,151.2672],[31.8023,53.1538,149.848],[31.811,53.1422,156.2868],[31.8105,53.1366,149.6391],[31.8196,53.1306,136.9993],[31.8283,53.119,152.7122],[31.8329,53.116,151.411],[31.8755,53.1086,158.9767],[31.9139,53.1153,161.5953],[31.9137,53.1125,158.7098],[31.9228,53.1065,160.1048],[31.9269,53.0924,174.2177],[31.9313,53.0866,159.5076],[31.9532,53.0853,151.7132],[31.9623,53.0876,153.6149],[31.9886,53.0861,166.7878],[32.0067,53.0909,170.546],[32.0161,53.0961,170.7201],[32.0249,53.0956,163.365],[32.0501,53.0831,178.5246],[32.0674,53.0795,191.0943],[32.0809,53.0818,173.2323],[32.0853,53.0816,170.1919],[32.085,53.0788,170.9734],[32.1203,53.0774,178.825],[32.1474,53.082,195.8929],[32.1522,53.0846,184.843],[32.161,53.0843,193.9897],[32.1701,53.0868,184.9855],[32.1704,53.0896,175.5407],[32.1752,53.0922,176.5789],[32.181,53.1031,179.0344],[32.1857,53.1056,172.7267],[32.1992,53.1079,166.7087],[32.2074,53.105,164.5931],[32.2151,53.0994,174.6157],[32.2273,53.0963,162.9562],[32.2325,53.1016,155.9409],[32.2369,53.1012,154.2766],[32.2368,53.1253,162.7047],[32.2416,53.1277,171.593],[32.2502,53.1274,182.0213],[32.2579,53.1218,178.9119],[32.2752,53.1205,175.124],[32.2929,53.1217,163.614],[32.3067,53.1261,169.1703],[32.3262,53.1359,183.3513],[32.3265,53.1386,180.5825],[32.342,53.1489,171.4935],[32.3475,53.1568,176.5441],[32.3449,53.171,181.3377],[32.355,53.1785,183.1213],[32.3956,53.1849,174.3973],[32.4211,53.184,186.1463],[32.4314,53.1864,184.1385],[32.4472,53.194,186.1388],[32.4914,53.228,165.3889],[32.5117,53.26,180.2525],[32.5283,53.2732,160.004],[32.5298,53.2813,174.5232],[32.5217,53.2867,175.1903],[32.5172,53.2867,180.3609],[32.509,53.2921,178.8475],[32.5093,53.2948,177.7818],[32.5235,53.2974,185.8617],[32.5325,53.2974,173.8453],[32.5411,53.2947,171.5911],[32.5448,53.2893,177.4009],[32.5583,53.2892,180.636],[32.5682,53.2945,178.9103],[32.5772,53.2944,186.4468],[32.59,53.2889,166.1507],[32.599,53.2888,186.2494],[32.6039,53.2915,181.7784],[32.6043,53.2942,171.3184],[32.6096,53.2996,181.6465],[32.6051,53.2996,177.0324],[32.6153,53.3077,185.8771],[32.6248,53.3103,184.7613],[32.6301,53.3157,178.6022],[32.6312,53.3238,184.0398],[32.6227,53.3294,185.0669],[32.623,53.3322,174.8513],[32.6282,53.3376,173.7596],[32.6328,53.3376,179.1966],[32.6688,53.3183,174.6804],[32.6726,53.3184,174.1259],[32.6838,53.3283,175.5157],[32.6879,53.3346,189.3905],[32.6923,53.3374,182.3874],[32.7037,53.3376,186.3107],[32.7136,53.3325,181.5287],[32.713,53.3298,181.557],[32.7323,53.3301,183.3218],[32.7419,53.3327,188.9947],[32.7421,53.3354,184.1414],[32.7473,53.3409,188.6315],[32.748,53.349,180.0855],[32.7399,53.3622,185.2144],[32.7426,53.3729,181.7705],[32.7496,53.3895,175.3589],[32.7583,53.3945,171.6501],[32.7588,53.398,166.0928],[32.7666,53.3979,166.0706],[32.778,53.3949,168.999],[32.7896,53.3949,169.7772],[32.7944,53.3977,168.545],[32.7946,53.4005,169.8952],[32.7861,53.4062,185.6726],[32.7682,53.4093,175.2798],[32.7608,53.4123,176.3008],[32.7576,53.418,169.0729],[32.7588,53.4266,173.4612],[32.763,53.4351,177.6017],[32.7581,53.4464,170.1127],[32.7675,53.4521,175.5376],[32.7682,53.4635,173.5768],[32.7639,53.4664,176.3102],[32.7458,53.4631,175.0365],[32.7403,53.4576,173.0587],[32.7133,53.4602,176.6281],[32.6985,53.4573,174.2129],[32.6685,53.4624,168.2064],[32.6634,53.465,169.0715],[32.6631,53.4705,171.7146],[32.6675,53.4814,169.8971],[32.6672,53.4896,173.5472],[32.6577,53.4951,176.9892],[32.643,53.4978,173.6327],[32.6387,53.4951,173.006],[32.6346,53.4898,173.6826],[32.6351,53.4761,191.6663],[32.6265,53.4681,185.8081],[32.6178,53.4683,172.1004],[32.6092,53.4796,174.2715],[32.6093,53.4907,178.3062],[32.6051,53.4936,174.168],[32.6017,53.505,177.0586],[32.5978,53.508,179.7347],[32.5769,53.5089,184.8038],[32.5608,53.5152,176.6508],[32.5412,53.5302,170.6307],[32.5241,53.5339,170.4734],[32.5205,53.5426,172.7296],[32.4984,53.5522,179.4867],[32.4761,53.5648,183.1748],[32.4626,53.5741,182.1986],[32.4494,53.5863,186.5219],[32.441,53.5981,200.681],[32.4419,53.6066,204.1696],[32.4478,53.6147,200.4845],[32.453,53.6172,201.932],[32.4594,53.631,188.4191],[32.4604,53.6394,205.1507],[32.4557,53.6425,200.4529],[32.456,53.6453,191.6228],[32.4464,53.6486,191.4202],[32.4411,53.6461,206.8284],[32.4453,53.6374,205.6717],[32.445,53.6346,193.3587],[32.4394,53.6293,195.3875],[32.4342,53.6268,195.1344],[32.4248,53.6329,187.2217],[32.4164,53.6501,203.5551],[32.4169,53.6557,195.9352],[32.4489,53.6764,190.7035],[32.4741,53.678,179.2403],[32.4743,53.6808,184.8595],[32.4946,53.688,186.9551],[32.4993,53.6877,177.7529],[32.5042,53.693,183.2757],[32.5092,53.6957,186.5086],[32.4903,53.7124,189.8473],[32.4733,53.7207,183.799],[32.4679,53.735,188.1566],[32.465,53.7379,188.2548],[32.4555,53.7374,189.1932],[32.3868,53.725,199.7488],[32.3714,53.7261,192.7504],[32.3619,53.729,206.1708],[32.3543,53.7413,190.0217],[32.3498,53.7438,203.4005],[32.3415,53.7537,198.9962],[32.3271,53.7568,209.1324],[32.293,53.7554,203.6312],[32.2739,53.753,195.8238],[32.2649,53.7583,196.3898],[32.2947,53.7701,205.4376],[32.295,53.7725,205.1165],[32.2901,53.7727,202.81],[32.2856,53.7753,210.4165],[32.2566,53.7738,199.6119],[32.2371,53.7638,189.855],[32.2231,53.7639,189.0978],[32.2141,53.7692,186.7782],[32.2098,53.7771,187.8075],[32.2193,53.7822,197.7662],[32.2195,53.7848,193.2527],[32.2149,53.7874,176.7368],[32.2151,53.7899,179.7378],[32.1917,53.7903,171.2102],[32.1777,53.7879,178.1217],[32.1638,53.7907,156.396],[32.1456,53.7987,188.8472],[32.132,53.8067,183.2381],[32.1228,53.8095,184.0547],[32.0904,53.8075,180.2668],[32.0762,53.7974,190.8175],[32.0438,53.7955,191.9104],[32.0345,53.7931,197.2271],[31.9978,53.794,183.709],[31.9931,53.7916,167.557],[31.956,53.7822,155.4588],[31.9516,53.7849,149.9612],[31.9331,53.7803,156.9012],[31.9197,53.7885,149.2156],[31.9061,53.789,162.7153],[31.8921,53.7816,148.5361],[31.8421,53.7835,167.948],[31.8199,53.7922,171.5533],[31.8156,53.7976,147.6139],[31.8023,53.8034,145.4226],[31.7933,53.8038,145.577],[31.775,53.7969,144.0787],[31.766,53.7973,144.9081],[31.7662,53.8,145.4582],[31.762,53.8027,144.2729],[31.7667,53.8052,144.3745],[31.7671,53.8104,144.7034],[31.7714,53.8114,144.7178],[31.7717,53.8151,144.371],[31.7548,53.8268,158.9571],[31.7551,53.8294,157.8584],[31.7598,53.8318,145.7354],[31.769,53.831,145.7747],[31.7658,53.8356,146.732],[31.7823,53.838,145.1569],[31.7738,53.8408,148.357],[31.7743,53.846,162.4752],[31.7859,53.8421,146.5003],[31.7932,53.8431,145.3818],[31.7873,53.8495,144.2518],[31.7922,53.857,146.515],[31.7971,53.8591,145.4305],[31.7913,53.8596,146.3428],[31.7838,53.863,155.6868],[31.7921,53.8698,147.0814],[31.8183,53.868,148.9118],[31.8208,53.8749,169.9392],[31.8302,53.8769,176.8327],[31.8302,53.88,176.8625],[31.8348,53.8898,147.6211],[31.8527,53.8991,173.4922],[31.8527,53.9066,166.196],[31.844,53.9218,148.1238],[31.8356,53.9247,168.8373],[31.8318,53.9326,166.7072],[31.8321,53.9377,159.4026],[31.8363,53.9424,151.7068],[31.8446,53.9443,148.184],[31.8706,53.9456,168.6907],[31.875,53.9504,168.5651],[31.875,53.9529,164.0717],[31.8661,53.968,149.0863],[31.8661,53.973,149.7417],[31.8462,53.9821,206.8687],[31.8427,53.9851,202.856],[31.8363,53.9913,195.7365],[31.8372,53.999,163.8394],[31.8409,54.0011,159.3649],[31.8589,54.0037,150.6542],[31.8832,54.0143,174.0002],[31.8715,54.0252,151.752],[31.8687,54.031,157.3165],[31.869,54.0336,156.8],[31.8874,54.0413,152.4302],[31.8835,54.047,153.55],[31.8843,54.0501,153.8686],[31.8709,54.0494,194.4217],[31.8731,54.0537,167.7941],[31.8665,54.0575,203.9339],[31.855,54.0602,168.8711],[31.8546,54.0576,173.2522],[31.8448,54.0619,196.2178],[31.8274,54.0621,209.7667],[31.8243,54.0653,202.4873],[31.8281,54.0674,203.1882],[31.825,54.0706,204.495],[31.8216,54.0712,204.7551],[31.8103,54.0649,202.7282],[31.8031,54.0634,205.5013],[31.7923,54.0624,222.8376],[31.7801,54.0641,221.0828],[31.7685,54.0737,220.2454],[31.7852,54.0905,181.1755],[31.7874,54.1038,217.552],[31.7839,54.107,209.162],[31.7511,54.1083,202.6289],[31.746,54.1063,191.2678],[31.7072,54.1028,193.2269],[31.693,54.1043,176.2421],[31.671,54.1199,156.6118],[31.6668,54.1255,156.2811],[31.6722,54.1302,177.8142],[31.6728,54.1353,181.7852],[31.6638,54.1414,165.3441],[31.6196,54.1354,184.1311],[31.6052,54.1368,201.1206],[31.5729,54.1503,212.0721],[31.5595,54.1595,210.1959],[31.5499,54.1604,206.5473],[31.5454,54.1635,211.4271],[31.5403,54.1613,202.7207],[31.5307,54.1621,193.0999],[31.5167,54.1661,213.0349],[31.517,54.1687,213.3014],[31.5123,54.1691,217.0972],[31.5091,54.1827,203.4493],[31.4817,54.1959,214.4801],[31.4505,54.2174,206.8087],[31.4508,54.2199,205.0114],[31.4415,54.2235,209.6333],[31.4082,54.2267,214.3154],[31.4135,54.2315,215.2654],[31.4138,54.2341,210.9967],[31.4233,54.2331,213.9327],[31.4331,54.2347,207.8286],[31.4334,54.2373,207.9177],[31.4289,54.2403,206.0769],[31.4102,54.2448,205.7134],[31.4016,54.2559,212.0525],[31.3971,54.259,207.6002],[31.3828,54.2605,204.597],[31.3679,54.2544,208.9123],[31.3631,54.2549,209.1568],[31.3586,54.258,206.9652],[31.3443,54.2595,219.5122],[31.3393,54.2573,227.9115],[31.3301,54.2609,206.1786],[31.3212,54.2695,206.8116],[31.3217,54.2792,214.7082],[31.3176,54.2918,208.1247],[31.3279,54.308,210.834],[31.3235,54.3158,206.6858],[31.3238,54.3207,206.9328],[31.3287,54.3251,212.6492],[31.3147,54.3289,209.13],[31.31,54.3293,210.1357],[31.3052,54.3272,214.3638],[31.3008,54.3325,209.4566],[31.301,54.3374,204.1448],[31.3058,54.3395,212.2517],[31.3059,54.3419,214.596],[31.3106,54.3415,211.2666],[31.3251,54.3476,212.9922],[31.3256,54.3574,222.8231],[31.3125,54.3784,236.7269],[31.2986,54.3846,231.1698],[31.2939,54.3849,225.8474],[31.2758,54.3963,237.2314],[31.2759,54.3988,237.0089],[31.2715,54.4041,222.0682],[31.2762,54.4062,232.2462],[31.2765,54.4112,230.7406],[31.2631,54.4246,239.5196],[31.2633,54.4271,242.9522],[31.2589,54.4324,247.7144],[31.2591,54.4374,249.2979],[31.2547,54.4427,239.7845],[31.2412,54.4512,240.5529],[31.2418,54.4637,240.0762],[31.2192,54.4752,219.9278],[31.2144,54.4704,220.0331],[31.2049,54.4658,218.8909],[31.191,54.464,221.5969],[31.1683,54.4725,213.0446],[31.1541,54.4726,211.7179],[31.149,54.4673,217.678],[31.1485,54.4593,214.5591],[31.1435,54.4565,229.1806],[31.124,54.4533,219.1227],[31.0796,54.4395,219.9289],[31.0642,54.4285,226.9174],[31.048,54.4065,223.3718],[31.0379,54.4009,233.8944],[31.0331,54.4008,243.0591],[31.0286,54.4034,240.5155],[31.0205,54.4225,245.6895],[31.0067,54.4278,221.817],[30.9923,54.4251,223.3986],[30.9782,54.4253,222.308],[30.9646,54.4309,218.7668],[30.9507,54.4312,215.0153],[30.9371,54.4342,221.065],[30.9191,54.4428,216.9217],[30.9098,54.443,237.018],[30.9003,54.4405,232.717],[30.9039,54.4241,214.1392],[30.8984,54.4106,217.2405],[30.8839,54.4028,216.4299],[30.8603,54.3978,201.2741],[30.851,54.398,212.3077],[30.8235,54.4068,214.0733],[30.8095,54.4072,209.6639],[30.7857,54.3995,202.6453],[30.781,54.3996,218.1151],[30.7765,54.4024,222.985],[30.7772,54.4133,227.433],[30.7585,54.4138,227.9652],[30.7173,54.4284,211.2053],[30.6986,54.4288,209.0876],[30.689,54.4236,205.783],[30.684,54.4182,198.6204],[30.6837,54.4128,195.8683],[30.6922,54.3989,196.3314],[30.6921,54.3962,196.0736],[30.6776,54.3883,196.03],[30.6119,54.3816,194.1219],[30.5981,54.3847,207.6048],[30.5888,54.3849,204.2189],[30.5794,54.3823,204.5459],[30.5698,54.3771,211.4459],[30.5743,54.3742,207.7779],[30.5926,54.3684,199.3984],[30.6242,54.3513,196.6337],[30.6239,54.3458,197.6485],[30.6001,54.3354,189.4453],[30.5955,54.3355,191.7935],[30.5766,54.3304,191.7319],[30.5718,54.3278,194.8336],[30.5714,54.3196,217.2237],[30.5757,54.314,196.437],[30.5748,54.2976,196.5022],[30.5653,54.2923,197.9163],[30.5417,54.2846,195.1667],[30.541,54.2709,197.3745],[30.5314,54.2656,194.9104],[30.5223,54.2686,209.803],[30.5179,54.2741,213.0255],[30.5229,54.2795,198.6048],[30.5136,54.2797,193.6519],[30.4946,54.2718,205.0423],[30.49,54.2719,206.699],[30.481,54.2776,231.1389],[30.4816,54.2885,216.193],[30.4865,54.2939,210.7366],[30.4868,54.2994,218.7985],[30.4685,54.3052,213.2928],[30.4465,54.3303,212.6516],[30.4374,54.3332,228.2466],[30.4284,54.3388,211.4854],[30.4189,54.3363,210.1733],[30.414,54.3309,206.7785],[30.4135,54.3199,201.9265],[30.4087,54.3173,224.1313],[30.3947,54.3176,204.1105],[30.3856,54.3205,201.4233],[30.3716,54.3207,201.9701],[30.3669,54.3181,196.0234],[30.3617,54.3072,194.6115],[30.3517,54.2937,190.0589],[30.3469,54.291,189.5423],[30.3145,54.2943,180.8995],[30.2958,54.2919,177.0231],[30.2728,54.2978,164.929],[30.2637,54.3007,154.8205],[30.2639,54.3061,162.3459],[30.2783,54.3141,153.1606],[30.2835,54.325,148.4556],[30.2979,54.3357,152.8649],[30.2937,54.344,163.1873],[30.2801,54.3524,172.6224],[30.2849,54.3551,185.9703],[30.2803,54.3552,174.7811],[30.2757,54.358,165.6173],[30.271,54.3553,170.6603],[30.2477,54.3557,210.5385],[30.2297,54.3697,184.4885],[30.2156,54.3672,215.3797],[30.2059,54.3591,212.8001],[30.2195,54.3507,200.6805],[30.2191,54.3425,193.1827],[30.2,54.3318,185.486],[30.186,54.3321,210.0952],[30.1815,54.3349,204.0578],[30.1866,54.3457,212.9006],[30.187,54.354,201.3391],[30.1689,54.3652,217.5887],[30.1549,54.3654,206.7913],[30.1359,54.3575,207.2261],[30.1266,54.3577,205.7095],[30.1221,54.3605,207.2692],[30.1223,54.3659,228.7731],[30.132,54.374,227.6137],[30.1415,54.3766,230.242],[30.1464,54.382,215.8646],[30.1419,54.3848,236.3889],[30.1324,54.3822,217.5412],[30.1188,54.3907,212.2532],[30.1044,54.3827,221.0953],[30.1039,54.3717,210.2003],[30.1257,54.3385,196.7932],[30.1208,54.3331,194.5913],[30.1161,54.3305,197.9193],[30.1114,54.3305,187.0555],[30.0885,54.3391,210.2406],[30.0841,54.3447,220.6161],[30.075,54.3503,226.7827],[30.0563,54.3478,214.6484],[30.0514,54.3424,204.1252],[30.0512,54.337,199.0544],[30.0556,54.3314,191.6322],[30.0694,54.3285,202.9207],[30.074,54.3257,209.1288],[30.0733,54.3093,204.858],[30.0685,54.3066,206.8917],[30.0592,54.3068,202.8521],[30.0362,54.3126,231.712],[30.0269,54.3128,207.4895],[30.022,54.3074,203.0193],[30.0219,54.3047,208.1717],[30.0399,54.2907,212.9618],[30.0395,54.2798,221.423],[30.0252,54.2719,236.1884],[30.0066,54.2722,224.4248],[29.9926,54.2697,208.3712],[29.988,54.2725,207.9418],[29.9881,54.2752,208.1811],[29.9977,54.2805,226.7216],[30.0071,54.2831,238.8036],[30.003,54.2968,237.1353],[29.9937,54.2969,235.0151],[29.9841,54.2916,228.5544],[29.9654,54.2892,202.1117],[29.9653,54.2865,206.9009],[29.9559,54.2839,210.5173],[29.9374,54.2869,225.6232],[29.919,54.2927,213.6851],[29.9145,54.2955,215.041],[29.9193,54.3008,222.7758],[29.9194,54.3036,231.8509],[29.9149,54.306399999999996,237.4364],[29.9014,54.3202,209.0039],[29.9016,54.323,207.365],[29.9111,54.3283,207.3347],[29.9112,54.331,207.8575],[29.9022,54.3393,212.8115],[29.8975,54.3394,212.4178],[29.8928,54.3367,208.8969],[29.8925,54.3313,221.6083],[29.8877,54.3259,207.8252],[29.8734,54.3179,197.9103],[29.8641,54.3181,199.7396],[29.8504,54.3265,193.8397],[29.8458,54.3265,193.2711],[29.8363,54.324,194.8403],[29.8362,54.3212,195.0786],[29.8267,54.3159,190.656],[29.8174,54.3161,190.9598],[29.8035,54.319,199.2653],[29.799,54.3218,215.6892],[29.785,54.322,195.9059],[29.7661,54.3141,195.1156],[29.752,54.3116,181.0032],[29.7381,54.3145,191.0504],[29.7288,54.3146,192.9567],[29.7146,54.3094,206.6881],[29.6959,54.3069,232.759],[29.6912,54.307,229.0288],[29.6728,54.3154,217.0688],[29.6591,54.3238,212.6292],[29.6499,54.3267,213.8887],[29.6359,54.3268,218.4553],[29.6313,54.3296,217.6012],[29.6314,54.3324,219.0173],[29.6268,54.3351,221.5535],[29.6128,54.3353,222.2061],[29.594,54.3329,225.1625],[29.5799,54.3303,216.4173],[29.5752,54.3277,211.2363],[29.5748,54.314,233.4199],[29.5793,54.3113,233.579],[29.5838,54.3057,219.2793],[29.5838,54.303,220.9906],[29.5743,54.2977,206.2056],[29.5603,54.2979,203.181],[29.551,54.3007,203.7648],[29.5369,54.2982,200.8429],[29.5322,54.2955,196.911],[29.532,54.2901,197.5496],[29.5271,54.282,215.8672],[29.5177,54.2794,197.6506],[29.5082,54.274,194.6104],[29.5173,54.2685,190.3063],[29.5171,54.2603,197.0521],[29.5123,54.2576,200.9982],[29.5077,54.2577,193.5066],[29.4981,54.2496,215.3882],[29.4934,54.2497,206.1016],[29.4843,54.2552,194.7012],[29.4796,54.2553,194.4467],[29.4793,54.2471,197.4906],[29.4608,54.2501,194.0812],[29.4605,54.2419,198.7416],[29.451,54.2365,199.8051],[29.4373,54.2449,195.7543],[29.4326,54.2449,195.1925],[29.4091,54.2398,195.8443],[29.4043,54.2344,196.6766],[29.4089,54.2316,214.1934],[29.4088,54.2289,207.4857],[29.4133,54.2233,194.4787],[29.4366,54.2231,202.2203],[29.4412,54.2203,215.1407],[29.441,54.2121,193.3015],[29.4502,54.2093,190.6424],[29.4642,54.2091,192.1614],[29.4688,54.2063,195.9548],[29.4544,54.1929,209.4046],[29.4542,54.1847,205.8875],[29.4447,54.1793,200.6394],[29.4446,54.1766,206.6693],[29.4399,54.1739,206.3614],[29.4443,54.1657,187.1872],[29.4488,54.1602,196.3428],[29.4534,54.1574,209.1302],[29.4532,54.1519,188.5294],[29.4339,54.1276,184.966],[29.4336,54.1194,194.1854],[29.4474,54.1138,198.2387],[29.4469,54.0947,180.4609],[29.4421,54.0893,199.0146],[29.4374,54.0893,199.2679],[29.4327,54.0867,194.6046],[29.4369,54.073,204.1326],[29.4364,54.0566,206.3223],[29.427,54.0512,186.3987],[29.4269,54.0485,199.4023],[29.4407,54.0429,193.3145],[29.4406,54.0402,197.9702],[29.3986,54.0352,185.3994],[29.3798,54.0299,187.9892],[29.375,54.0245,184.9869],[29.361,54.0219,184.3845],[29.3468,54.0139,190.8163],[29.3467,54.0112,198.2672],[29.3419,54.0058,196.0683],[29.3418,54.0003,189.6344],[29.3509,53.9948,200.2343],[29.3742,53.9945,186.8181],[29.3788,53.9917,182.4384],[29.3781,53.9672,184.7727],[29.3638,53.9564,191.2435],[29.3684,53.9536,186.4979],[29.3823,53.9535,203.1618],[29.3822,53.9507,198.5423],[29.3868,53.9479,199.8631],[29.386,53.9207,198.8378],[29.3905,53.9151,194.7777],[29.4041,53.9041,187.6],[29.4083,53.8876,191.5737],[29.4035,53.8822,190.7851],[29.3895,53.8797,184.4426],[29.3847,53.8743,191.086],[29.3846,53.8715,199.3851],[29.4123,53.8658,196.6216],[29.4122,53.8603,192.3743],[29.4028,53.8577,193.998],[29.3889,53.8578,196.2271],[29.3796,53.8552,193.9603],[29.3748,53.8498,179.0025],[29.3747,53.8471,176.6449],[29.3792,53.8416,183.4876],[29.3884,53.8414,192.2288],[29.3978,53.8441,197.1045],[29.4119,53.8521,196.9832],[29.4166,53.8548,182.8561],[29.4214,53.8602,197.7195],[29.4261,53.8601,184.4777],[29.4306,53.8574,185.9337],[29.4258,53.8519,205.6393],[29.4212,53.852,186.2711],[29.4165,53.8493,183.2455],[29.4019,53.8276,212.5795],[29.374,53.8225,185.4516],[29.3693,53.8198,183.4],[29.3738,53.817,196.6947],[29.4294,53.8164,190.4085],[29.434,53.8136,204.2654],[29.4339,53.8109,209.7138],[29.443,53.8053,189.1061],[29.4523,53.8052,202.8408],[29.4571,53.8106,209.1911],[29.4709,53.8077,182.7734],[29.4707,53.8023,179.9858],[29.4753,53.7995,180.6761],[29.4984,53.7992,191.44],[29.5073,53.7882,193.7656],[29.5071,53.78,181.3791],[29.4977,53.7747,173.6575],[29.4421,53.7753,185.8496],[29.4327,53.77,175.1886],[29.4281,53.77,172.2929],[29.4097,53.7757,174.4102],[29.4005,53.7758,170.1314],[29.3863,53.765,187.2725],[29.3862,53.7623,187.9051],[29.3907,53.7595,191.6148],[29.4045,53.7566,194.9927],[29.4231,53.7564,193.209],[29.4368,53.7508,178.8818],[29.4413,53.748,173.9307],[29.4412,53.7453,182.8828],[29.4365,53.7426,194.5719],[29.3995,53.743,175.0198],[29.3901,53.7377,183.2182],[29.39,53.735,182.4187],[29.3989,53.7212,176.3446],[29.3987,53.7157,171.5786],[29.3894,53.7131,180.5873],[29.3755,53.7133,187.282],[29.3484,53.7354,180.6208],[29.3345,53.7356,181.1895],[29.3298,53.7329,173.4226],[29.3294,53.7193,179.2861],[29.3386,53.7164,183.2342],[29.3385,53.711,175.5566],[29.3243,53.7002,179.39],[29.3242,53.6975,180.5891],[29.3195,53.6948,175.978],[29.3193,53.6866,166.3584],[29.3145,53.6812,165.05],[29.3006,53.6786,166.9476],[29.2728,53.6789,161.4992],[29.2682,53.6763,177.0644],[29.268,53.6708,166.7347],[29.2494,53.6656,175.442],[29.2215,53.6604,162.5026],[29.2168,53.6577,160.8525],[29.2213,53.6522,161.3407],[29.2166,53.6495,165.3969],[29.212,53.6496,165.8823],[29.1982,53.6552,165.2769],[29.1706,53.6609,169.5332],[29.1708,53.6664,174.011],[29.1662,53.6692,184.4931],[29.157,53.6693,170.7821],[29.1383,53.6613,166.9657],[29.1336,53.6613,162.9176],[29.1337,53.6641,160.8603],[29.1385,53.6695,165.3905],[29.1431,53.6694,162.4416],[29.1432,53.6721,163.4266],[29.1386,53.6749,166.6407],[29.1109,53.6779,159.453],[29.1016,53.6753,157.102],[29.0969,53.6726,163.0219],[29.1054,53.6398,158.6173],[29.0958,53.6263,151.8345],[29.0867,53.6318,160.9353],[29.0821,53.6319,160.7485],[29.0774,53.6292,164.9117],[29.0772,53.6183,153.7425],[29.0817,53.6155,154.1242],[29.0813,53.5964,159.1748],[29.095,53.5908,152.0118],[29.0856,53.58,163.2074],[29.0716,53.5747,159.4947],[29.067,53.5747,159.4326],[29.0625,53.5802,161.8387],[29.0533,53.583,163.4726],[29.0532,53.5803,161.9868],[29.0209,53.5807,159.0487],[29.0116,53.578,154.1474],[29.0025,53.5836,152.3282],[28.9886,53.5837,151.405],[28.9793,53.5783,143.7072],[28.97,53.5757,143.1258],[28.9515,53.5759,143.3864],[28.9514,53.5677,142.8469],[28.9605,53.5622,142.8485],[28.9743,53.5593,142.4521],[28.9742,53.5539,142.8025],[28.9649,53.5512,142.3114],[28.9556,53.5513,142.0967],[28.951,53.5486,161.5035],[28.9509,53.5459,153.1521],[28.9555,53.5431,142.2661],[28.9785,53.5375,153.4963],[28.9783,53.532,142.7789],[28.9644,53.5267,142.3992],[28.9459,53.5269,149.8828],[28.9368,53.5297,161.9509],[28.9229,53.5298,153.9119],[28.9049,53.5545,174.0184],[28.8958,53.5601,178.9233],[28.8913,53.5656,174.431],[28.873,53.5766,173.6811],[28.8406,53.577,170.2788],[28.8269,53.5853,185.8367],[28.8225,53.5962,176.026],[28.8179,53.599,176.3175],[28.8133,53.599,178.8336],[28.7947,53.5937,180.4768],[28.7808,53.5939,182.4798],[28.7762,53.5912,182.957],[28.7806,53.5775,176.8094],[28.7759,53.5748,176.5299],[28.7112,53.5754,183.2756],[28.7066,53.5782,179.9021],[28.7021,53.5864,176.5363],[28.6975,53.5891,186.6203],[28.6837,53.5947,179.5589],[28.6515,53.6032,176.1003],[28.6377,53.6115,182.7929],[28.6331,53.6115,189.9567],[28.6284,53.6034,186.8826],[28.619,53.5925,173.6539],[28.6189,53.5844,173.6679],[28.6233,53.5734,174.9917],[28.6187,53.5707,182.3555],[28.6094,53.5708,178.7514],[28.5956,53.5737,171.0909],[28.5909,53.5682,166.9058],[28.5862,53.5656,167.7202],[28.5908,53.5601,163.535],[28.5768,53.552,170.8318],[28.5398,53.5523,169.4279],[28.5353,53.5551,174.0107],[28.5259,53.5497,165.0297],[28.5027,53.5417,178.055],[28.5026,53.5336,173.1148],[28.5072,53.5281,175.2418],[28.5118,53.5253,168.378],[28.5303,53.5224,166.0722],[28.5488,53.5277,176.5356],[28.5673,53.5303,173.0371],[28.5766,53.5302,172.1451],[28.5811,53.5275,169.3327],[28.5811,53.5247,180.193],[28.5626,53.5195,164.8393],[28.5487,53.5196,166.8968],[28.5255,53.5143,169.6772],[28.5162,53.5089,170.9286],[28.5116,53.509,174.3635],[28.507,53.5117,176.2175],[28.4979,53.52,167.3174],[28.4979,53.5227,166.6864],[28.4933,53.5255,175.3006],[28.4887,53.5255,169.1072],[28.4839,53.5119,185.6352],[28.4701,53.512,174.3729],[28.4608,53.5094,174.6456],[28.4515,53.504,179.1577],[28.4422,53.4932,174.8296],[28.4329,53.4905,177.3633],[28.419,53.4906,176.2071],[28.4144,53.4852,181.3451],[28.4143,53.4825,170.0914],[28.3958,53.4799,161.7741],[28.3959,53.4826,164.6193],[28.3913,53.4908,179.7693],[28.3867,53.4936,161.1027],[28.3775,53.4937,177.1002],[28.3636,53.4883,161.2835],[28.3681,53.4801,167.586],[28.3588,53.4747,172.04],[28.3542,53.4775,173.3951],[28.3496,53.4748,179.2006],[28.3357,53.4722,160.6947],[28.3357,53.4667,181.1859],[28.3588,53.4666,180.4229],[28.3818,53.4555,173.6349],[28.391,53.4555,174.5239],[28.4003,53.4581,178.6487],[28.414,53.4471,178.5303],[28.4186,53.4416,163.2166],[28.4185,53.4362,178.052],[28.4091,53.409,186.1206],[28.409,53.4009,160.5374],[28.3997,53.3928,179.0282],[28.3812,53.3875,162.3535],[28.3628,53.3876,159.931],[28.3535,53.385,152.0039],[28.3534,53.3714,153.1051],[28.358,53.3659,167.0201],[28.3579,53.355,176.3825],[28.3946,53.3411,169.3377],[28.4038,53.341,175.8522],[28.4176,53.3382,157.2661],[28.4268,53.3327,162.4874],[28.4267,53.3191,161.3004],[28.4358,53.3081,169.2708],[28.4356,53.2864,160.7789],[28.4401,53.2782,166.0199],[28.4355,53.2755,170.8761],[28.4309,53.2755,168.7061],[28.4124,53.2702,174.6857],[28.394,53.2704,163.5864],[28.3388,53.2762,159.7669],[28.3342,53.2736,160.8369],[28.3341,53.26,160.2559],[28.2973,53.2548,177.2213],[28.2789,53.2549,172.3453],[28.1777,53.2693,157.9328],[28.1546,53.2694,159.8915],[28.15,53.2722,161.2586],[28.1547,53.2776,159.1962],[28.1455,53.2804,160.4933],[28.1362,53.2804,158.8771],[28.1224,53.2778,175.7193],[28.1178,53.2724,178.4762],[28.104,53.2725,175.1969],[28.0948,53.278,176.5447],[28.0901,53.2726,169.7058],[28.0947,53.2698,165.3119],[28.0947,53.2589,162.2479],[28.0993,53.2562,160.3474],[28.0993,53.2453,159.5667],[28.1039,53.2453,160.3155],[28.1223,53.2397,159.0045],[28.1223,53.237,161.5162],[28.1084,53.229,161.1525],[28.1084,53.2262,160.3387],[28.1222,53.218,164.9069],[28.1314,53.2206,169.3053],[28.1544,53.2123,164.307],[28.1636,53.2123,161.2723],[28.1682,53.2095,160.4024],[28.182,53.2094,159.9203],[28.1866,53.2039,160.2375],[28.1865,53.1904,175.778],[28.1911,53.1876,178.8394],[28.2187,53.1956,176.8995],[28.2233,53.1955,174.6338],[28.2279,53.1928,177.8172],[28.2279,53.1873,172.3374],[28.2324,53.1846,174.7021],[28.2463,53.1899,179.8391],[28.2509,53.1953,177.7685],[28.2463,53.1981,179.1965],[28.2509,53.2008,176.9421],[28.2555,53.2007,174.9837],[28.2647,53.1979,166.1793],[28.2784,53.1897,175.5825],[28.2784,53.1788,178.2399],[28.2875,53.1733,167.9747],[28.2921,53.1733,162.9663],[28.2967,53.1787,162.11],[28.2968,53.1868,167.3475],[28.306,53.1895,162.8248],[28.3061,53.2085,157.0576],[28.3337,53.2028,160.271],[28.3382,53.1974,174.4892],[28.3611,53.1836,169.9579],[28.3611,53.1782,173.3546],[28.3518,53.1701,159.3478],[28.3471,53.162,159.8729],[28.3471,53.1565,161.1346],[28.3516,53.1483,161.9357],[28.3746,53.1481,175.6069],[28.3747,53.159,173.7688],[28.3793,53.1617,162.4456],[28.3794,53.1699,165.5351],[28.3885,53.1698,162.3445],[28.4022,53.1588,184.1074],[28.4022,53.1533,167.3206],[28.4159,53.1451,181.038],[28.448,53.1502,166.3967],[28.4619,53.1556,158.631],[28.4894,53.1608,161.7703],[28.494,53.158,157.6071],[28.526,53.1496,151.3126],[28.526,53.1441,157.0625],[28.5121,53.1361,151.9917],[28.5166,53.1306,152.4124],[28.5257,53.1251,151.4909],[28.5257,53.1197,152.8928],[28.5302,53.1142,158.163],[28.5484,53.1059,170.8377],[28.5254,53.0952,168.456],[28.5254,53.0925,159.9411],[28.5345,53.0869,156.6526],[28.5435,53.0705,157.5661],[28.5434,53.0624,156.2382],[28.5295,53.0489,152.869],[28.5294,53.0435,152.5189],[28.5339,53.038,152.3643],[28.5338,53.0298,153.9118],[28.5475,53.0243,155.8573],[28.5519,53.0106,161.0414],[28.5746,52.9995,167.218],[28.5746,52.9941,160.8438],[28.556,52.9725,181.0922],[28.5423,52.9727,175.588],[28.5332,52.9755,179.1484],[28.5241,52.981,174.6511],[28.5242,52.9837,186.0321],[28.5151,52.9892,165.7023],[28.4968,52.9894,167.6473],[28.4554,52.9653,179.886],[28.4462,52.9572,163.7104],[28.4461,52.9545,175.6737],[28.4507,52.949,169.3099],[28.4643,52.938,171.5104],[28.4642,52.9326,172.9467],[28.4732,52.9216,172.9775],[28.4823,52.9161,174.5724],[28.4868,52.9107,166.8652],[28.4867,52.8998,156.6929],[28.4912,52.8889,158.2698],[28.4866,52.8835,158.3519],[28.4728,52.8755,152.0747],[28.4225,52.8623,144.0926],[28.4179,52.8597,154.3182],[28.4224,52.8569,159.2258],[28.4269,52.8514,165.1931],[28.4361,52.8513,163.3465],[28.4451,52.8431,156.6748],[28.4633,52.8375,159.7034],[28.4678,52.8347,162.0139],[28.4677,52.8184,153.7545],[28.4629,52.8022,160.9458],[28.4629,52.7968,142.0493],[28.4583,52.7914,154.7981],[28.4262,52.7699,140.7982],[28.4034,52.7647,163.1579],[28.3897,52.7594,140.3378],[28.3896,52.7567,152.1964],[28.385,52.7486,160.6266],[28.3894,52.7295,141.3521],[28.3939,52.7268,144.5461],[28.4258,52.7238,153.5358],[28.4575,52.7099,153.928],[28.4937,52.6878,135.124],[28.5073,52.685,135.9506],[28.5073,52.6877,135.1809],[28.521,52.6957,135.7613],[28.5256,52.6957,146.1977],[28.5391,52.6874,154.978],[28.5528,52.6927,155.318],[28.5756,52.6951,145.528],[28.6027,52.6867,141.5582],[28.6072,52.684,147.632],[28.6209,52.6865,137.4676],[28.6255,52.6892,137.8681],[28.621,52.692,154.146],[28.6255,52.6946,149.9591],[28.6391,52.6918,139.5629],[28.6437,52.6944,140.0474],[28.6438,52.6999,161.807],[28.6529,52.7025,164.1386],[28.6665,52.7024,142.9585],[28.6892,52.6994,140.1323],[28.7028,52.6938,132.4717],[28.7073,52.6938,149.0269],[28.7256,52.7044,131.6198],[28.7392,52.7043,132.0333],[28.7483,52.7015,131.7974],[28.7618,52.6959,132.2552],[28.7618,52.6932,131.9528],[28.7708,52.6876,143.5971],[28.7799,52.693,136.8052],[28.78,52.6984,143.5961],[28.7847,52.7038,148.4935],[28.7984,52.7091,144.9347],[28.803,52.7145,149.1379],[28.8076,52.7171,152.2297],[28.8167,52.7197,148.2863],[28.8439,52.7194,136.6653],[28.8484,52.7167,144.6835],[28.853,52.7193,156.7647],[28.8531,52.722,154.4398],[28.8395,52.7276,143.6273],[28.8396,52.7304,141.7523],[28.8488,52.7357,145.3513],[28.8488,52.7384,151.0005],[28.8307,52.7413,152.9652],[28.8262,52.7441,155.2974],[28.8173,52.7578,150.9753],[28.822,52.7659,148.6205],[28.8221,52.7686,137.6669],[28.8267,52.7713,148.5545],[28.8358,52.7712,149.3058],[28.8583,52.7628,148.6827],[28.872,52.7626,142.579],[28.8812,52.7679,156.5976],[28.8812,52.7707,149.1125],[28.8904,52.7733,147.8326],[28.904,52.7758,153.3673],[28.9177,52.7757,141.0059],[28.9269,52.781,147.3358],[28.9315,52.7864,144.5212],[28.9545,52.7997,141.316],[28.9684,52.8104,141.9195],[28.9685,52.8159,142.0862],[28.9731,52.8213,153.0052],[28.9869,52.8265,150.7626]]]]}
,"properties": {"GID_1": "BLR.4_1","GID_0": "BLR","country": "Belarus","province": "Mogilev","VARNAME_1": "Могилёв|Mahiljow|MahilyowskayaV","NL_NAME_1": "Магілёўская","TYPE_1": "Oblast","ENGTYPE_1": "Region","CC_1": "NA","HASC_1": "BY.MA","ISO_1": "NA","name": "Mogilev.province","area_km2": 28920.36,"hist_schema_id": "Elevation0-9000","hist_area_km2": {"125": 492.08,"150": 8861.95,"175": 12503.04,"200": 6173.78,"225": 850.08,"250": 39.44}}}