{"type":"Feature","properties":{"featurecla":"River","scalerank":4,"rivernum":116,"dissolve":"116River","name":"Dnipro5","name_alt":"Dnieper","note":null,"min_zoom":4.0,"strokeweig":0.25,"name_en":"Dnieper","min_label":5.0},
"geometry":{"type": "LineString","coordinates": [[31.598242187500006,54.706659246869116,171.4658],[31.510986328125,54.669696356244117,163.7457],[31.50146484375,54.66705963749412,167.7249],[31.489501953125,54.66547272343162,170.1454],[31.4345703125,54.67059967655662,180.4099],[31.418554687500006,54.67938873905662,163.8232],[31.384521484375,54.707147528119116,170.136],[31.3798828125,54.70648834843162,168.4698],[31.371679687500006,54.70123932499412,176.5255],[31.333984375,54.713153387494117,171.6693],[31.291748046875,54.71124909061912,180.2336],[31.207275390625,54.68756744999412,177.4868],[31.203027343750023,54.681415106244117,165.2684],[31.19873046875,54.67694733280662,165.3608],[31.19375,54.67389557499412,168.3205],[31.188720703125,54.67328522343162,165.8722],[31.17822265625,54.67426178593162,182.4603],[31.128173828125,54.66705963749412,159.5432],[31.020410156250023,54.673944403119116,163.9377],[30.955078125,54.66705963749412,181.9973],[30.929785156250006,54.66705963749412,177.5818],[30.916406250000023,54.665301824994117,180.3263],[30.8857421875,54.65277741093162,170.7852],[30.765625,54.637958074994117,162.3434],[30.734375,54.619256903119116,178.2873],[30.70859375,54.59100983280662,157.711],[30.692480468750006,54.581415106244116,168.4434],[30.669189453125,54.57770416874412,166.3598],[30.657470703125,54.579364324994117,161.8084],[30.648339843750023,54.58185455936912,166.398],[30.639257812500006,54.581415106244116,166.5067],[30.6109375,54.56073639530662,174.5895],[30.58447265625,54.54682037968162,164.1648],[30.579980468750023,54.54328034061912,162.1991],[30.57373046875,54.539813543744117,163.2713],[30.562402343750023,54.53668854374412,190.8765],[30.539648437500006,54.536004949994116,166.5301],[30.527441406250006,54.537127996869117,176.9567],[30.522070312500006,54.539813543744117,174.4607],[30.516503906250023,54.55683014530662,154.8661],[30.503173828125,54.56110260624412,173.2957],[30.487207031250023,54.557391668744117,157.337],[30.4736328125,54.55036041874412,155.8122],[30.412207031250006,54.49884674686912,163.1879],[30.4078125,54.488153387494116,161.2449],[30.388671875,54.47418854374412,156.6435],[30.38427734375,54.464715887494116,156.2509],[30.387109375000023,54.452899481244117,177.7371],[30.39794921875,54.43891022343162,165.434],[30.398535156250006,54.42682526249412,162.455],[30.3916015625,54.41120026249412,156.2275],[30.378320312500023,54.39569733280662,154.8696],[30.362548828125,54.383807684369117,180.6696],[30.347265625,54.37909577030662,173.5276],[30.338476562500006,54.37335846561912,175.6269],[30.296142578125,54.33185455936912,149.6666],[30.282128906250023,54.30829498905662,156.8523],[30.275488281250006,54.29108307499412,156.726],[30.275,54.276629949994117,179.7497],[30.282128906250023,54.26654694218162,197.2196],[30.308349609375,54.24091217655662,173.0535],[30.316650390625,54.23505280155662,180.4824],[30.316650390625,54.22821686405662,183.9284],[30.305273437500006,54.22406647343162,186.2974],[30.298925781250006,54.22077057499412,145.1817],[30.296142578125,54.21832916874412,154.5989],[30.297949218750006,54.20868561405662,157.9333],[30.303125,54.20844147343162,152.9901],[30.309667968750006,54.21051666874412,171.2582],[30.316650390625,54.207782293744117,163.9752],[30.3271484375,54.194940496869116,157.7162],[30.333398437500023,54.184686590619116,153.8716],[30.343847656250006,54.159295965619116,149.0813],[30.366796875,54.127704168744117,146.3697],[30.371191406250006,54.11835358280662,149.1899],[30.369873046875,54.10297272343162,149.266],[30.366796875,54.09235260624412,147.7003],[30.369384765625,54.08441803593162,148.3722],[30.38427734375,54.07746002811912,190.0432],[30.375,54.05194733280662,170.484],[30.388916015625,53.99274323124412,148.0247],[30.38427734375,53.96759674686912,146.8094],[30.405517578125,53.964960028119116,147.2347],[30.423828125,53.95636627811912,148.8569],[30.437744140625,53.94306061405662,156.3261],[30.4462890625,53.92658112186912,145.9634],[30.4482421875,53.90888092655662,146.1133],[30.440332031250023,53.901385809369117,146.0443],[30.323486328125,53.899286199994116,164.4437],[30.31689453125,53.89691803593162,180.8244],[30.295996093750006,53.88556549686912,184.2744],[30.288671875,53.879413153119117,162.6655],[30.281982421875,53.86933014530662,144.5842],[30.280517578125,53.86237213749412,141.4767],[30.282470703125,53.84808991093162,142.9012],[30.283105468750023,53.82648346561912,143.7581],[30.2822265625,53.815301824994116,141.8248],[30.27880859375,53.81049225468162,140.7075],[30.278076171875,53.80499909061912,143.6689],[30.264746093750006,53.782586981244116,141.9981],[30.261328125,53.779803778119117,142.0737],[30.266845703125,53.76471588749412,142.3724],[30.290625,53.731561590619116,141.0358],[30.296142578125,53.71771881718162,141.608],[30.290136718750006,53.64740631718162,139.858],[30.277734375000023,53.611346746869117,148.8993],[30.254492187500006,53.59821198124412,150.1491],[30.262939453125,53.588251043744116,138.3984],[30.267480468750023,53.57843659061912,139.3944],[30.265625,53.56818268436912,138.8932],[30.254492187500006,53.556659246869117,141.3994],[30.2578125,53.54559967655662,139.0838],[30.255761718750023,53.527118231244117,145.243],[30.261328125,53.51630280155662,139.2825],[30.268652343750006,53.51264069218162,138.7946],[30.299560546875,53.50202057499412,138.2465],[30.3046875,53.49884674686912,137.5528],[30.312744140625,53.49176666874412,138.0874],[30.3173828125,53.484735418744116,137.5624],[30.312890625000023,53.48151276249412,138.5371],[30.313378906250023,53.47821686405662,137.3084],[30.330322265625,53.453631903119117,138.716],[30.328222656250006,53.44049713749412,136.6994],[30.322021484375,53.42487213749412,136.7021],[30.320703125000023,53.411883856244117,138.9554],[30.333740234375,53.40643952030662,137.1989],[30.345117187500023,53.39923737186912,135.4868],[30.361523437500011,53.36432526249412,135.5017],[30.371191406250006,53.351825262494117,134.2844],[30.367773437500006,53.34332916874412,133.7948],[30.361718750000023,53.336297918744116,134.3704],[30.343847656250006,53.32391998905662,149.4997],[30.350341796875,53.315301824994116,155.4342],[30.371191406250006,53.29657623905662,149.0035]]}}