{"type":"Feature","properties":{"GID_2":"BLR.2.12_1","GID_0":"BLR","country":"Belarus","GID_1":"BLR.2_1","province":"Gomel","NL_NAME_1":"Гомельская","county":"Mazyr","VARNAME_2":"Mozyr","NL_NAME_2":"Мазырскіраён","TYPE_2":"Raion","ENGTYPE_2":"District","CC_2":"NA","HASC_2":"BY.HO.MZ","name":"Mazyr.county"},
"geometry":{"type": "MultiPolygon","coordinates": [[[[29.0353,52.1382,115.8088],[29.0264,52.1383,115.9785],[29.022,52.1411,116.3018],[29.022,52.1438,116.7112],[29.0176,52.1466,116.3726],[29.0087,52.1467,117.333],[28.9996,52.1414,117.4496],[28.9906,52.1415,116.6275],[28.9862,52.1443,116.4748],[28.9863,52.147,116.4841],[28.9909,52.1524,117.6871],[28.9909,52.1551,122.6044],[28.9865,52.1579,119.3225],[28.9775,52.1553,116.9784],[28.9684,52.15,116.3513],[28.9683,52.1446,116.4128],[28.9727,52.1418,116.3969],[28.9683,52.1419,116.1918],[28.9456,52.1286,117.1185],[28.9367,52.1287,117.9281],[28.9368,52.1342,118.2068],[28.9413,52.1368,116.6437],[28.9369,52.1396,117.0918],[28.9279,52.1397,118.5012],[28.9189,52.1371,115.9472],[28.9053,52.1292,118.6741],[28.9009,52.1292,117.017],[28.8964,52.132,114.5],[28.9011,52.1428,117.9297],[28.9057,52.1482,118.0416],[28.9013,52.151,117.4126],[28.8968,52.151,117.5966],[28.8922,52.1456,117.1164],[28.8832,52.1403,118.7167],[28.8742,52.1377,117.5948],[28.8698,52.1432,118.2919],[28.8698,52.146,117.1861],[28.861,52.1515,117.3484],[28.8565,52.1516,114.9381],[28.8474,52.1463,117.0909],[28.834,52.1464,116.9378],[28.8158,52.1331,118.9083],[28.8113,52.1278,119.2423],[28.7932,52.1226,117.7364],[28.7888,52.1253,118.7494],[28.7889,52.1281,117.2849],[28.7935,52.1361,118.3592],[28.7936,52.1443,118.6101],[28.7892,52.1471,131.896],[28.7802,52.1472,131.2008],[28.7711,52.1419,120.2432],[28.7577,52.142,120.6558],[28.7352,52.1369,120.1282],[28.7171,52.129,118.8673],[28.7171,52.1263,119.6322],[28.7082,52.1291,118.9301],[28.7083,52.1373,118.7702],[28.6994,52.1428,116.5],[28.6949,52.1429,120.5385],[28.6904,52.1402,119.4975],[28.6948,52.1375,121.4632],[28.6947,52.1239,120.301],[28.6901,52.1185,119.1718],[28.6945,52.1158,119.2613],[28.7035,52.1156,123.6506],[28.7124,52.1128,121.1871],[28.7302,52.1044,118.0574],[28.7302,52.099,127.654],[28.7256,52.0936,124.5212],[28.7256,52.0909,126.5775],[28.73,52.0882,134.1737],[28.7209,52.0774,122.1571],[28.7207,52.0666,139.881],[28.7028,52.0668,157.8981],[28.6893,52.0616,163.829],[28.6848,52.0617,160.339],[28.6804,52.0671,143.0329],[28.6715,52.0673,141.5116],[28.667,52.0646,148.7044],[28.6625,52.0647,148.7414],[28.6492,52.0784,120.3537],[28.6359,52.0867,131.437],[28.6135,52.087,120.0306],[28.6001,52.0953,120.0374],[28.5956,52.0954,129.2024],[28.5911,52.09,130.3993],[28.5775,52.0821,128.2603],[28.5686,52.0849,131.7703],[28.5506,52.0797,135.3993],[28.5505,52.0716,121.2696],[28.5369,52.0582,120.0777],[28.5324,52.0556,119.6705],[28.5323,52.0475,119.8652],[28.5053,52.0343,120.6055],[28.5007,52.0289,121.164],[28.5007,52.0235,123.1138],[28.5051,52.0208,132.1705],[28.5231,52.0205,122.6345],[28.532,52.0177,137.9447],[28.5455,52.0202,135.5007],[28.5723,52.0171,140.0437],[28.5948,52.0195,138.6619],[28.644,52.0188,140.3576],[28.6435,51.9809,157.7422],[28.639,51.9728,160.5422],[28.6434,51.9673,164.798],[28.6524,51.9726,162.817],[28.6568,51.9726,162.5567],[28.6569,51.9753,154.9347],[28.6659,51.9779,167.2995],[28.6792,51.9722,163.5275],[28.6926,51.972,155.9379],[28.6926,51.9666,155.599],[28.7015,51.9665,156.4455],[28.706,51.9637,160.4768],[28.706,51.961,156.6124],[28.7015,51.9611,161.2452],[28.697,51.9585,156.3307],[28.6836,51.9614,161.5499],[28.6792,51.956,164.8594],[28.6794,51.8994,172.8473],[28.6883,51.8912,170.8976],[28.6928,51.8911,170.494],[28.6973,51.8884,170.9341],[28.7018,51.8694,165.4222],[28.7152,51.8665,169.1009],[28.7196,51.861,165.6654],[28.733,51.8527,162.1444],[28.7508,51.847,155.6157],[28.7508,51.8442,154.3025],[28.7375,51.8228,134.8993],[28.7375,51.812,137.6523],[28.733,51.804,141.4773],[28.7419,51.8011,137.6757],[28.7419,51.8038,142.9771],[28.7464,51.8091,136.5283],[28.7552,51.809,133.7889],[28.7552,51.8144,146.3056],[28.7686,51.8196,134.5591],[28.7685,51.806,135.3917],[28.7774,51.8005,134.1425],[28.7863,51.8057,134.1485],[28.7863,51.8112,134.34],[28.7819,51.8167,133.9087],[28.7819,51.8248,137.6756],[28.7863,51.8274,147.4538],[28.7907,51.8273,136.482],[28.7952,51.8246,134.8416],[28.7996,51.8218,134.7888],[28.804,51.8163,134.8833],[28.804,51.8136,136.0235],[28.8084,51.8135,134.6282],[28.8262,51.824,135.0176],[28.8395,51.8293,148.5959],[28.8484,51.8291,136.6326],[28.8617,51.837,142.5868],[28.8661,51.8343,141.5553],[28.8661,51.8288,146.8946],[28.8705,51.826,151.0572],[28.8749,51.826,146.0277],[28.8927,51.8338,154.3573],[28.9016,51.8446,161.5737],[28.8972,51.8473,166.1445],[28.8928,51.8474,165.3015],[28.8839,51.8421,159.1741],[28.875,51.8422,149.9063],[28.8706,51.845,150.4668],[28.8707,51.864,160.8795],[28.8841,51.8773,156.9194],[28.8929,51.8718,165.4595],[28.9063,51.8716,144.7556],[28.9106,51.8607,168.0686],[28.915,51.8579,151.3223],[28.9194,51.8578,168.084],[28.9239,51.8605,158.3021],[28.9239,51.8659,145.7395],[28.9594,51.8654,135.6387],[28.9594,51.8681,135.2796],[28.9639,51.8734,154.9917],[28.9727,51.8652,134.5842],[28.9903,51.8568,159.9472],[28.9858,51.8542,142.7351],[28.9857,51.8487,142.239],[28.999,51.8458,142.4063],[29.0123,51.8538,149.0447],[29.0745,51.8691,144.2233],[29.0879,51.8798,148.2627],[29.088,51.8825,148.6884],[29.0968,51.8796,145.1903],[29.1058,51.8876,153.1936],[29.1281,51.8981,149.9034],[29.1325,51.898,162.0304],[29.1412,51.8898,160.131],[29.1544,51.8896,150.962],[29.1545,51.8923,149.1494],[29.1502,51.8978,158.5974],[29.1502,51.9005,148.2236],[29.1636,51.9057,162.4596],[29.168,51.9056,162.0142],[29.1678,51.8948,140.9485],[29.1766,51.892,143.9888],[29.1851,51.8783,147.7416],[29.176,51.8649,166.0903],[29.1713,51.8515,168.9608],[29.1712,51.846,169.1663],[29.1754,51.8406,152.9591],[29.1842,51.8404,156.564],[29.1841,51.835,166.7517],[29.1884,51.8322,162.862],[29.2059,51.8266,157.5046],[29.2238,51.8371,147.4711],[29.2107,51.84,159.0612],[29.2063,51.8428,157.0907],[29.2152,51.8454,156.7144],[29.2154,51.8508,158.6926],[29.2022,51.8537,166.9566],[29.2112,51.8617,146.0581],[29.2113,51.8644,151.3878],[29.2158,51.867,156.6841],[29.2291,51.8695,161.4193],[29.2334,51.8667,158.4306],[29.2333,51.8613,162.6581],[29.2288,51.8587,152.5865],[29.2375,51.8531,137.9487],[29.2464,51.8584,151.7446],[29.2465,51.8611,156.2598],[29.251,51.8638,152.9861],[29.2554,51.8637,155.6825],[29.2597,51.8609,155.153],[29.2552,51.8556,149.6766],[29.2595,51.8528,136.5948],[29.2815,51.8524,140.6685],[29.2817,51.8578,142.9077],[29.2906,51.8631,164.4354],[29.3166,51.8492,146.6659],[29.3253,51.8463,149.9439],[29.3343,51.8516,147.1318],[29.3387,51.8515,156.8987],[29.3517,51.8459,148.0182],[29.3741,51.8563,160.7024],[29.3831,51.8643,162.4062],[29.4711,51.8627,113.9976],[29.4754,51.8599,113.0785],[29.4709,51.8573,112.6915],[29.4617,51.8466,140.5471],[29.4703,51.8411,138.5743],[29.488,51.8461,113.6636],[29.4925,51.8488,114.4017],[29.4967,51.8433,114.6141],[29.501,51.8405,117.263],[29.5008,51.8351,114.3471],[29.4919,51.8326,113.3369],[29.4959,51.8217,112.5278],[29.5,51.8162,114.3139],[29.5045,51.8188,113.9006],[29.5048,51.8242,113.5252],[29.5182,51.8294,114.2775],[29.5267,51.8238,113.7379],[29.5263,51.813,112.765],[29.5345,51.7994,111.8766],[29.5606,51.7935,112.0131],[29.5694,51.7934,114.0854],[29.5739,51.796,112.0686],[29.5914,51.7929,112.5034],[29.5921,51.8091,112.4433],[29.5661,51.8204,113.7604],[29.5664,51.8258,113.6716],[29.5491,51.8342,113.7625],[29.5452,51.8451,114.4797],[29.5409,51.8479,114.9551],[29.5365,51.848,114.9855],[29.5323,51.8534,114.0659],[29.5331,51.875,114.5622],[29.5249,51.8887,119.7275],[29.5296,51.8968,113.2451],[29.5166,51.9024,126.4754],[29.5171,51.9159,117.037],[29.513,51.9241,114.1145],[29.4738,51.9411,140.6278],[29.4695,51.9439,116.9816],[29.4696,51.9466,113.6886],[29.4523,51.9577,119.5722],[29.4348,51.9634,114.1355],[29.4304,51.9635,116.0718],[29.4259,51.9609,115.0052],[29.3865,51.9778,113.8889],[29.3866,51.9805,115.7782],[29.3911,51.9831,116.2292],[29.3912,51.9858,126.8578],[29.3824,51.9887,118.4754],[29.3825,51.9914,133.3921],[29.3781,51.9941,122.3344],[29.3783,52.0022,131.9294],[29.374,52.0077,135.2962],[29.3785,52.0103,125.8944],[29.3963,52.0127,127.2407],[29.3964,52.0154,133.9586],[29.4011,52.0235,115.6648],[29.3751,52.0376,115.4957],[29.3619,52.0405,115.7031],[29.3358,52.0546,116.5159],[29.3363,52.0682,126.7646],[29.3234,52.0793,126.056],[29.3057,52.0823,125.0327],[29.2928,52.0934,128.0022],[29.284,52.0963,131.7439],[29.2665,52.1074,126.0665],[29.2622,52.113,124.5137],[29.2533,52.1131,121.1167],[29.2488,52.1105,117.0899],[29.2485,52.1023,118.5265],[29.235,52.0971,115.9618],[29.2262,52.0999,114.8478],[29.2264,52.1054,116.9093],[29.2089,52.1165,132.6142],[29.2091,52.1247,120.2845],[29.2003,52.1275,131.7218],[29.1914,52.1277,130.3109],[29.1826,52.1333,119.8457],[29.1738,52.1361,118.5223],[29.1518,52.15,133.7702],[29.1429,52.1502,127.2584],[29.1383,52.1475,123.3671],[29.1383,52.1448,117.3626],[29.1515,52.1392,115.7863],[29.1514,52.1364,122.4351],[29.1469,52.1338,115.5164],[29.1203,52.1396,116.1419],[29.1113,52.1398,115.5345],[29.1023,52.1372,115.5304],[29.0937,52.1482,116.5947],[29.0892,52.1483,116.6192],[29.0848,52.151,117.5291],[29.0713,52.1458,116.5071],[29.0621,52.1378,116.3449],[29.0532,52.1406,116.9482],[29.0353,52.1382,115.8088]]]]}}