{"type": "Feature","bbox": [25.4613,53.8025,26.4343,54.2594],"geometry": {"type": "MultiPolygon","coordinates": [[[[25.7766,54.2561,203.9968],[25.7854,54.2511,207.5475],[25.7856,54.2483,213.2818],[25.7983,54.2489,218.7472],[25.7986,54.2435,229.0114],[25.7659,54.2312,198.259],[25.7703,54.2259,191.1862],[25.7662,54.2258,195.0744],[25.7702,54.2232,192.1041],[25.7743,54.2233,202.206],[25.7742,54.2178,199.9999],[25.7784,54.218,194.5143],[25.7783,54.2152,192.9752],[25.7825,54.2154,178.5266],[25.7909,54.2104,185.4839],[25.7866,54.2074,188.5875],[25.7908,54.2076,184.8645],[25.7907,54.2021,186.3247],[25.782,54.1934,163.3216],[25.7905,54.1883,197.5009],[25.7902,54.1773,178.144],[25.7946,54.1748,168.8581],[25.7991,54.1749,167.4132],[25.7945,54.1664,172.0731],[25.79,54.1634,172.2639],[25.79,54.1663,162.0825],[25.7855,54.1661,170.4245],[25.79,54.169,165.3038],[25.7857,54.1689,172.5946],[25.7858,54.1716,166.1617],[25.7771,54.1713,179.9941],[25.777,54.1685,174.9408],[25.7493,54.1698,173.3202],[25.7488,54.1642,172.4508],[25.7443,54.1667,173.8775],[25.7446,54.1695,173.8668],[25.74,54.172,165.7298],[25.7353,54.1717,168.3401],[25.7262,54.1767,174.6648],[25.7121,54.1758,174.6543],[25.7167,54.1733,166.6774],[25.7165,54.1706,161.7352],[25.7115,54.1675,185.6454],[25.7109,54.1618,173.5025],[25.7064,54.1644,184.354],[25.7017,54.1641,166.6411],[25.7014,54.1613,177.6743],[25.697,54.1638,166.5362],[25.6959,54.1525,173.9269],[25.6907,54.1466,169.617],[25.6717,54.1454,184.5346],[25.6568,54.1389,177.2278],[25.6566,54.1361,177.7686],[25.6515,54.133,182.5685],[25.6423,54.1353,180.4216],[25.6421,54.1325,178.0157],[25.6328,54.1348,182.8585],[25.6333,54.1403,181.8914],[25.6285,54.1401,182.6261],[25.6288,54.1429,183.3302],[25.6339,54.1459,174.5913],[25.6054,54.1443,174.5386],[25.606,54.1499,181.7109],[25.5918,54.1491,177.8979],[25.5735,54.1536,175.9972],[25.5688,54.1534,177.3979],[25.5686,54.1506,178.635],[25.5591,54.1475,202.6789],[25.5551,54.1554,208.1908],[25.5456,54.1523,197.1607],[25.5497,54.1444,199.7403],[25.5496,54.1417,204.8691],[25.5401,54.1359,190.4134],[25.5265,54.1381,196.8261],[25.5173,54.1378,186.7641],[25.5126,54.1349,198.8438],[25.5124,54.1295,196.3234],[25.5215,54.1271,201.5138],[25.5213,54.1217,199.7397],[25.512,54.1159,197.432],[25.5119,54.1105,187.9949],[25.5301,54.0975,193.3517],[25.5301,54.0948,196.1038],[25.5209,54.089,188.2631],[25.498,54.0854,190.0373],[25.4934,54.088,185.6858],[25.4797,54.0876,195.2771],[25.4705,54.0818,178.8904],[25.4613,54.0815,178.7206],[25.4613,54.0787,180.9669],[25.4659,54.0734,197.946],[25.4613,54.0678,187.538],[25.4614,54.0623,184.6772],[25.4889,54.0495,183.1245],[25.4844,54.0411,175.9555],[25.4844,54.0384,175.1939],[25.4754,54.0325,166.3906],[25.4617,54.0293,193.0524],[25.4664,54.024,189.1005],[25.4664,54.0213,180.6219],[25.4756,54.0188,164.1049],[25.4762,53.9941,138.4753],[25.4809,53.9915,138.7386],[25.4946,53.992,139.9266],[25.4993,53.9894,150.1181],[25.5085,53.9897,138.6385],[25.5133,53.9871,137.7934],[25.5181,53.9818,156.9239],[25.5138,53.9762,178.5733],[25.5139,53.9734,165.7158],[25.5188,53.9681,166.6277],[25.5331,53.9604,154.5688],[25.5425,53.958,151.7261],[25.5427,53.9552,152.1323],[25.5292,53.9465,151.4709],[25.5294,53.9438,147.8635],[25.5438,53.9361,158.9039],[25.5531,53.9364,152.9173],[25.5582,53.9284,152.7745],[25.5592,53.912,148.1788],[25.5688,53.9068,130.6375],[25.5827,53.9073,131.9198],[25.5875,53.9047,141.2757],[25.5887,53.8856,128.7688],[25.5843,53.8827,129.5647],[25.5796,53.8825,130.414],[25.5755,53.8742,132.9876],[25.5666,53.8684,131.9045],[25.5671,53.8603,133.8286],[25.5721,53.855,128.2437],[25.5725,53.8495,128.1798],[25.568,53.8466,131.7709],[25.5684,53.8412,131.7586],[25.5826,53.8362,151.0619],[25.5876,53.8309,142.1527],[25.5836,53.8225,128.6404],[25.6115,53.8207,133.4275],[25.6158,53.8263,125.2313],[25.6248,53.8293,124.056],[25.6341,53.8296,126.7426],[25.6386,53.8325,130.0071],[25.6384,53.8352,134.5815],[25.6338,53.8351,134.2552],[25.6241,53.8402,134.7885],[25.6286,53.8431,136.228],[25.6379,53.8434,128.0645],[25.6559,53.8522,128.4223],[25.6699,53.8527,126.6525],[25.6747,53.8501,130.8897],[25.6613,53.8415,133.7827],[25.6521,53.8384,126.4836],[25.6527,53.8302,135.6421],[25.6619,53.8305,141.8264],[25.6754,53.8392,138.4894],[25.6801,53.8393,145.7742],[25.6849,53.8368,144.9415],[25.6851,53.834,146.0173],[25.6671,53.8225,142.5045],[25.6673,53.8198,132.7969],[25.6814,53.8175,133.4293],[25.6863,53.8149,132.8452],[25.6864,53.8122,132.4974],[25.6913,53.8096,131.7521],[25.7003,53.8153,152.4788],[25.7001,53.8181,156.4604],[25.7044,53.8237,157.1519],[25.7039,53.8319,156.4975],[25.7084,53.8348,141.6199],[25.7133,53.8322,157.0348],[25.7179,53.8324,154.2876],[25.7225,53.8353,144.3173],[25.7223,53.838,158.5188],[25.7265,53.8464,142.6744],[25.7356,53.8522,140.0544],[25.7353,53.8577,141.3731],[25.7398,53.8606,129.2023],[25.7397,53.8633,127.6442],[25.7444,53.8635,129.6801],[25.7494,53.8582,144.6038],[25.75,53.8472,147.5104],[25.7549,53.8446,152.6234],[25.7596,53.8448,152.6904],[25.764,53.8504,147.7253],[25.7686,53.8533,139.62],[25.7826,53.8566,142.4776],[25.8069,53.8437,133.0203],[25.8259,53.8416,150.0313],[25.8449,53.8423,144.1114],[25.8593,53.8401,146.1275],[25.8737,53.8351,132.0358],[25.8738,53.8324,132.8621],[25.8787,53.8298,139.3714],[25.8834,53.83,138.5114],[25.8833,53.8327,134.1141],[25.8928,53.8331,129.0165],[25.8976,53.8305,128.6345],[25.8979,53.8222,129.0296],[25.9029,53.8168,131.731],[25.903,53.8141,133.1515],[25.9124,53.8144,128.9602],[25.9268,53.8094,148.3159],[25.9456,53.8128,129.3603],[25.9457,53.81,147.4326],[25.9504,53.8102,136.2464],[25.9505,53.8074,146.3548],[25.9553,53.8048,150.9246],[25.96,53.8077,150.0585],[25.9695,53.8052,130.1727],[25.9696,53.8025,129.5943],[25.9743,53.8026,130.841],[25.979,53.8056,129.9962],[25.9788,53.8111,138.1098],[25.988,53.8169,139.5112],[25.9975,53.8172,137.1959],[26.0071,53.812,136.5905],[26.0306,53.8127,139.2275],[26.045,53.8048,142.4622],[26.0544,53.8051,131.1022],[26.0684,53.8082,149.578],[26.1012,53.809,147.649],[26.1058,53.8119,140.6379],[26.1057,53.8146,151.9188],[26.1103,53.8175,149.8108],[26.1197,53.8177,149.5988],[26.1381,53.8263,146.3916],[26.1659,53.8296,138.3242],[26.2123,53.8303,147.0292],[26.2213,53.8359,147.0815],[26.2444,53.8363,149.6137],[26.2535,53.8391,154.2238],[26.2534,53.8418,152.9731],[26.234,53.8635,141.2749],[26.2338,53.868899999999996,152.1385],[26.2383,53.8717,155.6947],[26.2429,53.8718,150.5197],[26.2477,53.8664,146.5058],[26.2616,53.8665,145.2095],[26.2661,53.8693,146.6263],[26.2658,53.8748,153.3463],[26.2748,53.8803,150.418],[26.2841,53.8804,153.3777],[26.2888,53.8777,145.8841],[26.2892,53.8695,142.057],[26.2985,53.8669,147.2442],[26.3076,53.8724,145.5259],[26.3165,53.8834,149.2279],[26.3256,53.8861,152.0724],[26.3255,53.8889,150.6395],[26.3346,53.8944,151.3251],[26.3437,53.8972,154.0857],[26.3761,53.8973,156.6715],[26.3807,53.9001,143.8102],[26.3804,53.9055,146.8269],[26.366,53.9191,165.2159],[26.3612,53.9218,156.1013],[26.361,53.9273,151.8053],[26.3655,53.93,155.4271],[26.4161,53.9385,149.6358],[26.4253,53.9412,153.2846],[26.4343,53.9467,156.2587],[26.4339,53.9576,156.6998],[26.4239,53.9767,147.9914],[26.4191,53.9794,159.6438],[26.419,53.9821,158.0437],[26.4143,53.9848,152.1462],[26.3997,54.0011,163.104],[26.3904,54.0011,154.8136],[26.3766,53.9983,153.1534],[26.3582,53.9927,144.8089],[26.3538,53.9872,144.406],[26.3354,53.9817,143.5419],[26.3215,53.9816,142.4297],[26.3213,53.9843,158.521],[26.3167,53.9843,151.0472],[26.321,53.9925,145.3106],[26.3301,53.998,149.1495],[26.3342,54.009,150.1356],[26.334,54.0144,156.3677],[26.3291,54.0198,159.9389],[26.3289,54.0253,157.0375],[26.3333,54.0308,148.3542],[26.3226,54.0607,166.4425],[26.3178,54.0634,148.808],[26.3039,54.0606,146.3292],[26.281,54.0523,146.478],[26.2672,54.0495,146.3195],[26.2491,54.0412,146.5902],[26.2448,54.0357,155.3649],[26.2357,54.0329,158.7391],[26.1898,54.027,149.4964],[26.1757,54.0323,142.16],[26.1707,54.0404,147.3344],[26.1659,54.0431,147.7674],[26.1609,54.0513,158.0322],[26.1504,54.0785,175.5121],[26.1501,54.084,178.5639],[26.1452,54.0894,179.7365],[26.1496,54.0949,167.2046],[26.149,54.1058,188.9997],[26.1301,54.1138,184.7025],[26.1294,54.1302,184.8038],[26.1425,54.1467,183.9646],[26.1515,54.1522,170.8051],[26.1513,54.155,164.3191],[26.1418,54.1603,164.1358],[26.1278,54.163,166.4652],[26.1188,54.1574,174.8311],[26.0909,54.1599,187.7407],[26.0914,54.149,182.3157],[26.0962,54.1463,177.9404],[26.1107,54.1328,172.8488],[26.111,54.1273,173.9811],[26.102,54.1218,170.1569],[26.0552,54.1323,176.3476],[26.0363,54.1403,185.5481],[26.0171,54.1538,190.3733],[26.0163,54.1702,211.7617],[26.0021,54.1756,194.8994],[26.0061,54.1866,176.7756],[26.006,54.1893,184.5105],[26.0011,54.1947,194.7065],[25.9963,54.1974,200.3414],[25.987,54.1973,207.9186],[25.982,54.2055,199.6431],[25.9726,54.2081,201.507],[25.9541,54.208,210.4578],[25.9443,54.2188,187.7277],[25.9164,54.224,199.0129],[25.9071,54.2294,186.9964],[25.9068,54.2349,187.0769],[25.9021,54.2376,205.3739],[25.8976,54.2375,193.5834],[25.8933,54.232,187.7879],[25.8887,54.2319,188.0335],[25.884,54.2346,189.1815],[25.8839,54.2374,189.8712],[25.8793,54.2401,191.1966],[25.8789,54.2483,223.1346],[25.8833,54.2511,214.3883],[25.8694,54.2564,219.6836],[25.8603,54.2562,211.4924],[25.8559,54.2534,226.5994],[25.8514,54.2533,223.8301],[25.8421,54.2586,226.0073],[25.8288,54.2555,217.1988],[25.8109,54.2576,198.1533],[25.7979,54.2571,194.2629],[25.7892,54.2594,195.9323],[25.7766,54.2561,203.9968]]]]}
,"properties": {"GID_2": "BLR.3.6_1","GID_0": "BLR","country": "Belarus","GID_1": "BLR.3_1","province": "Grodno","NL_NAME_1": "Гродзенская","county": "Iwye","VARNAME_2": "Ivye","NL_NAME_2": "Іўеўскіраён","TYPE_2": "Raion","ENGTYPE_2": "District","CC_2": "NA","HASC_2": "BY.HR.IY","name": "Iwye.county","area_km2": 1900.538,"hist_schema_id": "Elevation0-9000","hist_area_km2": {"125": 204.545,"150": 1009.331,"175": 534.295,"200": 122.347,"225": 27.951,"250": 2.07}}}