{"type":"Feature","properties":{"featurecla":"Lake","scalerank":9,"name":"null587","name_abb":null,"name_alt":null,"note":"_untitled_152","delta":null,"dam_name":null,"year":-99,"admin":null,"min_zoom":7.0,"min_label":8.0},
"geometry":{"type": "Polygon","coordinates": [[[29.103638079321371,54.693851691517636,163.5],[29.082738226295049,54.7047431642215,168.2283],[29.078028400260933,54.713574088035443,163.5],[29.066548199302787,54.710041718509871,166.0525],[29.041821612623721,54.693851691517636,166.9845],[29.061249645014414,54.68825877310212,169.7439],[29.069197476446988,54.687670044847863,165.9633],[29.064487650412872,54.6785447569068,163.5],[29.058894731997384,54.672068746109886,163.5],[29.051535628819067,54.667947648330056,163.5],[29.041821612623721,54.667064555948656,183.4207],[29.046531438657837,54.655878719117652,163.5],[29.048297623420638,54.644398518159505,189.2711],[29.04682580278498,54.6340957737099,194.4556],[29.041821612623721,54.626147942277356,191.7],[29.05094690056481,54.61555083370061,175.7024],[29.062132737395814,54.619671931480468,165.5911],[29.082738226295049,54.639688692125418,163.5],[29.11865064980509,54.656467447371909,163.5],[29.124243568220606,54.66323782229594,163.5],[29.11776755742369,54.681782762305232,163.5],[29.103638079321371,54.693851691517636,163.5]]]}}