{"type": "Feature","bbox": [29.4012,54.6158,30.4755,55.0304],"geometry": {"type": "MultiPolygon","coordinates": [[[[30.4699,54.7819,186.7211],[30.4752,54.7927,177.0226],[30.4755,54.7982,172.5384],[30.4718,54.8148,181.9662],[30.4625,54.8178,188.4294],[30.4583,54.8261,182.7953],[30.4504,54.8538,186.2279],[30.4611,54.8755,178.1781],[30.4617,54.8865,168.9739],[30.4288,54.8874,164.5967],[30.4148,54.8905,171.6164],[30.4012,54.8991,166.0119],[30.3825,54.9023,154.0041],[30.3539,54.8946,159.5218],[30.3446,54.8949,160.2097],[30.3121,54.9011,154.6123],[30.2751,54.9128,157.8758],[30.2149,54.9277,162.3865],[30.1954,54.9143,162.2805],[30.1859,54.9117,164.5384],[30.1814,54.9145,156.5241],[30.1867,54.9282,150.7929],[30.1871,54.9365,146.9126],[30.1779,54.9394,163.8136],[30.1684,54.9368,148.857],[30.159,54.9369,150.8917],[30.1451,54.9427,151.3701],[30.1454,54.9482,150.4265],[30.1602,54.9618,154.2012],[30.1556,54.9646,160.6404],[30.1182,54.9679,156.3259],[30.1042,54.9709,156.3888],[30.0863,54.9905,153.8454],[30.0438,54.9883,157.0912],[30.0392,54.9912,165.6895],[30.0396,54.9994,166.3558],[30.045,55.0132,159.8207],[30.0404,55.016,157.9541],[30.0264,55.0189,158.2971],[30.0126,55.0274,162.1231],[29.9933,55.0166,174.8398],[29.9931,55.0139,179.4491],[29.9834,55.0085,171.7409],[29.9837,55.014,165.967],[29.9887,55.0194,166.7952],[29.9888,55.0222,164.4763],[29.9938,55.0276,171.4537],[29.9939,55.0304,171.7629],[29.9795,55.0251,164.5694],[29.9744,55.0169,165.624],[29.9647,55.0115,155.9825],[29.9641,54.9977,169.9996],[29.9593,54.9977,160.8453],[29.9591,54.9922,169.3184],[29.973,54.9865,158.6838],[29.9729,54.9838,157.4375],[29.968,54.9811,162.2433],[29.9444,54.9814,173.5281],[29.9206,54.9761,201.394],[29.9156,54.9707,184.164],[29.9013,54.9681,170.9762],[29.8826,54.9711,167.6569],[29.8491,54.9632,168.5304],[29.8445,54.966,164.6675],[29.8447,54.9688,155.1055],[29.8495,54.9715,155.7997],[29.8685,54.974,165.6498],[29.8735,54.9795,169.5891],[29.8736,54.9822,166.1439],[29.8644,54.9878,164.8574],[29.8505,54.9935,160.1735],[29.8458,54.9936,163.1921],[29.8461,55.0018,167.6193],[29.8368,55.0047,169.3749],[29.8371,55.0102,174.9117],[29.8277,55.0131,157.8491],[29.8374,55.0185,163.0133],[29.8328,55.0213,164.3435],[29.7997,55.0217,143.4194],[29.7991,55.0079,131.4894],[29.8036,55.0023,130.5],[29.8082,54.9995,130.5],[29.8221,54.9938,136.7806],[29.8266,54.9883,154.3053],[29.8265,54.9855,153.8752],[29.8215,54.9801,137.78],[29.8167,54.9774,164.8994],[29.7982,54.9886,147.8498],[29.7657,55.0027,144.9996],[29.7658,55.0055,143.9833],[29.7612,55.0083,144.619],[29.7518,55.0084,133.3348],[29.7469,55.0057,151.762],[29.7745,54.9861,145.2527],[29.7744,54.9834,157.984],[29.7552,54.9781,148.3697],[29.7457,54.9782,143.0301],[29.746,54.9837,143.1411],[29.7366,54.9865,149.2091],[29.7272,54.9866,151.1424],[29.7223,54.9839,150.1654],[29.7217,54.9702,144.7381],[29.7168,54.9647,144.0336],[29.7166,54.962,144.2169],[29.6927,54.9567,138.015],[29.6881,54.9595,148.0826],[29.6884,54.965,139.4076],[29.6837,54.9678,145.0533],[29.6695,54.968,150.9393],[29.6599,54.9653,140.5246],[29.6598,54.9626,142.1509],[29.6497,54.9461,155.3574],[29.6448,54.9434,153.4013],[29.6447,54.9407,153.9679],[29.6398,54.9352,154.4566],[29.6251,54.9244,150.2789],[29.6156,54.9245,145.0397],[29.6061,54.9218,144.3521],[29.6056,54.9108,145.6962],[29.577,54.9057,142.284],[29.5673,54.9003,141.5172],[29.5294,54.9007,151.6852],[29.5246,54.898,147.4876],[29.5245,54.8952,149.5324],[29.5195,54.8898,145.4911],[29.4908,54.8818,158.5269],[29.4717,54.8793,158.2115],[29.4621,54.8739,151.3313],[29.4332,54.8632,155.6953],[29.438,54.8631,156.2934],[29.4378,54.8577,156.6139],[29.4186,54.8496,137.8566],[29.4042,54.847,146.52],[29.4039,54.836,153.1429],[29.4132,54.8332,149.9741],[29.4177,54.8249,145.2368],[29.417,54.8057,150.1467],[29.4121,54.8002,144.8652],[29.4119,54.7947,145.8456],[29.402,54.7811,156.9519],[29.4064,54.7728,152.0352],[29.406,54.7591,158.0504],[29.4012,54.7564,155.4467],[29.4102,54.7453,165.2512],[29.4433,54.745,163.6623],[29.4526,54.7421,177.1559],[29.4662,54.7255,173.0465],[29.4803,54.7226,174.6685],[29.4944,54.7224,172.2511],[29.4993,54.7251,174.3034],[29.5181,54.7249,175.4109],[29.5274,54.7193,186.3394],[29.5273,54.7166,187.5403],[29.5225,54.7139,175.878],[29.522,54.7029,172.5773],[29.5266,54.6974,179.0622],[29.5407,54.6972,192.8871],[29.5453,54.6944,201.7635],[29.5403,54.6862,181.4612],[29.5399,54.6753,193.8027],[29.5583,54.6641,187.6404],[29.5534,54.6587,187.0369],[29.5533,54.6559,188.6461],[29.5578,54.6504,186.0561],[29.5624,54.6476,182.3698],[29.5575,54.6422,182.9266],[29.5527,54.6395,183.0225],[29.548,54.6395,183.1622],[29.5432,54.6369,182.8974],[29.543,54.6314,186.9312],[29.5477,54.6313,184.053],[29.5474,54.6231,192.6586],[29.552,54.6203,186.002],[29.5568,54.6203,187.3754],[29.5854,54.6309,196.8574],[29.5995,54.6307,197.3522],[29.6086,54.6224,194.2782],[29.6134,54.6251,190.8386],[29.6135,54.6278,199.1819],[29.6279,54.6359,202.6651],[29.6374,54.6385,188.8824],[29.642,54.6357,190.2368],[29.6462,54.6219,195.2585],[29.6698,54.6244,199.2784],[29.6888,54.6297,195.9893],[29.6935,54.6296,205.282],[29.6981,54.6268,220.9842],[29.6979,54.6213,238.1378],[29.6932,54.6214,232.4196],[29.6931,54.6186,233.8742],[29.6977,54.6158,246.3912],[29.7026,54.6213,228.5654],[29.7027,54.624,209.1673],[29.7075,54.6267,220.1803],[29.7077,54.6322,247.0382],[29.7125,54.6349,248.3809],[29.7219,54.6348,229.3931],[29.7263,54.6265,237.655],[29.7355,54.6209,253.8186],[29.7544,54.6234,277.9134],[29.7592,54.6261,260.4932],[29.7641,54.6315,256.344],[29.7735,54.6314,266.2369],[29.7733,54.6259,262.2393],[29.7826,54.623,257.2515],[29.8015,54.6255,236.407],[29.816,54.6363,245.9259],[29.8207,54.6363,255.4326],[29.8252,54.6307,242.9928],[29.839,54.6251,227.0864],[29.8484,54.6249,220.937],[29.8532,54.6276,205.0418],[29.8535,54.6331,201.7326],[29.8722,54.6329,188.2664],[29.8862,54.6299,198.7471],[29.891,54.6326,199.3354],[29.8911,54.6354,202.07],[29.9005,54.6353,196.7548],[29.9051,54.6324,196.9089],[29.9147,54.6378,200.2],[29.9246,54.6487,206.6786],[29.9294,54.6513,214.9272],[29.9763,54.6507,213.3938],[29.9809,54.6479,217.9499],[29.9806,54.6424,211.2003],[29.9852,54.6396,206.4115],[29.9899,54.6395,221.7599],[29.9995,54.6449,201.2112],[30.0046,54.6531,201.4864],[30.0188,54.6556,206.4815],[30.0373,54.6498,206.585],[30.0462,54.6415,215.8806],[30.0556,54.6413,219.3452],[30.0698,54.6439,210.1147],[30.1031,54.6544,216.7396],[30.1499,54.6536,217.2569],[30.1641,54.6561,228.6209],[30.1833,54.6668,205.5481],[30.1979,54.6776,204.8533],[30.2072,54.6774,203.9768],[30.2299,54.6633,234.9095],[30.2393,54.6631,236.384],[30.2394,54.6659,235.5731],[30.2349,54.6687,229.7089],[30.2171,54.6882,216.9142],[30.208,54.6939,218.2539],[30.2034,54.694,219.5012],[30.1852,54.7053,189.255],[30.1855,54.7108,186.2454],[30.1904,54.7162,180.6188],[30.2097,54.7268,194.4381],[30.2055,54.7379,195.1597],[30.2103,54.7406,194.6063],[30.2245,54.7431,191.7585],[30.2336,54.7374,181.6566],[30.252,54.7316,185.8389],[30.2569,54.7343,194.1938],[30.2852,54.7392,189.9106],[30.2901,54.7446,187.5377],[30.2904,54.7501,185.6327],[30.2816,54.7613,181.1078],[30.2866,54.7667,192.3393],[30.2959,54.7665,187.2043],[30.3149,54.7716,175.0564],[30.3197,54.7743,175.7153],[30.3203,54.7853,195.606],[30.3252,54.7907,179.3679],[30.3347,54.7932,174.9181],[30.3397,54.7986,171.271],[30.3398,54.8014,156.5],[30.3355,54.8097,166.6752],[30.3358,54.8152,190.4041],[30.3408,54.8206,189.8975],[30.3596,54.823,180.1513],[30.3687,54.8173,188.2582],[30.3683,54.809,189.8447],[30.3905,54.7865,188.4234],[30.4045,54.7862,181.903],[30.4136,54.7805,191.9527],[30.4323,54.7801,187.0464],[30.4465,54.7825,192.0187],[30.4699,54.7819,186.7211]]]]}
,"properties": {"GID_2": "BLR.6.17_1","GID_0": "BLR","country": "Belarus","GID_1": "BLR.6_1","province": "Vitebsk","NL_NAME_1": "Вiцебская","county": "Syanno","VARNAME_2": "Senno","NL_NAME_2": "Сенненскіраён","TYPE_2": "Raion","ENGTYPE_2": "District","CC_2": "NA","HASC_2": "BY.VI.SE","name": "Syanno.county","area_km2": 1942.462,"hist_schema_id": "Elevation0-9000","hist_area_km2": {"125": 4.892,"150": 566.409,"175": 691.068,"200": 408.207,"225": 199.313,"250": 64.77,"275": 7.299,"300": 0.503}}}