{"type":"Feature","properties":{"GID_2":"BLR.2.5_1","GID_0":"BLR","country":"Belarus","GID_1":"BLR.2_1","province":"Gomel","NL_NAME_1":"Гомельская","county":"Dobruš","VARNAME_2":"Dobrush","NL_NAME_2":"Добрушскіраён","TYPE_2":"Raion","ENGTYPE_2":"District","CC_2":"NA","HASC_2":"BY.HO.DB","name":"Dobruš.county"},
"geometry":{"type": "MultiPolygon","coordinates": [[[[31.5489,52.6457,137.3355],[31.5187,52.629,136.7857],[31.5221,52.6206,137.8213],[31.5305,52.6124,133.753],[31.53,52.6095,140.5923],[31.5245,52.6063,138.6108],[31.5095,52.6058,137.4355],[31.4956,52.6114,136.7632],[31.4906,52.6115,144.1126],[31.4852,52.6088,145.7072],[31.4607,52.6096,144.2734],[31.4554,52.6071,150.3877],[31.4546,52.6015,161.8771],[31.4671,52.5869,145.6087],[31.4309,52.5719,136.6406],[31.4354,52.5688,152.0943],[31.4647,52.5701,146.017],[31.474,52.5669,148.9193],[31.4736,52.5642,150.992],[31.4684,52.5616,155.0519],[31.4295,52.5608,148.4032],[31.4243,52.5583,146.0059],[31.4239,52.5555,148.0928],[31.428,52.5497,158.8207],[31.4272,52.5442,165.384],[31.4067,52.5343,149.4863],[31.3968,52.5322,147.3427],[31.378,52.5362,131.9618],[31.3541,52.5379,129.4263],[31.3405,52.5445,133.0159],[31.3218,52.5487,134.7957],[31.2785,52.5493,129.6559],[31.2734,52.5469,127.0881],[31.2775,52.541,127.7478],[31.2721,52.5358,126.7976],[31.2619,52.531,125.2197],[31.2612,52.5254,124.6112],[31.2792,52.5156,127.0903],[31.2966,52.5003,140.7018],[31.3007,52.4944,161.5843],[31.2956,52.492,163.7297],[31.2718,52.4938,128.2769],[31.2619,52.4918,126.6966],[31.2102,52.4622,139.8658],[31.1819,52.4617,124.4668],[31.1723,52.4569,141.448],[31.1782,52.4339,123.2888],[31.1774,52.4284,122.5126],[31.171,52.4149,121.3338],[31.1797,52.4086,120.8392],[31.179,52.4031,121.8409],[31.1736,52.3979,122.2736],[31.1716,52.3813,135.0839],[31.1815,52.3833,146.6006],[31.1859,52.3802,136.4477],[31.1849,52.3719,144.1423],[31.1957,52.3405,166.0069],[31.1899,52.3325,143.9557],[31.217,52.3167,145.3944],[31.2167,52.314,145.7096],[31.2065,52.3091,148.8418],[31.1842,52.2829,133.0053],[31.1887,52.2798,142.3966],[31.1983,52.2792,137.0839],[31.2027,52.2761,131.9825],[31.2024,52.2734,136.0695],[31.1976,52.2737,139.1147],[31.1871,52.2661,152.486],[31.1817,52.2609,158.6036],[31.1814,52.2582,145.3633],[31.2006,52.2569,146.1085],[31.2003,52.2542,145.6939],[31.1849,52.2469,143.6447],[31.1795,52.2417,143.0584],[31.1654,52.2454,142.5759],[31.1516,52.2518,143.8087],[31.1465,52.2494,143.0846],[31.1482,52.2216,141.4005],[31.172,52.2173,151.6545],[31.1913,52.2162,166.9737],[31.2196,52.209,164.1367],[31.2434,52.2049,146.9884],[31.2527,52.2016,159.1281],[31.2814,52.1973,164.7125],[31.2907,52.1941,150.5731],[31.3405,52.1623,162.567],[31.3535,52.1484,161.0678],[31.3533,52.1458,160.0214],[31.3482,52.1408,138.3153],[31.3337,52.1387,149.6936],[31.3335,52.1361,165.9384],[31.3572,52.1353,138.946],[31.38,52.1268,152.671],[31.3813,52.1357,160.2104],[31.4437,52.1375,147.4373],[31.4527,52.1329,148.6902],[31.4603,52.1235,153.7924],[31.4796,52.1193,144.7624],[31.531,52.126,147.6063],[31.5606,52.1215,151.9491],[31.5704,52.1158,153.1287],[31.6819,52.1147,142.9816],[31.7011,52.1086,140.6422],[31.721,52.1085,140.5457],[31.7401,52.1025,148.6593],[31.7597,52.1023,149.5264],[31.7811,52.114,148.8084],[31.7896,52.1082,148.7112],[31.7964,52.112,149.8243],[31.8012,52.1173,159.7268],[31.8012,52.1305,154.667],[31.7869,52.1411,155.3546],[31.7868,52.149,156.5143],[31.782,52.157,156.3263],[31.7868,52.1649,149.3928],[31.7867,52.1754,151.198],[31.7818,52.1807,149.3333],[31.7724,52.1862,141.3186],[31.729,52.1889,156.1829],[31.6897,52.1832,166.3303],[31.6897,52.1859,158.2882],[31.6802,52.1912,159.5236],[31.6815,52.2018,163.3446],[31.6872,52.2129,155.4154],[31.6972,52.2212,159.8109],[31.6982,52.2294,158.927],[31.6953,52.2428,154.8846],[31.6959,52.2483,155.9695],[31.6923,52.2563,152.9057],[31.7066,52.2621,132.606],[31.7076,52.2702,134.3985],[31.6856,52.2777,135.9464],[31.6467,52.2746,134.4998],[31.6354,52.287,135.3424],[31.6229,52.2858,135.6345],[31.6146,52.2877,136.0856],[31.6029,52.2974,134.6431],[31.5983,52.2973,134.7574],[31.5946,52.3025,133.9141],[31.5959,52.3134,133.1001],[31.6141,52.3257,134.7254],[31.6174,52.3621,170.3245],[31.6237,52.3848,177.8342],[31.6255,52.4045,152.6492],[31.6218,52.4099,157.2629],[31.6179,52.4125,157.0878],[31.6095,52.4124,146.1383],[31.605,52.4096,143.2199],[31.6006,52.4097,145.5039],[31.5924,52.4157,164.5437],[31.5933,52.4242,142.1058],[31.5862,52.4415,159.8979],[31.5909,52.4441,157.9822],[31.5959,52.4495,143.31],[31.6049,52.452,144.7442],[31.6097,52.4576,139.909],[31.615,52.4688,137.8653],[31.6158,52.4773,140.0332],[31.6124,52.4859,149.9865],[31.6003,52.4918,156.2659],[31.5873,52.4923,154.9159],[31.5747,52.4984,141.5243],[31.576,52.5097,128.7071],[31.5811,52.5151,130.776],[31.6027,52.5144,128.6396],[31.6075,52.5199,135.4283],[31.6057,52.5422,136.7941],[31.6103,52.5447,142.3757],[31.6184,52.5414,147.2803],[31.6256,52.5299,146.9536],[31.6334,52.5239,139.2908],[31.642,52.5262,142.5456],[31.6467,52.5315,151.7625],[31.6475,52.5398,167.1462],[31.6655,52.553,154.2453],[31.6577,52.5589,154.4418],[31.6448,52.5538,146.9651],[31.6365,52.5542,155.6376],[31.6285,52.5574,139.4167],[31.6094,52.5752,131.0127],[31.5847,52.5823,135.1484],[31.5727,52.5914,133.906],[31.5694,52.6,131.9452],[31.572,52.6221,135.5188],[31.5689,52.6335,133.758],[31.5607,52.6367,135.5228],[31.5489,52.6457,137.3355]]]]}}