{"type": "Feature","bbox": [27.4023,54.0581,28.2621,54.682],"geometry": {"type": "MultiPolygon","coordinates": [[[[28.0133,54.5831,255.7738],[28.0181,54.5886,253.1156],[28.0133,54.5913,250.9973],[27.9991,54.5886,259.136],[27.9944,54.5941,262.5779],[28.0039,54.605,245.88],[28.0086,54.6077,266.1613],[27.9992,54.6104,258.1221],[27.9566,54.6106,232.8761],[27.9471,54.6051,239.8223],[27.9187,54.6052,219.4121],[27.8997,54.6134,222.2825],[27.8997,54.618899999999996,220.5639],[27.9045,54.6243,221.8749],[27.9045,54.6271,212.7204],[27.895,54.6353,206.4744],[27.8855,54.638,204.7744],[27.8808,54.638,214.5553],[27.8571,54.6163,206.4455],[27.8524,54.6136,206.8275],[27.8429,54.6136,215.3623],[27.8334,54.6163,195.6809],[27.8098,54.6082,196.9427],[27.7861,54.6082,191.5736],[27.7766,54.611,193.0921],[27.7623,54.6246,196.7738],[27.7671,54.6301,207.1914],[27.7671,54.6328,217.0927],[27.7528,54.6383,191.0665],[27.7528,54.6437,197.5352],[27.7575,54.6492,206.0563],[27.7528,54.6519,189.7916],[27.7433,54.6519,203.1455],[27.7338,54.6574,183.4439],[27.729,54.6629,188.9118],[27.7243,54.6656,190.7219],[27.7195,54.6656,187.7787],[27.7147,54.6711,189.5689],[27.7147,54.6738,175.513],[27.7005,54.682,174.7621],[27.691,54.682,174.7239],[27.6768,54.6766,177.8391],[27.6721,54.6711,172.8159],[27.6437,54.6548,179.8899],[27.6296,54.6439,172.9708],[27.6107,54.6385,171.3073],[27.606,54.6303,175.6393],[27.6108,54.6167,181.3098],[27.6061,54.6112,170.626],[27.5967,54.6085,188.6526],[27.5825,54.6085,187.2184],[27.573,54.6031,184.7327],[27.5778,54.6031,179.6601],[27.5731,54.5976,189.7341],[27.5684,54.5949,186.8158],[27.5542,54.5922,192.848],[27.5212,54.5813,182.6974],[27.4975,54.5814,170.5869],[27.474,54.5705,178.2369],[27.4598,54.5705,177.8894],[27.4457,54.5677,173.7104],[27.441,54.5623,178.6116],[27.441,54.5596,180.6162],[27.4458,54.5569,184.9298],[27.4505,54.5568,184.2883],[27.4506,54.5514,197.5752],[27.4411,54.5487,178.2944],[27.4365,54.5378,195.7438],[27.4556,54.5269,204.5991],[27.465,54.5241,185.3616],[27.4792,54.5241,200.6857],[27.5077,54.5132,188.5549],[27.5077,54.5105,194.146],[27.503,54.5023,224.188],[27.4937,54.4969,210.3862],[27.4985,54.4832,247.0937],[27.4987,54.4669,241.1544],[27.4845,54.4669,231.3172],[27.4799,54.4615,228.1581],[27.48,54.4533,212.1506],[27.4894,54.4505,239.1003],[27.4894,54.4533,221.3878],[27.4988,54.4533,245.9805],[27.5036,54.4505,246.7479],[27.5036,54.4478,250.7996],[27.4802,54.4288,197.7863],[27.4755,54.4288,204.4884],[27.4707,54.4342,212.39],[27.466,54.4342,202.6388],[27.466,54.4315,195.1085],[27.4521,54.4179,190.478],[27.4568,54.4124,182.172],[27.4663,54.4097,194.7875],[27.4901,54.3906,184.8964],[27.4995,54.3879,185.2554],[27.509,54.3824,190.2874],[27.5091,54.3742,215.0444],[27.4997,54.3715,204.60059999999999],[27.4903,54.3661,205.9731],[27.4904,54.3606,205.9941],[27.4952,54.3552,195.7835],[27.4906,54.3388,202.8236],[27.4954,54.3334,206.9662],[27.4861,54.3252,221.8656],[27.4767,54.3198,232.0454],[27.4862,54.3143,228.7138],[27.5003,54.3116,217.9166],[27.5004,54.3089,219.9311],[27.4956,54.3089,217.5587],[27.491,54.3062,215.6375],[27.4816,54.3062,228.681],[27.4721,54.3089,232.4115],[27.4579,54.3171,244.9481],[27.4532,54.3171,244.7724],[27.4486,54.3144,251.562],[27.444,54.3062,263.8708],[27.4299,54.298,254.5771],[27.4301,54.2871,262.271],[27.4348,54.2871,259.9508],[27.4348,54.2817,279.8932],[27.4254,54.2817,274.3416],[27.4114,54.2763,264.2225],[27.4068,54.2708,259.418],[27.4023,54.2545,239.2105],[27.4117,54.2545,240.2092],[27.4257,54.2572,273.7335],[27.4304,54.2599,267.7184],[27.4445,54.2572,260.2843],[27.4493,54.2544,260.6245],[27.4493,54.2517,254.2494],[27.4446,54.249,268.3721],[27.4447,54.2408,255.3606],[27.4401,54.2381,254.1143],[27.4354,54.2327,245.0181],[27.4355,54.2299,247.1955],[27.4495,54.2299,275.5429],[27.4495,54.2327,267.5862],[27.4682,54.2435,275.5434],[27.4681,54.2517,276.8323],[27.4727,54.2544,288.1755],[27.4868,54.2544,300.3584],[27.4869,54.249,309.3237],[27.4822,54.2462,302.9946],[27.4823,54.2435,288.0692],[27.4964,54.2353,256.6481],[27.4871,54.2272,259.683],[27.4731,54.2245,255.2504],[27.4637,54.219,244.4918],[27.4638,54.2163,250.0263],[27.4732,54.2136,266.3795],[27.4779,54.2163,259.9576],[27.4966,54.2217,292.2226],[27.5013,54.219,298.8333],[27.4967,54.2136,271.4447],[27.492,54.2108,270.0115],[27.4826,54.2108,260.4217],[27.4779,54.2081,267.7999],[27.478,54.2027,266.366],[27.4921,54.2027,268.5015],[27.5061,54.2054,262.9749],[27.525,54.1945,279.7847],[27.5532,54.1944,325.6403],[27.5719,54.1998,328.3511],[27.5766,54.2026,334.0435],[27.586,54.2025,314.6985],[27.590699999999998,54.1998,309.0367],[27.590699999999998,54.1971,310.2039],[27.5814,54.1889,295.8814],[27.5815,54.178,306.7621],[27.5721,54.1726,320.0402],[27.5722,54.1699,330.1829],[27.5769,54.1617,309.9275],[27.563,54.1454,308.6786],[27.5631,54.1345,311.3524],[27.5725,54.129,307.5941],[27.5679,54.1209,289.5762],[27.568,54.11,274.7595],[27.5822,54.0936,251.5885],[27.5823,54.0855,250.9289],[27.5917,54.08,252.7356],[27.601,54.0773,239.1535],[27.6011,54.0718,247.7271],[27.6152,54.0636,249.502],[27.6199,54.0582,245.1433],[27.6293,54.0581,265.7551],[27.6526,54.0663,266.1851],[27.6619,54.0798,244.9872],[27.6572,54.0826,244.9748],[27.6571,54.0907,237.8137],[27.6477,54.0962,246.9374],[27.629,54.0935,250.7225],[27.6243,54.0935,257.5658],[27.6196,54.0963,263.1173],[27.6196,54.099,279.8384],[27.6149,54.1072,282.3185],[27.6102,54.1099,276.4484],[27.6148,54.1126,277.1881],[27.6429,54.1153,250.1294],[27.6523,54.118,256.0214],[27.6523,54.1125,249.6071],[27.6476,54.1098,246.7271],[27.6664,54.1098,244.1638],[27.6664,54.1016,244.2115],[27.6711,54.0989,253.6482],[27.6758,54.1016,217.5643],[27.6804,54.1098,247.4084],[27.7132,54.1097,255.3493],[27.7179,54.1042,249.1234],[27.7133,54.0988,248.1853],[27.7133,54.0961,236.6078],[27.718,54.0933,237.6712],[27.732,54.096,223.8194],[27.7555,54.0932,246.1213],[27.7555,54.085,236.7713],[27.7602,54.0823,235.795],[27.7836,54.0822,240.305],[27.7835,54.0959,253.4027],[27.7882,54.0986,259.6293],[27.7976,54.0985,258.0375],[27.8022,54.104,254.657],[27.8022,54.1121,220.0479],[27.8491,54.112,243.2213],[27.8537,54.1147,228.7541],[27.8537,54.1174,210.7961],[27.835,54.1284,259.71],[27.8349,54.1365,271.2204],[27.8396,54.1393,275.6474],[27.849,54.1392,267.2464],[27.8584,54.1365,243.4484],[27.8631,54.131,256.543],[27.8771,54.131,240.4206],[27.8818,54.1282,228.104],[27.8912,54.1282,203.8566],[27.9052,54.1309,228.2144],[27.9146,54.1254,203.4535],[27.9099,54.1199,185.2553],[27.9146,54.1172,181.7821],[27.924,54.1144,176.6651],[27.938,54.1144,183.3615],[27.9615,54.1034,172.0733],[27.9755,54.1006,166.6255],[27.9849,54.0951,168.7593],[27.9942,54.0924,178.0641],[27.9942,54.0951,172.4284],[27.9989,54.0978,167.8199],[27.9989,54.106,165.8354],[28.0083,54.1168,165.7423],[28.0083,54.1223,167.1276],[27.9849,54.1305,164.9401],[27.9755,54.136,170.4111],[27.9708,54.1442,201.8001],[27.9755,54.1442,210.8979],[27.9708,54.1524,173.6887],[27.9849,54.1632,198.917],[27.9849,54.1714,206.5439],[27.9896,54.1741,177.2032],[27.9943,54.1741,184.7705],[28.013,54.1795,206.0525],[28.0224,54.1794,205.816],[28.0271,54.1767,200.4504],[28.0318,54.1767,180.1754],[28.0365,54.1794,170.8791],[28.0411,54.1848,168.8354],[28.0271,54.1985,186.3464],[28.0271,54.204,206.8663],[28.0318,54.2067,195.7525],[28.0646,54.2147,167.263],[28.0928,54.2173,202.4057],[28.1022,54.2145,186.1013],[28.1021,54.2009,184.6031],[28.1115,54.1981,180.5085],[28.1162,54.1981,167.2869],[28.1209,54.2008,182.9984],[28.135,54.2008,163.2248],[28.1349,54.1871,163.0323],[28.1396,54.1844,184.0086],[28.1396,54.1871,167.951],[28.149,54.198,164.6535],[28.1631,54.2061,162.2562],[28.1772,54.2087,166.8766],[28.1913,54.2141,168.4207],[28.196,54.2196,166.4201],[28.2054,54.2195,172.9997],[28.2289,54.233,176.3918],[28.229,54.243899999999996,164.461],[28.2384,54.2548,173.4446],[28.2479,54.2711,162.4674],[28.262,54.2765,182.7879],[28.262,54.2792,168.7402],[28.2574,54.2847,165.4764],[28.2574,54.2902,167.2093],[28.2621,54.2983,160.9131],[28.2528,54.3038,157.1155],[28.2481,54.3039,157.0487],[28.2434,54.3012,157.8278],[28.2152,54.3013,184.0357],[28.2105,54.304,211.874],[28.2105,54.3095,199.9183],[28.2152,54.3122,180.8473],[28.2246,54.3122,179.1082],[28.2341,54.3176,160.8349],[28.2341,54.3203,163.9074],[28.2294,54.3231,180.3608],[28.22,54.3231,189.8771],[28.2106,54.3204,208.0718],[28.2011,54.3123,216.8533],[28.1964,54.3123,217.8397],[28.1918,54.315,211.4454],[28.1918,54.3178,203.295],[28.1965,54.3232,197.859],[28.1965,54.3287,193.4783],[28.1824,54.3342,195.3514],[28.173,54.3342,201.0786],[28.1636,54.3288,205.5096],[28.1636,54.3261,199.6285],[28.1589,54.3207,216.5639],[28.1495,54.3207,202.4937],[28.1401,54.3235,190.8285],[28.1401,54.3289,210.5785],[28.1495,54.3316,200.0464],[28.1495,54.3371,225.8853],[28.159,54.3561,195.7568],[28.1637,54.3588,207.5488],[28.1731,54.3588,187.5323],[28.1826,54.3615,182.1756],[28.1826,54.3669,182.074],[28.1873,54.3696,212.4679],[28.2062,54.3914,210.7024],[28.2298,54.3967,178.8987],[28.2392,54.4021,184.3014],[28.2393,54.4103,181.2512],[28.2346,54.4158,206.9474],[28.2346,54.4185,211.393],[28.2441,54.4239,193.3039],[28.2441,54.4267,195.4698],[28.2394,54.4322,214.8455],[28.2064,54.4378,202.9335],[28.1876,54.4378,217.1822],[28.1782,54.4406,210.1717],[28.164,54.4407,177.8785],[28.1499,54.4462,177.3504],[28.15,54.4571,178.2198],[28.1453,54.4626,178.3998],[28.1359,54.4708,178.1379],[28.1076,54.4846,179.1972],[28.0982,54.501,179.187],[28.0888,54.5065,180.191],[28.0699,54.5038,197.5134],[28.0605,54.5093,183.1986],[28.0558,54.5202,179.2374],[28.0463,54.5257,181.8079],[28.0322,54.5394,196.7365],[28.0228,54.5585,199.636],[28.0228,54.5613,207.5976],[27.9897,54.5723,204.9194],[27.9897,54.575,202.2995],[27.9991,54.5804,222.4223],[28.0133,54.5831,255.7738]]]]}
,"properties": {"GID_2": "BLR.5.8_1","GID_0": "BLR","country": "Belarus","GID_1": "BLR.5_1","province": "Minsk","NL_NAME_1": "Мінская","county": "Lahoysk","VARNAME_2": "Logoysk","NL_NAME_2": "Лагойскіраён","TYPE_2": "Raion","ENGTYPE_2": "District","CC_2": "NA","HASC_2": "BY.MI.LG","name": "Lahoysk.county","area_km2": 2341.037,"hist_schema_id": "Elevation0-9000","hist_area_km2": {"150": 15.805,"175": 250.226,"200": 720.743,"225": 548.185,"250": 391.996,"275": 244.302,"300": 126.979,"325": 40.931,"350": 1.872}}}