{"type":"Feature","properties":{"GID_2":"BLR.5.12_1","GID_0":"BLR","country":"Belarus","GID_1":"BLR.5_1","province":"Minsk","NL_NAME_1":"Мінская","county":"Myadzyel","VARNAME_2":"Myadel","NL_NAME_2":"Мядзельскіраён","TYPE_2":"Raion","ENGTYPE_2":"District","CC_2":"NA","HASC_2":"BY.MI.MY","name":"Myadzyel.county"},
"geometry":{"type": "MultiPolygon","coordinates": [[[[26.455,54.8134,149.0],[26.4645,54.8108,149.0],[26.4976,54.792,149.0],[26.5025,54.7838,149.0],[26.5263,54.7703,149.0],[26.5312,54.7621,149.0],[26.5502,54.7567,168.1979],[26.5644,54.7568,174.9578],[26.5739,54.7541,171.7022],[26.5789,54.7405,169.039],[26.5931,54.7378,158.2435],[26.6025,54.7378,161.7723],[26.612,54.7324,175.8855],[26.6122,54.727,169.3553],[26.6311,54.7243,179.2328],[26.6451,54.7271,177.3764],[26.6497,54.7325,176.8642],[26.6588,54.7517,174.1213],[26.6634,54.7544,171.7683],[26.6776,54.7517,170.7956],[26.6823,54.7545,163.2611],[26.6821,54.7599,163.2701],[26.696,54.7736,163.5786],[26.7007,54.7764,164.1084],[26.7054,54.7764,164.367],[26.7198,54.7628,163.1165],[26.7245,54.7628,162.8371],[26.7291,54.7683,171.8373],[26.7385,54.7683,170.624],[26.7436,54.7519,160.9771],[26.7484,54.7465,162.1945],[26.7577,54.752,161.016],[26.7766,54.752,173.229],[26.7861,54.7493,174.5639],[26.8004,54.7412,176.0948],[26.819,54.7549,170.6682],[26.8331,54.7549,180.4895],[26.8379,54.7522,184.757],[26.8382,54.7358,171.9437],[26.843,54.7304,165.1429],[26.8477,54.7304,171.5344],[26.8571,54.7359,173.728],[26.857,54.7413,163.945],[26.8663,54.7468,178.3029],[26.8662,54.7523,163.3473],[26.8614,54.755,163.1033],[26.8517,54.7686,166.801],[26.8564,54.7714,172.543],[26.8658,54.7714,175.7839],[26.8755,54.7605,166.7411],[26.8802,54.7578,165.8983],[26.8991,54.7578,177.1968],[26.9039,54.7551,183.757],[26.9041,54.7469,186.1048],[26.9089,54.7415,195.8978],[26.923,54.7415,193.5923],[26.9234,54.7224,170.8016],[26.9282,54.7197,174.5142],[26.9285,54.7061,179.133],[26.9426,54.7088,171.6473],[26.952,54.7089,175.7529],[26.9568,54.7061,176.4227],[26.9568,54.7034,178.1726],[26.9758,54.7007,195.0532],[26.9852,54.7035,192.8516],[26.9992,54.7117,193.0821],[27.0087,54.7117,193.1167],[27.0227,54.72,188.2596],[27.0274,54.72,190.6831],[27.037,54.7145,184.0432],[27.0607,54.7146,179.3362],[27.0654,54.7119,171.4841],[27.0655,54.7091,172.9597],[27.0561,54.7037,182.0279],[27.042,54.7009,176.9851],[27.0468,54.6982,202.0865],[27.0421,54.6927,200.9981],[27.0422,54.6873,217.8353],[27.0469,54.6873,209.3001],[27.066,54.6792,204.7003],[27.0896,54.6819,186.7292],[27.0993,54.6683,197.8312],[27.0947,54.6601,200.9999],[27.0854,54.652,206.949],[27.0854,54.6492,204.5932],[27.0901,54.652,208.4189],[27.0996,54.652,202.7695],[27.1043,54.6493,202.5611],[27.1044,54.6465,194.1917],[27.0997,54.6438,196.4796],[27.0999,54.6302,209.586],[27.1047,54.6247,224.3546],[27.1095,54.6248,228.5835],[27.1141,54.6275,202.7335],[27.1141,54.6302,201.047],[27.1188,54.6302,207.1324],[27.1235,54.633,211.1497],[27.1378,54.6275,197.0788],[27.1425,54.6275,197.3922],[27.1472,54.6303,204.9447],[27.1661,54.6303,190.6755],[27.1802,54.633,207.4768],[27.1849,54.6358,202.6398],[27.1848,54.6385,203.5095],[27.1895,54.6412,207.8964],[27.2085,54.6385,195.3246],[27.2227,54.6385,185.2117],[27.2368,54.644,180.6364],[27.2367,54.6494,187.0386],[27.2461,54.6549,190.7802],[27.2413,54.6576,188.5132],[27.2365,54.6631,179.8369],[27.2363,54.674,175.6249],[27.26,54.674,189.0032],[27.2647,54.6795,182.2836],[27.2789,54.6795,196.7921],[27.2836,54.6767,198.2359],[27.2978,54.6767,189.6572],[27.3072,54.6795,176.3746],[27.3166,54.6849,174.7138],[27.3402,54.6931,176.0476],[27.3402,54.6958,188.5054],[27.3496,54.6986,187.7471],[27.3496,54.7013,173.7152],[27.3542,54.7067,192.4709],[27.3542,54.7095,178.8334],[27.3589,54.7122,196.6166],[27.3636,54.7122,194.9468],[27.3637,54.7095,193.4233],[27.3684,54.7068,192.0482],[27.3685,54.7013,175.9456],[27.3733,54.6986,176.3865],[27.4063,54.7068,198.5138],[27.4111,54.7095,200.2601],[27.411,54.7122,197.4838],[27.4157,54.7149,194.244],[27.4299,54.7149,202.6924],[27.4347,54.7122,201.9845],[27.4442,54.7149,183.9936],[27.4536,54.7204,198.7262],[27.4297,54.734,184.7477],[27.4391,54.7422,182.3004],[27.4533,54.7477,186.9697],[27.4485,54.7504,179.1689],[27.4532,54.7558,176.4203],[27.4626,54.7613,175.7972],[27.4674,54.7586,173.8376],[27.4675,54.7504,192.2929],[27.4912,54.7531,176.3955],[27.5055,54.7504,174.0677],[27.5197,54.7504,176.2486],[27.5291,54.7558,178.7679],[27.5338,54.7613,181.3356],[27.5385,54.764,176.2127],[27.5575,54.7694,193.5139],[27.5623,54.7667,184.9479],[27.5621,54.7803,177.7691],[27.5668,54.794,200.2279],[27.5667,54.8049,196.9332],[27.5619,54.8076,205.2984],[27.5429,54.8104,198.843],[27.5286,54.8077,191.8747],[27.5144,54.8022,190.426],[27.5049,54.8022,191.5366],[27.5049,54.8077,193.8368],[27.5096,54.8131,192.7755],[27.5046,54.8322,179.0991],[27.4664,54.8486,179.4337],[27.4521,54.8568,181.0241],[27.4045,54.8541,178.2355],[27.3902,54.8623,177.4148],[27.3807,54.8623,177.7315],[27.3711,54.8677,184.3593],[27.3711,54.8705,187.5001],[27.3566,54.8868,178.4109],[27.3422,54.895,180.1795],[27.3279,54.8977,180.3803],[27.3231,54.9005,181.1014],[27.3228,54.9169,188.1152],[27.3274,54.925,202.4759],[27.3273,54.9332,205.9659],[27.3129,54.9387,220.3495],[27.2986,54.9414,205.0198],[27.2938,54.9469,191.6305],[27.2937,54.9523,181.2148],[27.2889,54.9551,179.8593],[27.2842,54.9523,187.2596],[27.2793,54.9551,180.8439],[27.2696,54.9687,199.1918],[27.2695,54.9714,177.1645],[27.2837,54.9769,167.038],[27.2837,54.9796,167.2567],[27.2739,54.9933,171.4467],[27.2359,54.9878,162.7438],[27.2264,54.9878,196.8896],[27.2167,54.9932,189.4935],[27.2119,54.9987,195.7618],[27.1834,54.9959,173.6861],[27.1785,55.0014,168.2868],[27.169,55.0013,169.3099],[27.1693,54.9877,178.076],[27.1598,54.9849,175.8762],[27.155,54.9877,188.6815],[27.1548,54.9959,186.6831],[27.15,54.9986,190.8953],[27.1358,54.9958,177.9533],[27.1073,54.9958,191.7919],[27.093,54.9985,197.6092],[27.0882,55.0012,196.9711],[27.0787,55.0012,179.9204],[27.0646,54.9957,175.8408],[27.0694,54.9903,186.5849],[27.0886,54.9821,183.855],[27.0792,54.9766,177.131],[27.065,54.9766,180.0604],[27.0554,54.9793,190.1461],[27.0365,54.9793,196.6708],[27.0223,54.9765,196.3011],[27.0082,54.971,184.0354],[26.9893,54.971,192.403],[26.9751,54.9682,180.0678],[26.965699999999998,54.9682,183.7771],[26.9513,54.9764,169.7262],[26.9512,54.9791,184.767],[26.9653,54.9846,174.8627],[26.9461,54.9955,165.6089],[26.9412,55.0009,160.6578],[26.9174,55.0091,165.2224],[26.903,55.0172,168.9285],[26.8889,55.0172,169.5402],[26.8796,55.009,156.8791],[26.8515,54.998,162.2356],[26.8468,54.998,161.5769],[26.842,55.0007,162.5071],[26.8372,55.0061,160.8819],[26.8417,55.0116,166.6295],[26.837,55.0143,158.5592],[26.8087,55.0143,176.5624],[26.8092,54.9897,202.542],[26.814,54.9869,203.9683],[26.8281,54.987,193.3073],[26.8286,54.9651,169.5634],[26.824,54.9624,165.7068],[26.8144,54.9678,209.2928],[26.819,54.976,197.2953],[26.8142,54.9788,197.6532],[26.8047,54.9787,209.2226],[26.8002,54.9705,186.9122],[26.7813,54.9705,204.4045],[26.7671,54.9732,209.0961],[26.7577,54.9731,212.1271],[26.7578,54.9704,224.5094],[26.7531,54.9677,222.5918],[26.7487,54.954,193.0],[26.7393,54.954,207.229],[26.7203,54.9594,209.9521],[26.7108,54.9648,208.0704],[26.7059,54.9703,212.7052],[26.7011,54.973,207.8083],[26.687,54.9757,204.3888],[26.6869,54.9784,208.8069],[26.6728,54.9783,201.7245],[26.6538,54.9838,195.8803],[26.6163,54.9782,185.9049],[26.6117,54.9754,183.8488],[26.6117,54.9727,185.9914],[26.6213,54.9645,203.4375],[26.6214,54.9591,202.616],[26.6168,54.9536,197.4436],[26.6121,54.9508,190.6849],[26.5934,54.948,199.582],[26.5794,54.9398,200.6369],[26.5747,54.9452,202.285],[26.5605,54.9506,203.9091],[26.5559,54.9506,202.0438],[26.5511,54.9533,200.0227],[26.5417,54.9532,192.3303],[26.5323,54.9586,191.8138],[26.5229,54.9612,198.6747],[26.5043,54.9527,200.144],[26.495,54.9526,188.1018],[26.4619,54.9628,199.9686],[26.4382,54.9651,191.7446],[26.4189,54.9782,192.7473],[26.3902,54.9858,190.8356],[26.3757,54.9936,194.3493],[26.371,54.9935,195.7895],[26.3615,54.9906,207.4662],[26.3474,54.9822,211.2943],[26.3475,54.9768,202.9431],[26.3668,54.9691,220.4054],[26.3668,54.9664,188.3604],[26.3574,54.9608,192.0889],[26.3431,54.9605,187.0824],[26.3334,54.9657,195.9456],[26.3287,54.9656,184.2634],[26.2862,54.9405,149.785],[26.2961,54.9299,148.0365],[26.33,54.9171,148.744],[26.3443,54.9173,151.5406],[26.3587,54.9122,175.259],[26.3733,54.9016,164.54],[26.3736,54.8881,166.7101],[26.3642,54.8853,165.8625],[26.3647,54.8663,156.4961],[26.3602,54.8554,152.7251],[26.351,54.8444,134.8376],[26.351,54.8417,132.3066],[26.3657,54.823,148.6429],[26.3657,54.8203,142.393],[26.3705,54.8176,140.1316],[26.3799,54.8205,140.7784],[26.3892,54.826,149.6389],[26.408,54.8263,158.1637],[26.4173,54.8319,154.0703],[26.4453,54.835,149.0],[26.45,54.8324,149.0],[26.4548,54.827,149.0],[26.455,54.8134,149.0]]]]}}