{"type":"Feature","properties":{"GID_2":"BLR.6.8_1","GID_0":"BLR","country":"Belarus","GID_1":"BLR.6_1","province":"Vitebsk","NL_NAME_1":"Вiцебская","county":"Hlybokaye","VARNAME_2":"Glubokoye","NL_NAME_2":"Глыбоцкіраён","TYPE_2":"Raion","ENGTYPE_2":"District","CC_2":"NA","HASC_2":"BY.VI.GB","name":"Hlybokaye.county"},
"geometry":{"type": "MultiPolygon","coordinates": [[[[28.1851,55.0035,188.1577],[28.2138,55.0199,184.2653],[28.2186,55.0281,178.0755],[28.2186,55.0309,183.2136],[28.2234,55.0363,188.7881],[28.2235,55.0555,194.0207],[28.2378,55.061,183.5287],[28.2761,55.0801,182.9109],[28.2188,55.1104,183.5182],[28.2475,55.1323,196.7613],[28.2811,55.1486,200.2632],[28.2859,55.1541,199.4264],[28.2955,55.1568,186.3581],[28.3099,55.1705,208.5256],[28.31,55.2034,199.2904],[28.2908,55.2145,198.6031],[28.286,55.2502,194.2982],[28.31,55.2638,183.213],[28.3148,55.2638,183.6938],[28.3389,55.2501,196.4447],[28.3533,55.25,189.6409],[28.3581,55.2528,192.4458],[28.3629,55.261,176.3098],[28.3629,55.2637,177.8188],[28.3581,55.2692,195.1498],[28.3389,55.2748,182.0793],[28.3341,55.283,188.405],[28.3293,55.2858,187.283],[28.3389,55.294,176.0093],[28.3389,55.316,158.1437],[28.3582,55.3269,147.1578],[28.3534,55.3379,148.6033],[28.3534,55.3434,143.3562],[28.3486,55.3462,149.6706],[28.3389,55.3489,149.5707],[28.2859,55.3463,160.6289],[28.2762,55.349,153.1377],[28.2859,55.3545,145.135],[28.2762,55.36,144.4634],[28.2714,55.3573,150.5445],[28.2473,55.3628,150.646],[28.2376,55.3545,155.2933],[28.228,55.3491,159.703],[28.2281,55.3408,164.083],[28.2233,55.3353,180.9881],[28.2137,55.3326,181.9718],[28.1943,55.3409,170.6223],[28.1895,55.3409,148.5171],[28.1847,55.3464,169.0944],[28.175,55.3491,165.9398],[28.1557,55.3491,165.7788],[28.1509,55.3464,183.6474],[28.1364,55.3464,164.6352],[28.1268,55.3491,163.997],[28.1171,55.3491,164.8431],[28.093,55.3464,147.4804],[28.0834,55.3437,137.8948],[28.0835,55.3382,153.2818],[28.0739,55.3327,143.6643],[28.0691,55.3245,163.4882],[28.0644,55.3217,165.0854],[28.0643,55.3245,166.2066],[28.0499,55.3245,168.1801],[28.0403,55.3217,173.3899],[28.0403,55.319,171.4751],[28.0258,55.3245,164.2845],[28.0209,55.33,172.0338],[28.0209,55.3327,171.3467],[28.0112,55.3354,176.9162],[27.9822,55.3354,170.649],[27.9726,55.3354,175.3129],[27.9678,55.3327,177.2334],[27.9679,55.3272,168.4798],[27.9632,55.3217,168.9073],[27.9584,55.319,166.6028],[27.9536,55.319,166.7615],[27.9535,55.3245,171.2937],[27.9486,55.3299,167.7655],[27.9485,55.3327,173.6361],[27.9437,55.3354,172.7797],[27.9388,55.3382,167.0298],[27.9195,55.3382,161.5716],[27.9102,55.319,152.8015],[27.9102,55.3162,158.6627],[27.9152,55.308,151.1519],[27.9153,55.3026,149.467],[27.9201,55.2998,151.9008],[27.9202,55.2943,162.6984],[27.9155,55.2834,155.5222],[27.9204,55.2752,151.3696],[27.9157,55.2724,151.613],[27.8916,55.2724,163.2965],[27.8868,55.2697,164.377],[27.8723,55.2752,162.3204],[27.8722,55.2861,163.4366],[27.8816,55.2971,163.2505],[27.8816,55.2998,164.3727],[27.8767,55.3025,166.2167],[27.8575,55.3025,165.3495],[27.8479,55.2998,163.7785],[27.8481,55.2888,164.0197],[27.8289,55.2806,163.1834],[27.8097,55.2806,163.6507],[27.8,55.2833,167.6695],[27.7998,55.2943,167.3828],[27.7901,55.297,159.2422],[27.7854,55.2915,161.4192],[27.7709,55.2943,155.5432],[27.7709,55.297,154.1603],[27.7756,55.2997,152.5249],[27.7803,55.3052,149.999],[27.7755,55.3052,150.8144],[27.7706,55.3079,148.3748],[27.7611,55.3052,150.5078],[27.7562,55.3079,146.9325],[27.7608,55.3161,146.2216],[27.7607,55.3216,144.3105],[27.7558,55.3271,155.4939],[27.746,55.3325,149.6023],[27.7458,55.3407,136.6837],[27.7504,55.3489,135.0899],[27.7599,55.3544,135.8906],[27.7598,55.3599,135.9167],[27.7452,55.3626,130.9157],[27.7308,55.3599,126.8482],[27.7119,55.3434,133.5238],[27.6927,55.3407,135.3347],[27.688,55.3379,130.7659],[27.6734,55.3406,149.7908],[27.659,55.3406,136.5175],[27.6398,55.3351,135.2065],[27.635,55.3351,134.3558],[27.6204,55.3405,132.8375],[27.6059,55.3405,132.3306],[27.6012,55.3378,132.5279],[27.6015,55.3268,134.8818],[27.5968,55.3241,135.2253],[27.5775,55.324,135.3904],[27.5726,55.3268,135.8325],[27.5723,55.3377,134.8107],[27.5626,55.3404,134.806],[27.5433,55.3403,133.0424],[27.5289,55.3376,131.7204],[27.5242,55.3348,130.7933],[27.5293,55.3266,133.8886],[27.5198,55.3212,135.4712],[27.5054,55.3211,131.5068],[27.5007,55.3184,149.0876],[27.5008,55.3129,144.6307],[27.5058,55.3075,145.2964],[27.5202,55.3075,142.4801],[27.5203,55.3048,152.7177],[27.5252,55.3021,154.792],[27.516,55.2884,134.1893],[27.5065,55.2856,135.5653],[27.497,55.2802,136.7533],[27.4972,55.2747,135.7232],[27.4924,55.2719,136.3136],[27.478,55.2746,139.1257],[27.4684,55.2746,136.7058],[27.4589,55.2691,137.4159],[27.4496,55.2582,147.047],[27.4498,55.2527,155.7057],[27.4451,55.2473,148.2678],[27.4549,55.2418,143.1758],[27.455,55.2364,137.1434],[27.4265,55.2254,130.5],[27.4024,55.2308,141.7413],[27.3786,55.2253,152.4557],[27.3692,55.2198,149.2824],[27.3934,55.209,156.3002],[27.4175,55.2036,148.0],[27.4129,55.1981,148.0],[27.4081,55.1953,150.6072],[27.4083,55.1899,153.7692],[27.4131,55.1872,153.0931],[27.4322,55.1899,155.373],[27.4371,55.1872,154.1029],[27.4325,55.179,159.3704],[27.423,55.1735,164.951],[27.4232,55.1681,158.3001],[27.4376,55.1654,160.2419],[27.4473,55.1599,159.015],[27.4473,55.1572,161.1351],[27.4332,55.149,175.2812],[27.4477,55.1408,158.0122],[27.4525,55.1408,163.0469],[27.4525,55.1381,171.1084],[27.4479,55.1326,164.0248],[27.4479,55.1299,166.3731],[27.4528,55.1272,159.0799],[27.4529,55.119,166.0959],[27.4482,55.1162,166.6252],[27.4386,55.1162,171.7205],[27.4386,55.119,174.2254],[27.4243,55.1162,177.5868],[27.4147,55.1162,186.075],[27.4102,55.1053,171.9677],[27.4054,55.1053,184.4794],[27.4007,55.0998,176.8986],[27.4008,55.0971,171.9155],[27.4056,55.0944,163.2036],[27.4152,55.0944,161.8768],[27.4153,55.0862,160.1414],[27.425,55.0807,161.6785],[27.4583,55.0862,179.8986],[27.4632,55.0808,190.6279],[27.4633,55.0753,183.878],[27.4729,55.0698,199.6592],[27.4825,55.0671,198.956],[27.4827,55.0589,177.2118],[27.4779,55.0562,178.4988],[27.4733,55.0507,177.4462],[27.4782,55.0398,185.1257],[27.4735,55.0343,192.8164],[27.4593,55.0261,194.4303],[27.4594,55.0234,195.9809],[27.4787,55.0098,190.5955],[27.498,54.9934,179.8895],[27.5123,54.9934,179.3587],[27.517,54.9988,181.2319],[27.5265,55.0043,182.6632],[27.5503,55.007,187.315],[27.555,55.0125,180.1259],[27.5596,55.0234,178.5],[27.5643,55.0289,178.5],[27.5929,55.0371,180.6531],[27.6215,55.0399,183.0911],[27.6357,55.0453,186.842],[27.6548,55.0481,183.7662],[27.6882,55.0508,191.5216],[27.693,55.0535,189.1331],[27.7312,55.0508,190.7918],[27.7455,55.0563,188.1404],[27.7742,55.0562,203.5107],[27.779,55.0508,200.0287],[27.7934,55.0453,193.7366],[27.8077,55.0453,190.243],[27.8221,55.0425,195.657],[27.8412,55.0425,188.5367],[27.8651,55.0397,180.0614],[27.8747,55.037,181.2244],[27.8795,55.0315,188.2317],[27.8795,55.0233,174.2631],[27.8843,55.0206,174.2534],[27.8986,55.0205,179.1597],[27.9034,55.0233,175.4163],[27.9464,55.0232,173.2536],[27.9512,55.0177,172.7492],[27.9798,55.0204,175.1443],[27.9798,55.0232,174.7877],[27.9989,55.0259,174.0556],[28.0037,55.0313,176.3513],[28.0132,55.0368,172.3336],[28.0323,55.0422,172.1738],[28.0514,55.0422,171.2935],[28.0658,55.0449,173.8201],[28.1183,55.0448,185.8699],[28.1422,55.0393,178.8436],[28.1565,55.031,184.1184],[28.1661,55.0173,182.5839],[28.1851,55.0035,188.1577]]]]}}