{"type":"Feature","properties":{"GID_2":"BLR.5.18_1","GID_0":"BLR","country":"Belarus","GID_1":"BLR.5_1","province":"Minsk","NL_NAME_1":"Мінская","county":"StaryyaDarohi","VARNAME_2":"StaryeDorogi","NL_NAME_2":"Старадарожскіраён","TYPE_2":"Raion","ENGTYPE_2":"District","CC_2":"NA","HASC_2":"BY.MI.SD","name":"Staryya_Darohi.county"},
"geometry":{"type": "MultiPolygon","coordinates": [[[[28.4583,52.7914,154.7981],[28.4629,52.7968,142.0493],[28.4629,52.8022,160.9458],[28.4677,52.8184,153.7545],[28.4678,52.8347,162.0139],[28.4633,52.8375,159.7034],[28.4451,52.8431,156.6748],[28.4361,52.8513,163.3465],[28.4269,52.8514,165.1931],[28.4224,52.8569,159.2258],[28.4179,52.8597,154.3182],[28.4225,52.8623,144.0926],[28.4728,52.8755,152.0747],[28.4866,52.8835,158.3519],[28.4912,52.8889,158.2698],[28.4867,52.8998,156.6929],[28.4868,52.9107,166.8652],[28.4823,52.9161,174.5724],[28.4732,52.9216,172.9775],[28.4642,52.9326,172.9467],[28.4643,52.938,171.5104],[28.4507,52.949,169.3099],[28.4461,52.9545,175.6737],[28.4462,52.9572,163.7104],[28.4554,52.9653,179.886],[28.4968,52.9894,167.6473],[28.5151,52.9892,165.7023],[28.5242,52.9837,186.0321],[28.5241,52.981,174.6511],[28.5332,52.9755,179.1484],[28.5423,52.9727,175.588],[28.556,52.9725,181.0922],[28.5746,52.9941,160.8438],[28.5746,52.9995,167.218],[28.5519,53.0106,161.0414],[28.5475,53.0243,155.8573],[28.5338,53.0298,153.9118],[28.5339,53.038,152.3643],[28.5294,53.0435,152.5189],[28.5295,53.0489,152.869],[28.5434,53.0624,156.2382],[28.5435,53.0705,157.5661],[28.5345,53.0869,156.6526],[28.5254,53.0925,159.9411],[28.5254,53.0952,168.456],[28.5484,53.1059,170.8377],[28.5302,53.1142,158.163],[28.5257,53.1197,152.8928],[28.5257,53.1251,151.4909],[28.5166,53.1306,152.4124],[28.5121,53.1361,151.9917],[28.526,53.1441,157.0625],[28.526,53.1496,151.3126],[28.494,53.158,157.6071],[28.4894,53.1608,161.7703],[28.4619,53.1556,158.631],[28.448,53.1502,166.3967],[28.4159,53.1451,181.038],[28.4022,53.1533,167.3206],[28.4022,53.1588,184.1074],[28.3885,53.1698,162.3445],[28.3794,53.1699,165.5351],[28.3793,53.1617,162.4456],[28.3747,53.159,173.7688],[28.3746,53.1481,175.6069],[28.3516,53.1483,161.9357],[28.3471,53.1565,161.1346],[28.3471,53.162,159.8729],[28.3518,53.1701,159.3478],[28.3611,53.1782,173.3546],[28.3611,53.1836,169.9579],[28.3382,53.1974,174.4892],[28.3337,53.2028,160.271],[28.3061,53.2085,157.0576],[28.306,53.1895,162.8248],[28.2968,53.1868,167.3475],[28.2967,53.1787,162.11],[28.2921,53.1733,162.9663],[28.2875,53.1733,167.9747],[28.2784,53.1788,178.2399],[28.2784,53.1897,175.5825],[28.2647,53.1979,166.1793],[28.2555,53.2007,174.9837],[28.2509,53.2008,176.9421],[28.2463,53.1981,179.1965],[28.2509,53.1953,177.7685],[28.2463,53.1899,179.8391],[28.2324,53.1846,174.7021],[28.2279,53.1873,172.3374],[28.2279,53.1928,177.8172],[28.2233,53.1955,174.6338],[28.2187,53.1956,176.8995],[28.1911,53.1876,178.8394],[28.1865,53.1904,175.778],[28.1866,53.2039,160.2375],[28.182,53.2094,159.9203],[28.1682,53.2095,160.4024],[28.1636,53.2123,161.2723],[28.1544,53.2123,164.307],[28.1314,53.2206,169.3053],[28.1222,53.218,164.9069],[28.1084,53.2262,160.3387],[28.1084,53.229,161.1525],[28.1223,53.237,161.5162],[28.1223,53.2397,159.0045],[28.1039,53.2453,160.3155],[28.0993,53.2453,159.5667],[28.0993,53.2562,160.3474],[28.0947,53.2589,162.2479],[28.0947,53.2698,165.3119],[28.0901,53.2726,169.7058],[28.0948,53.278,176.5447],[28.0671,53.289,160.7253],[28.0395,53.3028,166.4634],[28.0303,53.311,168.3216],[28.0211,53.3111,167.4942],[28.0118,53.3138,163.2705],[27.998,53.3139,163.3815],[27.9888,53.3085,164.8781],[27.9888,53.3058,169.8296],[27.9934,53.3031,174.143],[27.9934,53.3003,177.195],[27.9888,53.2977,174.9633],[27.9842,53.2977,166.5289],[27.9795,53.2923,163.5973],[27.9795,53.2841,172.5427],[27.9841,53.2759,171.6053],[27.9795,53.2732,163.1721],[27.9565,53.2734,178.142],[27.9519,53.2707,175.2434],[27.9519,53.2625,162.873],[27.9565,53.2598,164.0794],[27.9565,53.2543,183.5436],[27.9472,53.249,185.4122],[27.9426,53.249,189.4766],[27.9334,53.2572,172.1485],[27.9242,53.2572,178.699],[27.915,53.2546,181.3926],[27.915,53.2464,177.1933],[27.9196,53.241,185.2514],[27.9334,53.2409,179.9982],[27.9426,53.2354,165.8008],[27.9426,53.2327,168.6226],[27.938,53.23,186.4267],[27.8597,53.2304,177.7056],[27.8597,53.1924,181.4905],[27.8643,53.1896,183.2866],[27.8782,53.1923,182.9699],[27.9012,53.1894,185.4716],[27.915,53.1921,192.6023],[27.9196,53.1893,183.5916],[27.9334,53.192,194.7887],[27.9564,53.1891,187.2749],[27.9702,53.1918,203.6434],[27.984,53.189,203.0193],[28.0162,53.1915,190.9438],[28.03,53.1833,186.4035],[28.0254,53.1778,190.4177],[28.0208,53.1752,173.2764],[28.0162,53.1752,188.4983],[28.0024,53.1807,189.7306],[27.9978,53.1807,194.4299],[27.9932,53.1753,198.9809],[28.007,53.1725,189.1314],[28.0116,53.1671,186.4078],[28.0162,53.1643,171.8998],[28.0116,53.1535,168.6436],[28.007,53.1508,201.7843],[27.984,53.1591,199.3122],[27.9748,53.1591,195.1589],[27.9656,53.1538,194.4086],[27.9702,53.151,185.2256],[27.9656,53.1456,187.7428],[27.9794,53.1319,185.6062],[27.9793,53.1292,177.9241],[27.9563,53.1158,184.0159],[27.9334,53.1051,186.6423],[27.9334,53.0996,187.1878],[27.9425,53.086,182.1924],[27.9425,53.0778,188.4375],[27.9471,53.0669,156.826],[27.9563,53.0615,154.496],[27.9701,53.0614,153.6999],[27.9701,53.0505,153.9807],[27.9747,53.0478,152.6035],[27.9793,53.0505,152.7326],[27.9838,53.0477,152.3434],[27.9792,53.0369,166.3889],[27.9655,53.0288,152.0134],[27.9609,53.0234,151.3331],[27.9609,53.018,159.6723],[27.9471,53.0181,152.4073],[27.9333,53.0127,151.8726],[27.9195,53.0128,153.2527],[27.915,53.0101,155.4033],[27.9012,52.9966,156.0729],[27.8828,52.9886,158.2842],[27.9058,52.9885,151.5176],[27.9012,52.9831,151.1573],[27.9287,52.9829,150.8373],[27.9333,52.9801,149.2545],[27.9287,52.9585,154.2229],[27.947,52.9583,151.5182],[27.947,52.9556,162.8537],[27.9425,52.9475,154.4355],[27.947,52.9448,153.7689],[27.9791,52.9473,158.2525],[27.9975,52.9526,154.6853],[28.0158,52.9633,146.1444],[28.0158,52.9688,162.7801],[28.0204,52.9714,165.6091],[28.0342,52.9713,167.6283],[28.0388,52.9686,159.0889],[28.025,52.9578,142.4615],[28.025,52.9497,154.435],[28.0296,52.9469,142.3746],[28.0295,52.9388,141.1069],[28.0249,52.9307,140.0],[28.0203,52.928,140.0],[28.0295,52.9089,140.0],[28.0295,52.9008,140.0],[28.0386,52.9007,141.8409],[28.0432,52.9034,143.8754],[28.0524,52.9034,157.9548],[28.0569,52.9006,164.2187],[28.0844,52.9004,153.8593],[28.0981,52.8976,155.0176],[28.1073,52.8975,167.3699],[28.1164,52.8947,172.9818],[28.1622,52.8944,174.2966],[28.1668,52.8971,177.0707],[28.1943,52.9023,182.411],[28.2034,52.9022,187.5969],[28.2079,52.8913,179.5796],[28.2217,52.8912,172.8058],[28.2354,52.8965,176.7043],[28.24,52.8965,173.5272],[28.2491,52.8856,176.853],[28.2535,52.8665,148.7736],[28.258,52.8583,148.5941],[28.2626,52.8556,159.8873],[28.2672,52.8555,158.1284],[28.2855,52.8635,144.9438],[28.3221,52.8686,147.3575],[28.3312,52.8686,167.2458],[28.3448,52.8603,160.2374],[28.3448,52.8494,164.2698],[28.3309,52.8278,142.6828],[28.3309,52.8224,141.3311],[28.3354,52.8196,142.0915],[28.3308,52.8143,141.3285],[28.3399,52.8115,140.4898],[28.3536,52.8113,141.6629],[28.3809,52.8057,141.9166],[28.39,52.8056,140.9912],[28.3991,52.8028,139.6066],[28.4083,52.8027,158.9828],[28.4264,52.7971,139.3947],[28.4447,52.7969,150.7798],[28.4583,52.7914,154.7981]]]]}}