{"type": "Feature","bbox": [24.1366,51.8978,24.8694,52.4647],"geometry": {"type": "MultiPolygon","coordinates": [[[[24.7152,52.4337,160.97],[24.7014,52.436,151.4826],[24.6879,52.4356,151.6435],[24.652,52.4319,162.8565],[24.6432,52.429,167.7036],[24.6341,52.4288,157.7145],[24.6346,52.4235,157.5807],[24.6173,52.415,149.9912],[24.5992,52.4144,157.3895],[24.5949,52.4117,156.05],[24.5675,52.4135,173.0217],[24.5319,52.4044,163.3973],[24.5309,52.4149,160.685],[24.5258,52.42,158.1171],[24.517,52.4171,146.5751],[24.5122,52.4196,145.4583],[24.5202,52.4305,160.973],[24.52,52.4331,159.0684],[24.506,52.4353,151.1293],[24.4868,52.4452,147.4857],[24.4857,52.4557,149.4105],[24.472,52.4552,156.8361],[24.4623,52.4602,164.6853],[24.4532,52.4598,165.7655],[24.4435,52.4647,162.2769],[24.4303,52.4589,167.4905],[24.4311,52.451,164.9507],[24.436,52.4485,160.0107],[24.4362,52.4459,149.5653],[24.4462,52.4383,160.9122],[24.4467,52.4331,153.6453],[24.4244,52.4269,166.6209],[24.4023,52.418,151.184],[24.3839,52.4172,147.5197],[24.3742,52.4221,147.8811],[24.365,52.4216,154.1064],[24.3566,52.4133,146.6893],[24.3193,52.4141,156.9457],[24.315,52.4112,150.4622],[24.3156,52.406,159.5208],[24.3112,52.4031,162.0714],[24.2881,52.4019,171.5138],[24.28,52.3909,183.9903],[24.2707,52.3904,182.6518],[24.2282,52.396,180.261],[24.2189,52.3955,180.4169],[24.2149,52.3901,184.9992],[24.2102,52.3898,178.3763],[24.1862,52.3964,167.7399],[24.1902,52.4019,170.1479],[24.1899,52.4045,164.0163],[24.1986,52.4102,167.2256],[24.1888,52.415,177.6157],[24.1835,52.4199,170.5308],[24.1879,52.4228,173.0856],[24.1919,52.4283,180.6254],[24.1916,52.4309,178.4718],[24.1734,52.4273,168.4032],[24.1549,52.4262,155.9222],[24.1558,52.4184,150.1902],[24.1471,52.4126,149.6374],[24.1474,52.41,149.7978],[24.1625,52.4003,150.7695],[24.1366,52.383,175.2891],[24.1611,52.3713,180.1463],[24.1664,52.3663,165.5524],[24.167,52.3611,162.0863],[24.1583,52.3553,152.1409],[24.1589,52.3501,149.9334],[24.1642,52.3451,150.0194],[24.1651,52.3373,148.7186],[24.1718,52.3193,149.5626],[24.1733,52.3062,149.8425],[24.1785,52.3012,156.9148],[24.1788,52.2986,149.6218],[24.1748,52.2931,150.721],[24.1766,52.2775,148.2496],[24.1788,52.2592,146.7361],[24.1843,52.2516,148.6017],[24.1855,52.2412,145.8316],[24.2085,52.2425,144.7946],[24.2134,52.2402,144.2165],[24.2152,52.2245,145.3905],[24.2063,52.2214,159.5492],[24.2066,52.2188,154.4341],[24.1987,52.2078,143.9333],[24.2085,52.2031,142.4822],[24.2189,52.1932,141.3002],[24.2381,52.1864,145.5245],[24.2384,52.1838,141.6068],[24.2479,52.1817,141.486],[24.2617,52.1825,142.1508],[24.2666,52.1801,141.8083],[24.2724,52.1699,140.6246],[24.273,52.1647,145.7252],[24.2693,52.1567,142.7977],[24.2699,52.1514,150.3024],[24.2748,52.1491,139.0718],[24.2886,52.1498,139.8302],[24.2895,52.142,141.1078],[24.2672,52.1356,139.7243],[24.2675,52.1329,139.7605],[24.2877,52.1183,149.6241],[24.2788,52.1152,155.298],[24.2761,52.0993,160.3349],[24.2685,52.0857,155.1994],[24.2413,52.0839,142.0014],[24.242,52.0786,140.0539],[24.2206,52.0689,145.313],[24.2351,52.062,151.9651],[24.2444,52.0601,142.9806],[24.253,52.0635,140.7795],[24.2666,52.0645,141.9831],[24.2763,52.0598,151.8008],[24.2808,52.0602,157.4828],[24.3075,52.067,146.9125],[24.327,52.0577,144.2838],[24.3228,52.0548,144.6852],[24.3048,52.0511,144.7536],[24.3097,52.0488,149.0732],[24.3279,52.0499,152.1376],[24.3328,52.0475,151.3786],[24.3374,52.0478,152.0873],[24.3472,52.0431,145.0881],[24.3572,52.0357,145.2917],[24.3813,52.0264,144.7554],[24.4042,52.0246,145.3608],[24.4138,52.0197,145.4284],[24.4141,52.0171,144.8962],[24.4234,52.0148,145.8881],[24.4231,52.0174,145.5945],[24.4551,52.0129,146.3188],[24.4637,52.0157,145.4313],[24.4729,52.0133,145.4212],[24.4749,51.995,145.5126],[24.462,51.9895,146.3282],[24.4581,51.9842,145.973],[24.454,51.9815,159.9938],[24.4495,51.9815,160.2116],[24.4218,51.9887,147.5155],[24.4174,51.9886,147.2762],[24.4132,51.9858,158.4395],[24.417,51.9521,149.0088],[24.4131,51.9468,158.7798],[24.383,51.9327,150.1176],[24.3834,51.9301,150.5712],[24.3936,51.9203,161.5777],[24.3946,51.9131,150.4162],[24.4055,51.9165,150.5373],[24.4717,51.9186,150.344],[24.4904,51.9129,151.1854],[24.4999,51.913,158.1677],[24.5188,51.9188,158.6953],[24.5567,51.9247,154.4499],[24.5849,51.9248,163.9139],[24.6039,51.9307,151.1992],[24.6322,51.9308,163.9536],[24.6415,51.9251,162.1225],[24.6792,51.9253,157.2844],[24.6793,51.9196,150.1309],[24.6985,51.9141,149.5489],[24.7458,51.9145,150.8125],[24.7561,51.9033,150.0085],[24.766,51.8978,150.3929],[24.7849,51.8979,156.2608],[24.8033,51.9037,153.425],[24.8099,51.9037,155.6392],[24.8022,51.9125,159.7112],[24.801,51.9216,153.0234],[24.8172,51.9337,157.9987],[24.8224,51.9277,153.8448],[24.8309,51.9308,161.7526],[24.8301,51.9367,161.1796],[24.8204,51.9427,159.5332],[24.8464,51.9488,157.831],[24.8504,51.9517,164.068],[24.8533,51.9636,163.7266],[24.8607,51.9754,148.8164],[24.8603,51.9783,149.8605],[24.8455,51.9899,146.2831],[24.8403,51.9957,145.5669],[24.8399,51.9986,145.3346],[24.8694,52.0131,146.1257],[24.8631,52.0299,145.4298],[24.8672,52.0327,145.4667],[24.8664,52.0409,145.3345],[24.8389,52.0512,145.3172],[24.7938,52.0585,145.6279],[24.7618,52.0685,145.2238],[24.7569,52.0738,146.1368],[24.7566,52.0764,145.4076],[24.7651,52.0819,146.509],[24.778199999999998,52.0847,145.2418],[24.7866,52.0902,145.2503],[24.7864,52.0928,145.6799],[24.777,52.098,145.041],[24.7672,52.1084,145.0959],[24.7618,52.118899999999996,144.8801],[24.7609,52.1295,145.4411],[24.8071,52.1622,146.1277],[24.8069,52.1649,147.0829],[24.797,52.1753,147.1602],[24.7747,52.1749,155.2145],[24.766,52.172,151.7049],[24.7526,52.1718,160.8487],[24.7521,52.1771,164.0051],[24.7651,52.1826,147.7164],[24.7862,52.1963,148.2987],[24.786,52.199,148.7041],[24.7811,52.2042,149.4331],[24.7672,52.2092,149.8181],[24.7575,52.217,158.924],[24.757,52.2223,154.4093],[24.7777,52.2413,145.7066],[24.7773,52.2466,145.7401],[24.786,52.2494,146.5146],[24.7855,52.2547,148.0555],[24.7763,52.2572,146.7495],[24.7761,52.2598,160.7159],[24.7886,52.2707,163.7069],[24.7926,52.2762,146.7505],[24.814,52.2873,149.8802],[24.7959,52.2895,161.4349],[24.769,52.2889,146.2367],[24.7598,52.2913,148.0944],[24.789,52.3159,149.3044],[24.7888,52.3186,148.9767],[24.7699,52.3288,148.763],[24.7689,52.3394,163.1407],[24.7729,52.3448,160.5693],[24.7722,52.3528,164.5981],[24.7528,52.3682,150.302],[24.7568,52.3736,151.157],[24.7881,52.3771,166.9194],[24.7968,52.38,167.1939],[24.8236,52.3833,149.9727],[24.8415,52.3837,162.7664],[24.8408,52.3917,163.3721],[24.8361,52.3942,162.388],[24.8094,52.3909,163.0137],[24.8001,52.3934,154.0088],[24.7954,52.3959,169.3971],[24.7805,52.4115,148.8776],[24.7757,52.414,148.1865],[24.7573,52.4189,149.8113],[24.7383,52.429,151.7672],[24.7202,52.4285,150.9429],[24.7152,52.4337,160.97]]]]}
,"properties": {"GID_2": "BLR.1.9_1","GID_0": "BLR","country": "Belarus","GID_1": "BLR.1_1","province": "Brest","NL_NAME_1": "Брэсцкая","county": "Kobryn","VARNAME_2": "Kobrin","NL_NAME_2": "Кобрынскіраён","TYPE_2": "Raion","ENGTYPE_2": "District","CC_2": "NA","HASC_2": "BY.BR.KB","name": "Kobryn.county","area_km2": 2028.442,"hist_schema_id": "Elevation0-9000","hist_area_km2": {"125": 1.104,"150": 1888.634,"175": 138.535,"200": 0.168}}}