{"type": "Feature","bbox": [29.088,52.3814,29.9867,52.9845],"geometry": {"type": "MultiPolygon","coordinates": [[[[29.2427,52.524,153.7916],[29.2608,52.5265,137.6886],[29.2746,52.5344,151.9661],[29.2882,52.537,145.4803],[29.3017,52.5368,143.672],[29.3196,52.5311,145.1918],[29.3239,52.5228,147.4132],[29.3506,52.5115,145.7418],[29.3735,52.5248,147.6157],[29.3737,52.5303,143.6899],[29.3828,52.5328,134.2171],[29.3823,52.5192,156.2407],[29.3867,52.5137,137.1994],[29.3957,52.5136,132.9058],[29.4094,52.5216,132.7979],[29.4095,52.5243,132.7501],[29.4141,52.5269,133.0936],[29.4185,52.5241,136.9188],[29.4139,52.5188,142.4733],[29.4138,52.516,135.4205],[29.4182,52.5133,139.6561],[29.4274,52.5213,146.0107],[29.4319,52.5212,148.0483],[29.4364,52.5184,151.9535],[29.4315,52.5076,142.5172],[29.431,52.4913,147.8952],[29.44,52.4911,148.692],[29.4491,52.4937,148.5128],[29.467,52.4934,129.4299],[29.4715,52.4906,133.8875],[29.4714,52.4879,130.9329],[29.4667,52.4826,133.7078],[29.444,52.4775,131.5044],[29.4166,52.4616,128.657],[29.4071,52.4454,134.8627],[29.3978,52.4373,133.3813],[29.3977,52.4346,133.7621],[29.4243,52.4233,158.0255],[29.4379,52.4258,156.4576],[29.4599,52.4146,157.2804],[29.4642,52.4091,165.7078],[29.4641,52.4036,166.6257],[29.4548,52.3956,151.2668],[29.4546,52.3902,156.1205],[29.459,52.3874,153.642],[29.4727,52.3953,158.1057],[29.4816,52.3925,161.0837],[29.4902,52.3814,142.5518],[29.4947,52.3814,142.3783],[29.4993,52.384,141.4275],[29.5039,52.3894,142.4537],[29.5129,52.3892,144.3268],[29.5262,52.3863,139.0894],[29.5397,52.3888,141.9168],[29.5532,52.3885,147.1525],[29.5577,52.3912,140.6961],[29.5578,52.3939,139.409],[29.5535,52.3967,139.8954],[29.558,52.3994,138.5077],[29.5583,52.4075,139.3182],[29.554,52.4131,148.678],[29.5497,52.4158,167.5258],[29.5498,52.4186,163.7282],[29.5543,52.4212,165.3061],[29.5588,52.4211,144.3533],[29.568,52.4264,140.5957],[29.5725,52.4264,141.8879],[29.5856,52.418,144.3125],[29.5902,52.4206,145.0088],[29.5814,52.4262,139.1979],[29.5819,52.4398,136.2304],[29.5953,52.4396,136.439],[29.5999,52.4422,136.8454],[29.6089,52.4421,142.8207],[29.6133,52.4393,146.0345],[29.6131,52.4338,144.3138],[29.6217,52.4255,139.8515],[29.6306,52.4254,135.4164],[29.6398,52.4307,133.7968],[29.6579,52.4358,139.4007],[29.6759,52.4382,134.2379],[29.6805,52.4408,133.7411],[29.698,52.4324,137.3617],[29.6977,52.4242,135.9847],[29.7019,52.4187,133.8912],[29.7113,52.4294,133.4421],[29.7159,52.432,133.1898],[29.7204,52.432,135.4992],[29.7203,52.4292,137.8423],[29.7156,52.4239,135.6374],[29.7155,52.4211,132.8036],[29.7199,52.4211,133.2387],[29.7291,52.4263,135.7756],[29.7293,52.4318,132.9112],[29.734,52.4372,132.7449],[29.7474,52.4369,132.6773],[29.7517,52.4341,132.6207],[29.7516,52.431399999999996,132.9088],[29.7379,52.4235,137.3715],[29.7378,52.4207,140.084],[29.7421,52.4179,132.7972],[29.7512,52.4205,132.5291],[29.7646,52.4202,133.1887],[29.7738,52.4282,133.4634],[29.7961,52.4278,140.5102],[29.8052,52.4304,135.1281],[29.8046,52.4168,136.4588],[29.7999,52.4114,135.0218],[29.7997,52.4087,140.0467],[29.8041,52.4058,143.6255],[29.8264,52.4054,137.5041],[29.8351,52.4025,136.8667],[29.8529,52.4022,146.3988],[29.862,52.4047,143.3502],[29.8753,52.4045,144.4544],[29.8846,52.4125,144.7875],[29.8983,52.4204,149.229],[29.903,52.4258,137.4429],[29.8946,52.4368,136.6151],[29.8773,52.4481,146.921],[29.8638,52.4456,149.7533],[29.8502,52.4404,146.853],[29.8458,52.4405,143.8682],[29.8412,52.4379,146.801],[29.8369,52.4407,149.1346],[29.8377,52.4598,140.9075],[29.8424,52.4651,143.0346],[29.8606,52.473,133.687],[29.8607,52.4757,134.2098],[29.8654,52.4811,132.245],[29.8791,52.4863,153.5417],[29.897,52.4887,138.6658],[29.9016,52.4913,143.2674],[29.9019,52.4968,151.6625],[29.8892,52.5134,148.742],[29.8895,52.5188,143.0016],[29.8767,52.5327,136.3432],[29.8949,52.5406,155.3491],[29.9087,52.5485,131.1496],[29.9178,52.5511,132.2484],[29.9221,52.5482,139.8558],[29.9217,52.5401,145.9381],[29.9261,52.5372,141.735],[29.9394,52.537,138.7571],[29.9442,52.5424,145.8235],[29.9443,52.5451,148.3283],[29.9401,52.5506,153.0648],[29.9357,52.5534,138.0959],[29.9359,52.5562,146.7155],[29.9405,52.5588,127.8551],[29.9766,52.5663,130.6883],[29.9769,52.5745,140.0518],[29.9864,52.5852,131.4898],[29.9867,52.5907,123.3407],[29.9779,52.5936,125.2955],[29.9782,52.6018,151.2225],[29.9739,52.6046,156.0398],[29.965,52.6048,146.1628],[29.9606,52.6076,136.1842],[29.9561,52.6077,143.6353],[29.938,52.6026,129.975],[29.9291,52.6027,129.4167],[29.9293,52.6082,123.9252],[29.9385,52.6135,123.9858],[29.9342,52.6163,149.6269],[29.9251,52.6137,124.4095],[29.9252,52.6165,128.111],[29.9208,52.6193,124.2132],[29.9254,52.6219,158.1943],[29.9256,52.6246,154.3903],[29.9166,52.6248,161.3555],[29.912,52.6222,124.5466],[29.9118,52.6167,125.137],[29.9072,52.6141,125.3273],[29.9027,52.6141,125.3684],[29.894,52.6198,123.4235],[29.8759,52.6174,125.5377],[29.8761,52.6201,124.983],[29.8672,52.623,123.8029],[29.8673,52.6257,124.8896],[29.863,52.6285,126.4164],[29.854,52.6287,123.0621],[29.8313,52.6236,137.4145],[29.8181,52.6293,125.3955],[29.8183,52.6348,125.4332],[29.8275,52.6401,133.2065],[29.8277,52.6428,132.4778],[29.8188,52.6457,129.2081],[29.8007,52.6433,125.4066],[29.7874,52.6462,126.1758],[29.7786,52.6518,125.9322],[29.7789,52.66,128.6463],[29.7834,52.6599,126.5231],[29.7792,52.6655,130.0037],[29.7748,52.6683,135.5279],[29.7753,52.6819,144.0904],[29.7668,52.693,137.6189],[29.7494,52.7096,136.7477],[29.7318,52.7208,142.7888],[29.7321,52.729,145.3987],[29.7367,52.7316,150.4054],[29.7324,52.7372,140.9898],[29.7191,52.7428,140.4792],[29.6973,52.7623,144.075],[29.6974,52.765,139.8762],[29.7065,52.7676,144.5491],[29.7067,52.773,141.8531],[29.7025,52.7813,136.1172],[29.7072,52.7867,141.6064],[29.7073,52.7894,158.0324],[29.6801,52.7871,129.9222],[29.6755,52.7844,141.3921],[29.6753,52.779,134.3602],[29.6615,52.7738,149.5154],[29.6612,52.7656,135.6199],[29.6477,52.7658,142.6952],[29.6431,52.7631,142.6021],[29.6249,52.7607,153.3149],[29.6114,52.7609,137.9206],[29.6024,52.7638,142.6764],[29.5934,52.7639,149.6989],[29.5842,52.7586,145.9395],[29.5841,52.7559,138.6319],[29.5795,52.7532,138.5028],[29.566,52.7561,137.3222],[29.5663,52.7643,133.3094],[29.553,52.7727,135.8318],[29.5394,52.7729,128.8488],[29.535,52.7757,128.7144],[29.535,52.7784,128.7689],[29.5262,52.784,135.3158],[29.5035,52.7843,130.3421],[29.5082,52.7897,133.5948],[29.5175,52.795,135.7424],[29.5131,52.8005,138.271],[29.4995,52.8007,129.4139],[29.4948,52.7954,130.9141],[29.4903,52.7954,129.8067],[29.477,52.8038,130.4821],[29.4683,52.8148,147.6816],[29.4687,52.8284,152.8007],[29.4551,52.8286,137.6132],[29.4506,52.8314,131.497],[29.4507,52.8341,133.2793],[29.4329,52.8453,135.4489],[29.4285,52.8508,132.0535],[29.4243,52.8618,146.9882],[29.4108,52.8647,133.8019],[29.4063,52.8675,139.796],[29.4065,52.8756,148.3284],[29.3977,52.8839,136.1077],[29.3935,52.8976,135.2441],[29.3983,52.903,137.4951],[29.412,52.9055,133.9602],[29.4121,52.9083,136.7536],[29.4076,52.911,148.188],[29.3985,52.9112,146.7221],[29.3896,52.9167,152.2984],[29.39,52.9304,145.6661],[29.3721,52.9442,134.6817],[29.3451,52.9527,134.3174],[29.3132,52.9532,150.8398],[29.2858,52.9508,160.343],[29.2678,52.9592,148.9185],[29.2544,52.9703,146.9986],[29.2406,52.9677,155.3326],[29.2315,52.9678,163.5849],[29.227,52.9706,146.6182],[29.2228,52.9843,139.0069],[29.2091,52.9845,156.5623],[29.2134,52.9735,155.1097],[29.2088,52.9708,164.885],[29.1951,52.9683,156.2972],[29.195,52.9656,156.9646],[29.1903,52.9602,156.8929],[29.1947,52.9547,150.3593],[29.1624,52.936,146.4888],[29.1576,52.9279,146.5492],[29.1438,52.9199,157.9856],[29.1391,52.9145,156.7191],[29.1389,52.9091,152.257],[29.1434,52.9036,143.4455],[29.1524,52.9007,156.6746],[29.1523,52.898,143.1185],[29.1432,52.8954,140.8773],[29.143,52.89,154.723],[29.152,52.8844,146.6057],[29.1336,52.8738,141.9215],[29.1243,52.8657,140.6661],[29.1151,52.8631,141.1836],[29.1106,52.8659,145.1482],[29.1109,52.8768,142.5893],[29.0972,52.8769,145.4229],[29.088,52.8743,143.5878],[29.0925,52.8688,149.8923],[29.0967,52.8524,158.097],[29.1012,52.8524,168.1885],[29.101,52.8415,150.0031],[29.1054,52.8387,155.454],[29.1048,52.8115,162.9369],[29.1093,52.8087,152.6489],[29.1229,52.8086,161.5559],[29.1503,52.8137,167.0399],[29.1501,52.8055,157.0292],[29.1546,52.8027,142.2914],[29.1637,52.8026,141.4164],[29.1728,52.8052,140.6162],[29.1773,52.7997,141.0118],[29.1863,52.7969,140.6424],[29.1954,52.7995,140.3554],[29.2318,52.799,140.1049],[29.2453,52.7961,144.2493],[29.2497,52.7906,138.4693],[29.2542,52.7878,138.1602],[29.2447,52.7743,161.123],[29.2446,52.7689,164.5837],[29.2353,52.7609,169.9818],[29.2308,52.7609,169.8],[29.2173,52.7665,155.8142],[29.2081,52.7612,155.7599],[29.208,52.7585,162.4923],[29.217,52.7529,156.1673],[29.2168,52.7475,145.4653],[29.2121,52.7394,169.3238],[29.2027,52.7286,159.2053],[29.2027,52.7259,160.7063],[29.1888,52.7152,144.2896],[29.184,52.7071,141.1062],[29.1838,52.6989,160.1992],[29.1792,52.6963,146.8371],[29.179,52.6881,140.2075],[29.1878,52.6771,147.2036],[29.1876,52.669,138.4589],[29.21,52.6578,139.0072],[29.2099,52.6523,151.2543],[29.1963,52.6525,144.9482],[29.1961,52.6471,142.7183],[29.2006,52.6443,143.2736],[29.2186,52.6413,143.6926],[29.2188,52.6495,148.6314],[29.2234,52.6521,141.879],[29.237,52.652,138.5051],[29.2459,52.6464,148.6711],[29.282,52.6432,154.8571],[29.291,52.6403,144.6823],[29.3001,52.6402,139.4772],[29.3138,52.6455,145.0658],[29.3273,52.6425,135.243],[29.3364,52.6451,149.5832],[29.3454,52.645,134.8772],[29.3499,52.6422,133.7453],[29.3498,52.6395,133.2524],[29.3542,52.634,133.8707],[29.3586,52.6312,137.1572],[29.3585,52.6285,135.9436],[29.3539,52.6258,142.9174],[29.3449,52.626,143.6816],[29.3221,52.6181,149.4808],[29.322,52.6154,140.6466],[29.3174,52.6127,156.4753],[29.3217,52.6045,157.8019],[29.3214,52.5963,154.6223],[29.3123,52.591,151.5829],[29.2986,52.5858,142.508],[29.285,52.586,155.1065],[29.2717,52.5943,143.2253],[29.2626,52.5945,140.2004],[29.2488,52.5838,140.6539],[29.2443,52.5838,138.9711],[29.2351,52.5785,138.8225],[29.2349,52.5704,139.6862],[29.2393,52.5676,138.5062],[29.2392,52.5621,138.5384],[29.2344,52.554,139.4842],[29.234,52.5377,146.5667],[29.2385,52.5377,141.0934],[29.243,52.5349,141.8575],[29.2473,52.5294,150.9373],[29.2427,52.524,153.7916]]]]}
,"properties": {"GID_2": "BLR.2.17_1","GID_0": "BLR","country": "Belarus","GID_1": "BLR.2_1","province": "Gomel","NL_NAME_1": "Гомельская","county": "Svyetlahorsk","VARNAME_2": "Svetlogorsk","NL_NAME_2": "Светлагорскіраён","TYPE_2": "Raion","ENGTYPE_2": "District","CC_2": "NA","HASC_2": "BY.HO.SV","name": "Svyetlahorsk.county","area_km2": 1853.178,"hist_schema_id": "Elevation0-9000","hist_area_km2": {"125": 674.651,"150": 1120.488,"175": 58.039}}}