{"type":"Feature","properties":{"GID_2":"BLR.1.6_1","GID_0":"BLR","country":"Belarus","GID_1":"BLR.1_1","province":"Brest","NL_NAME_1":"Брэсцкая","county":"Ivanaw","VARNAME_2":"Ivanovo","NL_NAME_2":"Іванаўскіраён","TYPE_2":"Raion","ENGTYPE_2":"District","CC_2":"NA","HASC_2":"BY.BR.IN","name":"Ivanaw.county"},
"geometry":{"type": "MultiPolygon","coordinates": [[[[25.4534,52.4208,144.5842],[25.454,52.4127,143.0167],[25.4499,52.4073,143.5984],[25.4413,52.4017,144.1267],[25.41,52.4011,143.6786],[25.394,52.374,143.6058],[25.3907,52.3578,142.4529],[25.3915,52.3471,142.12],[25.3874,52.3416,142.4552],[25.3878,52.3363,142.3589],[25.3924,52.3337,142.2589],[25.407,52.3178,154.2551],[25.4073,52.3125,154.942],[25.412,52.3099,159.2866],[25.4207,52.3127,169.8655],[25.4289,52.3236,148.141],[25.4334,52.3237,146.4652],[25.452,52.3133,151.1237],[25.4568,52.308,151.3852],[25.457,52.3053,148.0193],[25.4442,52.297,150.628],[25.4443,52.2944,150.8211],[25.449,52.2918,149.608],[25.4624,52.292,149.0439],[25.4759,52.2896,147.2046],[25.4806,52.287,148.346],[25.4809,52.2816,162.8752],[25.4724,52.2761,162.5917],[25.4501,52.2757,147.5188],[25.4415,52.2701,148.6777],[25.4421,52.2621,152.4672],[25.4339,52.2512,151.7024],[25.4345,52.2432,150.3466],[25.422,52.2295,153.4462],[25.4131,52.2294,152.9085],[25.3996,52.2318,153.7177],[25.4,52.2265,153.3495],[25.405,52.2185,153.7792],[25.4103,52.2052,155.8153],[25.4018,52.1996,168.2939],[25.3799,52.1939,170.7914],[25.372,52.1804,149.9428],[25.3766,52.1778,156.0518],[25.377,52.1724,157.8105],[25.3638,52.1695,148.3644],[25.3597,52.1641,152.6163],[25.3607,52.1507,159.5801],[25.3562,52.1506,155.9616],[25.3531,52.1317,144.0817],[25.3538,52.121,146.431],[25.3405,52.1208,147.1623],[25.3223,52.1259,145.7689],[25.3221,52.1286,146.3521],[25.3177,52.1285,146.1552],[25.3096,52.1176,147.7431],[25.3105,52.1042,148.7957],[25.3202,52.0935,144.6182],[25.3218,52.0744,148.5603],[25.3141,52.0604,145.1394],[25.3018,52.049,145.1098],[25.3112,52.0435,143.9475],[25.3118,52.0379,143.5537],[25.3057,52.0094,145.5074],[25.2982,51.9949,153.2932],[25.295,51.984,152.6544],[25.3028,51.9843,152.232],[25.3029,51.9786,148.8023],[25.3409,51.9691,142.262],[25.3503,51.9696,142.3948],[25.3603,51.9589,143.6407],[25.37,51.9537,141.9722],[25.3703,51.9482,144.0947],[25.3891,51.9491,142.5896],[25.4083,51.9445,147.1636],[25.418,51.9395,141.6651],[25.4274,51.94,141.3552],[25.4372,51.935,142.6513],[25.4748,51.9369,140.8881],[25.4847,51.9318,145.5095],[25.4941,51.9323,150.9208],[25.521,51.9502,147.6578],[25.5305,51.9507,150.4817],[25.5402,51.9457,140.164],[25.5496,51.9461,140.6274],[25.5588,51.9519,140.8458],[25.5682,51.9523,140.5338],[25.6068,51.9426,139.9623],[25.6257,51.9433,139.6333],[25.6262,51.9378,146.6726],[25.6451,51.9384,149.8605],[25.655,51.9332,154.7229],[25.7117,51.9353,154.2146],[25.7221,51.9301,148.0179],[25.7211,51.9513,141.1717],[25.7299,51.9515,144.5061],[25.7252,51.9571,146.0647],[25.725,51.96,148.0621],[25.7334,51.966,153.1662],[25.7329,51.9746,155.6719],[25.7371,51.9775,155.4005],[25.7355,52.0031,138.3816],[25.7393,52.0117,151.6102],[25.7562,52.0233,148.2608],[25.7648,52.0263,146.416],[25.7638,52.0402,144.984],[25.7682,52.0403,138.5594],[25.7809,52.0488,136.3257],[25.7806,52.0516,135.9733],[25.776,52.0543,135.895],[25.7674,52.0514,148.4648],[25.7585,52.0512,149.4329],[25.7455,52.0482,148.4937],[25.7427,52.0867,140.7473],[25.7468,52.0922,142.5568],[25.7511,52.0949,142.4361],[25.7644,52.0952,142.8141],[25.8028,52.1227,149.0275],[25.8202,52.1284,147.0905],[25.8231,52.1554,152.8431],[25.8183,52.1607,173.2728],[25.8091,52.166,175.4982],[25.7956,52.1685,182.1423],[25.7867,52.1683,182.51],[25.7821,52.1709,176.2967],[25.7815,52.1817,173.8784],[25.8082,52.1821,173.318],[25.8072,52.1983,171.6308],[25.8026,52.2009,171.4841],[25.8158,52.2038,171.7146],[25.8156,52.2065,173.5902],[25.8112,52.2065,174.9065],[25.8064,52.2118,171.2447],[25.8105,52.2172,166.9636],[25.8099,52.228,154.629],[25.8365,52.2311,153.4803],[25.8544,52.2287,178.6889],[25.8587,52.2315,172.7103],[25.8627,52.2397,155.7367],[25.8622,52.2477,150.4549],[25.8757,52.2453,151.3735],[25.8889,52.2482,162.8268],[25.8975,52.2537,161.9659],[25.9056,52.2673,137.5973],[25.8872,52.2778,137.823],[25.8689,52.2856,137.0643],[25.8598,52.2882,137.2881],[25.8331,52.2877,137.6004],[25.8326,52.2958,139.155],[25.8192,52.2956,137.8089],[25.8105,52.2927,137.4526],[25.7971,52.2925,137.5553],[25.811,52.2846,139.4644],[25.8111,52.2819,146.5556],[25.807,52.2765,148.2182],[25.8025,52.2764,151.4023],[25.7888,52.2816,159.1766],[25.7666,52.2812,145.3271],[25.7575,52.2837,153.2178],[25.7436,52.2916,154.4467],[25.7434,52.2943,162.1252],[25.7608,52.3026,148.0191],[25.7692,52.3109,138.2625],[25.7732,52.319,139.0108],[25.7504,52.3267,150.01],[25.7502,52.3294,150.8605],[25.7545,52.3322,150.6695],[25.7586,52.3376,153.4151],[25.7675,52.3378,158.9084],[25.7811,52.3353,157.7952],[25.7854,52.3381,156.5099],[25.7852,52.3408,157.6938],[25.7806,52.3434,159.5156],[25.7801,52.3515,150.3522],[25.7741,52.3756,153.818],[25.7784,52.3784,154.1866],[25.7776,52.3919,165.9551],[25.7553,52.3915,159.9418],[25.7506,52.3941,155.1764],[25.7542,52.4076,162.463],[25.7453,52.4074,153.1524],[25.741,52.4047,142.4942],[25.7365,52.4046,154.2575],[25.7319,52.4072,161.5716],[25.7317,52.4099,154.3711],[25.7226,52.4124,142.9102],[25.7183,52.4096,144.3879],[25.7046,52.4148,142.1389],[25.7089,52.4175,141.6932],[25.7082,52.4283,142.3751],[25.7033,52.4336,142.2432],[25.6942,52.4361,143.374],[25.6935,52.4469,153.2758],[25.6891,52.4468,142.1816],[25.6844,52.4494,142.1017],[25.6667,52.4464,143.0666],[25.6529,52.4515,142.3486],[25.6354,52.4458,142.1607],[25.6219,52.4455,142.0091],[25.6001,52.437,142.0352],[25.5956,52.437,141.9403],[25.591,52.4396,141.8008],[25.5906,52.4449,142.3347],[25.5811,52.4528,142.114],[25.5672,52.4606,142.4557],[25.553,52.4711,143.1816],[25.5478,52.4818,142.4526],[25.534,52.4869,142.861],[25.5071,52.4863,143.8785],[25.5028,52.4836,143.6536],[25.4946,52.4726,143.6464],[25.4998,52.462,142.2843],[25.5006,52.4513,142.3303],[25.5052,52.4487,142.2758],[25.5063,52.4325,142.6066],[25.5201,52.4274,141.9576],[25.5158,52.4247,143.1018],[25.4935,52.4242,142.6287],[25.4842,52.4294,145.738],[25.4706,52.4319,146.069],[25.4618,52.429,144.2011],[25.4534,52.4208,144.5842]]]]}}