{"type":"Feature","properties":{"GID_2":"BLR.4.10_1","GID_0":"BLR","country":"Belarus","GID_1":"BLR.4_1","province":"Mogilev","NL_NAME_1":"Магілёўская","county":"Kastsyukovichy","VARNAME_2":"Kostyukovichi","NL_NAME_2":"Касцюковіцкіраён","TYPE_2":"Raion","ENGTYPE_2":"District","CC_2":"NA","HASC_2":"BY.MA.KS","name":"Kastsyukovichy.county"},
"geometry":{"type": "MultiPolygon","coordinates": [[[[31.711,53.2112,157.4326],[31.7299,53.2075,159.9343],[31.7539,53.2063,156.005],[31.7859,53.1881,170.1136],[31.7994,53.1763,161.625],[31.7989,53.1707,151.2672],[31.8023,53.1538,149.848],[31.811,53.1422,156.2868],[31.8105,53.1366,149.6391],[31.8196,53.1306,136.9993],[31.8283,53.119,152.7122],[31.8329,53.116,151.411],[31.8755,53.1086,158.9767],[31.9139,53.1153,161.5953],[31.9137,53.1125,158.7098],[31.9228,53.1065,160.1048],[31.9269,53.0924,174.2177],[31.9313,53.0866,159.5076],[31.9532,53.0853,151.7132],[31.9623,53.0876,153.6149],[31.9886,53.0861,166.7878],[32.0067,53.0909,170.546],[32.0161,53.0961,170.7201],[32.0249,53.0956,163.365],[32.0501,53.0831,178.5246],[32.0674,53.0795,191.0943],[32.0809,53.0818,173.2323],[32.0853,53.0816,170.1919],[32.085,53.0788,170.9734],[32.1159,53.0775,177.477],[32.1701,53.0868,184.9855],[32.1704,53.0896,175.5407],[32.1752,53.0922,176.5789],[32.181,53.1031,179.0344],[32.1857,53.1056,172.7267],[32.1992,53.1079,166.7087],[32.2074,53.105,164.5931],[32.2151,53.0994,174.6157],[32.2273,53.0963,162.9562],[32.2325,53.1016,155.9409],[32.2369,53.1012,154.2766],[32.2368,53.1253,162.7047],[32.2416,53.1277,171.593],[32.2502,53.1274,182.0213],[32.2579,53.1218,178.9119],[32.2752,53.1205,175.124],[32.2929,53.1217,163.614],[32.3067,53.1261,169.1703],[32.3262,53.1359,183.3513],[32.3265,53.1386,180.5825],[32.342,53.1489,171.4935],[32.3475,53.1568,176.5441],[32.3449,53.171,181.3377],[32.3502,53.1761,184.3278],[32.355,53.1785,183.1213],[32.3956,53.1849,174.3973],[32.3855,53.1881,175.3256],[32.3559,53.1839,178.1376],[32.3521,53.1869,179.1026],[32.3487,53.1925,184.0859],[32.3491,53.1952,182.7427],[32.3452,53.1982,183.2831],[32.3359,53.196,182.4933],[32.3247,53.2161,190.6577],[32.2949,53.2404,158.8651],[32.2692,53.2588,166.9901],[32.2655,53.2675,162.06],[32.2658,53.2703,171.9967],[32.2846,53.2748,169.0849],[32.2898,53.2801,160.6477],[32.2901,53.2829,168.7293],[32.2815,53.289,172.1718],[32.2775,53.2949,167.5402],[32.2783,53.3033,147.0237],[32.2743,53.3091,157.5777],[32.2617,53.3211,159.5423],[32.258,53.3297,167.3366],[32.2453,53.3416,163.6205],[32.2459,53.3472,166.2662],[32.237,53.3504,162.4671],[32.2375,53.356,161.8339],[32.2424,53.3585,164.5889],[32.2607,53.3576,169.4334],[32.2612,53.3631,171.7194],[32.2664,53.3685,174.5269],[32.2713,53.371,174.3413],[32.2992,53.3723,173.6138],[32.2862,53.3814,174.2327],[32.2873,53.3925,173.7037],[32.2925,53.3978,176.5135],[32.2928,53.4006,176.6045],[32.2884,53.4036,179.3017],[32.2746,53.4044,178.3765],[32.28,53.4125,183.3074],[32.2811,53.4236,181.8759],[32.292,53.4398,182.4624],[32.2929,53.4481,186.0369],[32.2888,53.4539,199.8858],[32.2563,53.4554,186.8764],[32.2428,53.4588,178.2807],[32.2376,53.4535,169.8457],[32.2373,53.4507,170.9152],[32.2273,53.4429,169.4514],[32.2181,53.4433,179.5722],[32.2051,53.4522,187.3511],[32.2066,53.4687,186.5714],[32.202,53.4689,185.0102],[32.1834,53.4669,167.2411],[32.1819,53.4504,165.973],[32.1771,53.4478,165.7309],[32.1541,53.4488,183.7232],[32.1493,53.4462,184.4757],[32.131,53.447,179.2915],[32.1132,53.4532,186.1757],[32.1091,53.4589,181.595],[32.1005,53.4647,184.9943],[32.0863,53.4597,189.7198],[32.0818,53.4599,186.7894],[32.0774,53.4628,186.1512],[32.0831,53.4763,202.4502],[32.0742,53.4793,195.2908],[32.0413,53.4696,192.4629],[32.0181,53.4677,188.6213],[32.0089,53.4681,192.3051],[31.9999,53.4711,193.191],[31.9955,53.474,194.1247],[31.9914,53.4795,192.7997],[31.9821,53.4799,194.229],[31.9674,53.4695,191.3487],[31.9669,53.4641,183.7786],[31.9759,53.461,189.3982],[31.9755,53.4556,188.112],[31.9552,53.4345,172.7878],[31.9466,53.443,176.4211],[31.9468,53.4457,181.7678],[31.9424,53.4486,186.2951],[31.9004,53.4473,176.6335],[31.8811,53.4398,183.0577],[31.8385,53.433,199.051],[31.781,53.4156,179.2992],[31.7627,53.4186,180.7833],[31.7356,53.4269,194.571],[31.689,53.4193,165.2735],[31.6975,53.4139,183.6802],[31.72,53.4084,182.4536],[31.7287,53.403,192.6632],[31.7285,53.4003,161.2986],[31.7139,53.3925,176.7755],[31.7087,53.3872,178.4764],[31.708,53.3792,198.4505],[31.7023,53.3687,200.2444],[31.7021,53.366,183.8544],[31.7106,53.358,182.3884],[31.7093,53.3447,180.5081],[31.714,53.3446,181.5896],[31.7127,53.3313,163.5454],[31.6984,53.3289,164.6392],[31.6886,53.3237,176.5743],[31.6883,53.3211,179.7977],[31.6968,53.3129,172.8357],[31.7203,53.3122,174.4586],[31.7526,53.3057,176.3849],[31.7851,53.2989,171.5898],[31.7941,53.293,170.2715],[31.7891,53.2905,164.3604],[31.7846,53.2934,162.8715],[31.6897,53.2889,169.1003],[31.6847,53.2864,169.8864],[31.6795,53.2811,173.4635],[31.6789,53.2758,169.3978],[31.6831,53.2702,165.8561],[31.6928,53.2726,162.8317],[31.7022,53.2722,160.8595],[31.7017,53.2668,185.6494],[31.6967,53.2643,185.3812],[31.6909,53.2536,173.0517],[31.6904,53.2482,166.0306],[31.6943,53.2398,163.3487],[31.7031,53.2311,155.6016],[31.7168,53.222,156.8612],[31.7163,53.2165,156.3266],[31.711,53.2112,157.4326]]]]}}