{"type":"Feature","properties":{"GID_2":"BLR.2.11_1","GID_0":"BLR","country":"Belarus","GID_1":"BLR.2_1","province":"Gomel","NL_NAME_1":"Гомельская","county":"Lyelchytsy","VARNAME_2":"Lelchitsu","NL_NAME_2":"Лельчыцкіраён","TYPE_2":"Raion","ENGTYPE_2":"District","CC_2":"NA","HASC_2":"BY.HO.LC","name":"Lyelchytsy.county"},
"geometry":{"type": "MultiPolygon","coordinates": [[[[27.5298,51.6358,145.0103],[27.5334,51.636,143.6541],[27.5423,51.6422,146.4762],[27.5519,51.6425,146.5249],[27.572,51.6374,142.2103],[27.6032,51.6209,142.5541],[27.6128,51.6213,144.9221],[27.6217,51.6275,144.8938],[27.67,51.6292,147.3882],[27.6908,51.6182,147.732],[27.7095,51.6247,148.5137],[27.7198,51.6192,167.0077],[27.7233,51.5846,153.4308],[27.7141,51.5785,156.1312],[27.7147,51.5727,156.1129],[27.6868,51.56,162.9034],[27.6771,51.5596,156.628],[27.668,51.5535,165.3214],[27.6697,51.5296,163.1657],[27.6798,51.5242,169.5024],[27.6802,51.518,173.8769],[27.6904,51.5126,174.9406],[27.7002,51.5133,167.9806],[27.7309,51.4971,170.5076],[27.7509,51.4924,182.5351],[27.7606,51.4928,182.1503],[27.7686,51.5105,163.9426],[27.7681,51.5163,171.854],[27.7863,51.5282,158.917],[27.7853,51.54,132.9263],[27.8039,51.546,148.8679],[27.8328,51.5458,160.5375],[27.8419,51.5516,149.6461],[27.8413,51.5576,148.252],[27.8211,51.5697,155.0509],[27.8196,51.5876,145.7815],[27.8287,51.5934,145.7691],[27.8368,51.6111,144.7554],[27.8358,51.6229,150.5972],[27.8258,51.6286,153.6236],[27.8161,51.6283,153.3888],[27.8339,51.6406,152.9031],[27.8724,51.6417,155.2187],[27.8828,51.6359,150.4478],[27.902,51.6364,141.1957],[27.9222,51.6236,141.7298],[27.9251,51.5865,162.2336],[27.9348,51.5865,163.699],[27.9438,51.5922,149.502],[27.9624,51.5978,151.2478],[27.9817,51.5978,160.787],[27.9457,51.5749,148.6016],[27.9471,51.5632,166.1256],[27.9658,51.5691,164.263],[28.0822,51.5702,159.2261],[28.1013,51.5757,150.909],[28.1103,51.5827,152.7488],[28.1179,51.6027,149.2753],[28.1359,51.6166,153.0895],[28.1552,51.6175,153.8244],[28.1738,51.6249,146.9125],[28.1715,51.6506,139.9723],[28.1898,51.6643,144.471],[28.2182,51.6716,139.0214],[28.2461,51.6853,140.3041],[28.2553,51.6916,143.7919],[28.2741,51.6978,148.5015],[28.2843,51.6926,135.0308],[28.2847,51.6868,139.5993],[28.2663,51.6737,140.5747],[28.2677,51.6494,139.9657],[28.259,51.6365,142.5232],[28.2594,51.6303,144.1897],[28.2783,51.6316,141.9355],[28.2874,51.6384,144.375],[28.2973,51.633,141.6181],[28.3179,51.6094,159.9857],[28.3383,51.5916,161.5615],[28.3587,51.5793,168.1642],[28.3692,51.567,168.742],[28.3593,51.5615,169.9126],[28.3597,51.5496,161.2346],[28.3697,51.5494,164.0736],[28.3895,51.5604,161.5144],[28.3996,51.5601,165.844],[28.4196,51.5653,156.7708],[28.4593,51.5874,158.2988],[28.4892,51.5981,164.419],[28.4992,51.5977,165.6634],[28.5105,51.5914,157.3206],[28.5296,51.5907,157.2675],[28.5327,51.5888,155.1044],[28.5578,51.5942,166.618],[28.5772,51.6055,156.4782],[28.5802,51.6115,155.8105],[28.5781,51.6233,165.7215],[28.5855,51.6347,151.0497],[28.5846,51.6461,145.4586],[28.5798,51.6546,141.7335],[28.5793,51.6658,156.1695],[28.5748,51.6687,153.4293],[28.5744,51.6853,145.817],[28.583,51.696,152.9008],[28.5829,51.7015,155.2968],[28.5782,51.7152,149.4207],[28.5647,51.7237,142.1715],[28.5647,51.7264,137.4196],[28.5734,51.7343,143.9574],[28.5777,51.745,150.6585],[28.5866,51.7448,146.3703],[28.591,51.7474,144.3145],[28.5865,51.7529,145.1232],[28.591,51.7555,144.7108],[28.6043,51.7525,144.8284],[28.6087,51.7578,146.4326],[28.6086,51.7713,136.5185],[28.6041,51.7741,136.1505],[28.6041,51.7768,140.4837],[28.6086,51.7767,140.1986],[28.6175,51.7711,144.6494],[28.6308,51.7762,136.1086],[28.6398,51.7706,134.7989],[28.6442,51.7733,134.6649],[28.6442,51.776,137.0288],[28.6486,51.7786,134.4561],[28.662,51.7756,150.0475],[28.6753,51.778,136.7392],[28.6798,51.7725,133.7856],[28.6887,51.7723,135.8692],[28.702,51.7802,134.1553],[28.7064,51.7774,134.208],[28.7109,51.78,141.5171],[28.7109,51.7908,134.6179],[28.7286,51.7959,133.702],[28.7331,51.7904,133.4077],[28.7375,51.7903,133.349],[28.7508,51.7955,139.2441],[28.7641,51.7953,135.0216],[28.7774,51.8005,134.1425],[28.7685,51.806,135.3917],[28.7686,51.8196,134.5591],[28.7552,51.8144,146.3056],[28.7552,51.809,133.7889],[28.7464,51.8091,136.5283],[28.7419,51.8038,142.9771],[28.7419,51.8011,137.6757],[28.733,51.804,141.4773],[28.7375,51.812,137.6523],[28.7375,51.8228,134.8993],[28.7508,51.8442,154.3025],[28.7508,51.847,155.6157],[28.733,51.8527,162.1444],[28.7196,51.861,165.6654],[28.7152,51.8665,169.1009],[28.7018,51.8694,165.4222],[28.6973,51.8884,170.9341],[28.6928,51.8911,170.494],[28.6883,51.8912,170.8976],[28.6794,51.8994,172.8473],[28.6792,51.956,164.8594],[28.6836,51.9614,161.5499],[28.697,51.9585,156.3307],[28.7015,51.9611,161.2452],[28.706,51.961,156.6124],[28.706,51.9637,160.4768],[28.7015,51.9665,156.4455],[28.6926,51.9666,155.599],[28.6926,51.972,155.9379],[28.6792,51.9722,163.5275],[28.6659,51.9779,167.2995],[28.6569,51.9753,154.9347],[28.6568,51.9726,162.5567],[28.6524,51.9726,162.817],[28.6434,51.9673,164.798],[28.639,51.9728,160.5422],[28.6435,51.9809,157.7422],[28.644,52.0188,140.3576],[28.5948,52.0195,138.6619],[28.5723,52.0171,140.0437],[28.5455,52.0202,135.5007],[28.532,52.0177,137.9447],[28.5231,52.0205,122.6345],[28.5051,52.0208,132.1705],[28.5007,52.0235,123.1138],[28.5007,52.0289,121.164],[28.5053,52.0343,120.6055],[28.5323,52.0475,119.8652],[28.5324,52.0556,119.6705],[28.51,52.0532,120.1356],[28.4919,52.0426,121.5734],[28.4783,52.032,122.2134],[28.4738,52.0266,121.2262],[28.4603,52.0214,121.5991],[28.4513,52.0215,122.1824],[28.4153,52.0139,123.107],[28.3569,52.0147,122.9376],[28.3343,52.0042,127.5188],[28.3253,52.0043,126.8055],[28.3074,52.0154,134.1289],[28.2804,52.0157,127.2607],[28.2669,52.0132,127.1419],[28.2624,52.0159,130.0514],[28.2625,52.0294,123.6226],[28.258,52.0322,129.8185],[28.2535,52.0295,128.0437],[28.2535,52.0268,136.0069],[28.249,52.0242,137.6734],[28.249,52.0215,137.8898],[28.2355,52.0244,129.5859],[28.2265,52.0191,141.0807],[28.222,52.0192,139.3542],[28.2174,52.0111,134.371],[28.2084,52.0059,135.3811],[28.1994,52.0033,139.4158],[28.1724,52.009,123.7296],[28.1589,52.0092,122.7233],[28.1499,52.012,122.75],[28.1319,52.0122,128.9406],[28.1274,52.0095,130.5177],[28.1184,52.0096,126.7724],[28.1184,52.0123,124.9008],[28.1049,52.0098,125.0948],[28.0869,52.0019,125.6695],[28.0509,52.0023,135.4805],[28.0464,52.0051,127.2382],[28.0329,52.0052,133.472],[28.0014,52.0002,128.9154],[27.9969,51.9949,128.1633],[27.9834,51.9923,132.3754],[27.988,51.9681,127.6063],[27.988,51.9654,127.9992],[27.9835,51.9628,132.0893],[27.9476,51.9604,130.5008],[27.9341,51.9578,129.7523],[27.8532,51.9584,130.8513],[27.8442,51.9612,128.6174],[27.8218,51.9559,130.0564],[27.7632,51.9561,131.3839],[27.7542,51.9534,131.8542],[27.7406,51.9561,132.0271],[27.7407,51.9534,139.176],[27.7362,51.9507,138.8066],[27.7271,51.9507,131.3202],[27.7137,51.9426,133.4161],[27.7138,51.9345,135.949],[27.7093,51.929,142.3946],[27.6825,51.9182,134.0851],[27.6646,51.9128,132.753],[27.6558,51.9047,134.1241],[27.6561,51.8913,133.9747],[27.6475,51.8832,138.9656],[27.5991,51.8645,135.3775],[27.5814,51.8591,135.4733],[27.5816,51.8565,135.6988],[27.5772,51.8538,135.6715],[27.5593,51.8538,135.7633],[27.5549,51.8511,136.5225],[27.5552,51.8457,140.3679],[27.5598,51.8431,135.9881],[27.5555,51.8404,135.957],[27.5508,51.8431,140.4292],[27.5374,51.8431,140.372],[27.5471,51.8297,135.9209],[27.5523,51.8162,138.7862],[27.5527,51.8082,153.5367],[27.5401,51.7921,139.796],[27.5406,51.784,139.9758],[27.5502,51.7733,143.8443],[27.5552,51.7653,140.2201],[27.5469,51.7545,140.3406],[27.538,51.7518,142.536],[27.5293,51.7465,138.3199],[27.5159,51.7438,137.9449],[27.5067,51.7464,137.5952],[27.4979,51.7437,137.26],[27.4853,51.7276,137.7095],[27.4858,51.7195,139.5917],[27.5221,51.6573,150.1165],[27.5224,51.6435,140.376],[27.5298,51.6358,145.0103]]]]}}