{"type": "Feature","bbox": [30.5408,52.0483,31.38,52.5978],"geometry": {"type": "MultiPolygon","coordinates": [[[[30.5408,52.5126,137.9858],[30.5485,52.4959,148.1302],[30.5483,52.4932,144.8178],[30.5616,52.4956,150.4266],[30.5658,52.4928,142.4649],[30.5652,52.4846,147.8347],[30.5603,52.4765,151.3268],[30.5641,52.4681,158.9633],[30.5724,52.4625,146.8081],[30.5944,52.4647,163.1267],[30.6033,52.4672,142.222],[30.6121,52.467,136.834],[30.6162,52.4641,135.4062],[30.6202,52.4585,136.3291],[30.6108,52.4505,154.1845],[30.6102,52.4423,129.809],[30.6144,52.4395,128.4785],[30.6274,52.4391,129.8497],[30.6359,52.4362,130.2013],[30.6527,52.4275,132.4467],[30.6568,52.4247,133.3305],[30.656,52.4137,155.3275],[30.6599,52.4081,148.5957],[30.6684,52.4052,136.8292],[30.6814,52.4048,150.511],[30.6898,52.4019,151.02],[30.6935,52.3935,148.3961],[30.7015,52.3851,133.0825],[30.7138,52.3765,146.523],[30.7136,52.3738,142.566],[30.7005,52.3714,140.1762],[30.7119,52.3518,137.3308],[30.7117,52.3491,138.167],[30.7071,52.3465,143.4671],[30.711,52.3409,133.4346],[30.7192,52.3352,137.2903],[30.7445,52.329,149.687],[30.7618,52.3312,142.4012],[30.7701,52.3282,133.7239],[30.7817,52.3142,155.4297],[30.7853,52.3058,148.2698],[30.785,52.3031,126.0368],[30.7805,52.3005,143.6675],[30.7763,52.3006,145.7026],[30.7683,52.3063,139.8174],[30.7555,52.3067,141.3566],[30.7289,52.2964,143.3668],[30.7159,52.2941,134.0353],[30.7037,52.3026,131.1859],[30.6953,52.3056,131.5929],[30.6955,52.3084,128.0562],[30.691,52.3057,124.8277],[30.6906,52.3002,133.7318],[30.6773,52.2951,119.07],[30.6559,52.2984,132.2006],[30.6553,52.2902,125.2201],[30.6506,52.2849,118.423],[30.6332,52.2826,118.8199],[30.6155,52.2775,129.5926],[30.6069,52.2778,129.6826],[30.598,52.2753,129.6668],[30.5808,52.2757,115.838],[30.5676,52.2733,115.5925],[30.5631,52.2707,119.8752],[30.5629,52.2679,116.021],[30.5668,52.2624,115.9677],[30.5753,52.2594,115.9344],[30.5831,52.2482,136.0672],[30.591,52.237,139.0783],[30.5904,52.2288,138.0819],[30.599,52.2286,133.9101],[30.6125,52.2365,133.507],[30.6297,52.236,136.1663],[30.6338,52.2331,132.0362],[30.6496,52.2135,133.429],[30.6571,52.1996,129.0139],[30.6691,52.1882,130.2507],[30.6853,52.1768,138.585],[30.7051,52.157,130.1976],[30.7133,52.154,116.1805],[30.7259,52.1537,130.0605],[30.7393,52.1643,118.2393],[30.7477,52.164,118.1843],[30.7516,52.1612,118.6033],[30.759,52.15,117.8963],[30.7618,52.1334,116.8216],[30.7655,52.1278,127.7665],[30.7774,52.1219,131.4482],[30.8364,52.1011,127.1322],[30.8477,52.0954,124.015],[30.8511,52.0899,131.8496],[30.8467,52.0819,126.9224],[30.8707,52.0625,116.2433],[30.874,52.0624,123.8204],[30.8911,52.07,130.4453],[30.8949,52.0753,127.2879],[30.8952,52.0779,121.2832],[30.8927,52.0834,141.1994],[30.8937,52.0914,132.8863],[30.9005,52.0939,142.2243],[30.9086,52.0854,118.4889],[30.9159,52.0931,115.0616],[30.9194,52.0956,120.0632],[30.9224,52.0954,123.5828],[30.9261,52.0868,120.5907],[30.9242,52.0786,117.6458],[30.9269,52.0782,132.1672],[30.9397,52.084,120.0172],[30.9495,52.0774,116.6516],[30.9511,52.0785,116.6516],[31.0574,52.0785,135.7682],[31.0839,52.0893,145.1773],[31.102,52.0947,140.5323],[31.1117,52.0948,148.5715],[31.1255,52.0796,140.9641],[31.1364,52.0747,145.5921],[31.1661,52.0753,137.1584],[31.1767,52.0705,139.7587],[31.1866,52.0708,138.2007],[31.1972,52.0611,150.188],[31.2166,52.0521,142.1648],[31.2354,52.0483,142.0059],[31.2449,52.0488,143.8197],[31.255,52.0539,147.0259],[31.2748,52.0594,151.918],[31.2951,52.0696,150.3656],[31.3061,52.0842,151.2116],[31.3068,52.0989,158.3833],[31.317,52.1041,157.448],[31.3374,52.1046,175.5327],[31.3578,52.1101,174.3704],[31.3679,52.1104,166.7725],[31.3783,52.1155,161.8396],[31.38,52.1268,152.671],[31.3572,52.1353,138.946],[31.3335,52.1361,165.9384],[31.3337,52.1387,149.6936],[31.3482,52.1408,138.3153],[31.3533,52.1458,160.0214],[31.3535,52.1484,161.0678],[31.3405,52.1623,162.567],[31.2907,52.1941,150.5731],[31.2814,52.1973,164.7125],[31.2527,52.2016,159.1281],[31.2434,52.2049,146.9884],[31.2196,52.209,164.1367],[31.1913,52.2162,166.9737],[31.172,52.2173,151.6545],[31.1482,52.2216,141.4005],[31.1465,52.2494,143.0846],[31.1516,52.2518,143.8087],[31.1654,52.2454,142.5759],[31.1795,52.2417,143.0584],[31.1849,52.2469,143.6447],[31.2003,52.2542,145.6939],[31.2006,52.2569,146.1085],[31.1814,52.2582,145.3633],[31.1817,52.2609,158.6036],[31.1871,52.2661,152.486],[31.1976,52.2737,139.1147],[31.2024,52.2734,136.0695],[31.2027,52.2761,131.9825],[31.1983,52.2792,137.0839],[31.1887,52.2798,142.3966],[31.1842,52.2829,133.0053],[31.2065,52.3091,148.8418],[31.2167,52.314,145.7096],[31.217,52.3167,145.3944],[31.1899,52.3325,143.9557],[31.1957,52.3405,166.0069],[31.1849,52.3719,144.1423],[31.1859,52.3802,136.4477],[31.1815,52.3833,146.6006],[31.1716,52.3813,135.0839],[31.1736,52.3979,122.2736],[31.179,52.4031,121.8409],[31.1797,52.4086,120.8392],[31.171,52.4149,121.3338],[31.1774,52.4284,122.5126],[31.1782,52.4339,123.2888],[31.1723,52.4569,141.448],[31.177,52.4593,147.6908],[31.1695,52.4684,149.8355],[31.158,52.4778,136.4285],[31.15,52.4813,118.9298],[31.1068,52.4927,118.2768],[31.0995,52.4987,118.337],[31.0932,52.5129,119.1327],[31.0827,52.5273,136.6585],[31.0676,52.5391,133.1657],[31.0516,52.5453,136.3157],[31.0349,52.546,138.2194],[31.0229,52.5519,138.1435],[31.0219,52.5824,136.7646],[31.0134,52.5827,137.3196],[31.0045,52.5802,138.9767],[30.9527,52.5817,133.3457],[30.9443,52.5847,138.5297],[30.9184,52.5882,139.5665],[30.91,52.5912,136.5968],[30.8746,52.5866,135.195],[30.8657,52.5841,139.5998],[30.857,52.5844,137.5334],[30.8521,52.579,142.0383],[30.8478,52.5791,142.1243],[30.8395,52.5848,145.4803],[30.8308,52.585,147.8141],[30.8299,52.5741,141.2132],[30.8253,52.5714,138.8677],[30.804,52.5775,140.1337],[30.7998,52.5803,138.2398],[30.7961,52.5887,138.0481],[30.7878,52.5944,142.7377],[30.7793,52.5973,134.94],[30.7618,52.5978,136.1353],[30.7348,52.5875,129.0786],[30.7291,52.5711,128.166],[30.7241,52.563,132.1432],[30.7237,52.5575,127.1293],[30.7191,52.5549,133.2394],[30.6931,52.5583,134.3723],[30.6588,52.5674,129.391],[30.65,52.5676,129.0221],[30.6363,52.5597,140.7287],[30.6269,52.5517,137.0036],[30.618,52.5491,137.2032],[30.5987,52.5249,130.2055],[30.5896,52.5196,132.266],[30.5625,52.5093,131.8128],[30.5538,52.5095,134.4349],[30.5408,52.5126,137.9858]]]]}
,"properties": {"GID_2": "BLR.2.6_1","GID_0": "BLR","country": "Belarus","GID_1": "BLR.2_1","province": "Gomel","NL_NAME_1": "Гомельская","county": "Gomyel","VARNAME_2": "Homyel","NL_NAME_2": "Гомельскіраён","TYPE_2": "Raion","ENGTYPE_2": "District","CC_2": "NA","HASC_2": "BY.HO.HM","name": "Gomyel.county","area_km2": 2010.543,"hist_schema_id": "Elevation0-9000","hist_area_km2": {"100": 1.731,"125": 1229.773,"150": 713.341,"175": 65.66,"200": 0.039}}}