{"type": "Feature","bbox": [30.5572,52.7333,31.3726,53.1387],"geometry": {"type": "MultiPolygon","coordinates": [[[[30.9711,52.7384,121.1488],[30.972,52.7494,123.3105],[30.9681,52.7551,122.6965],[30.9685,52.7606,136.8335],[30.9732,52.7632,136.5645],[30.9818,52.7602,139.9813],[30.9913,52.7683,141.8225],[30.962,52.7883,134.2004],[30.9534,52.7912,122.6216],[30.9543,52.8022,122.074],[30.9638,52.8103,122.4842],[30.9776,52.8155,122.7255],[30.9906,52.8124,121.6928],[31.0221,52.8172,144.2001],[31.0498,52.8304,124.3808],[31.0597,52.8413,155.8958],[31.069,52.8466,141.377],[31.0873,52.8517,152.9438],[31.1014,52.8597,140.4646],[31.1236,52.8592,149.5526],[31.1328,52.8618,161.8047],[31.177,52.8606,151.0097],[31.1853,52.8576,148.9401],[31.1932,52.8516,155.0517],[31.2017,52.8512,151.7136],[31.2151,52.8562,145.1858],[31.2245,52.864,144.5135],[31.2459,52.8624,144.6497],[31.2506,52.8648,144.9718],[31.2438,52.8823,146.8565],[31.238,52.9082,159.3006],[31.2429,52.9134,154.4813],[31.2392,52.9194,145.3711],[31.2588,52.9374,168.6231],[31.2779,52.9414,169.6621],[31.3018,52.953,159.7834],[31.3198,52.9646,159.7243],[31.3284,52.9639,163.9292],[31.3328,52.9663,153.9649],[31.3501,52.9653,157.4578],[31.3726,52.97,165.8532],[31.3684,52.9756,162.8596],[31.3507,52.9842,135.9094],[31.325,52.993899999999996,133.4512],[31.2959,53.0078,150.372],[31.2832,53.0093,149.7124],[31.2708,53.0163,142.5522],[31.2581,53.0205,162.3681],[31.2498,53.027,139.4108],[31.2505,53.0348,148.3855],[31.26,53.0391,144.9813],[31.2814,53.0365,166.3207],[31.3061,53.0281,161.3782],[31.3189,53.0292,163.196],[31.3328,53.036,150.1229],[31.3295,53.0443,149.8428],[31.3328,53.061,149.1342],[31.3386,53.0666,148.9455],[31.3409,53.0777,147.6962],[31.352,53.086,149.9523],[31.3714,53.0887,147.0673],[31.3631,53.0942,147.2425],[31.3537,53.0942,151.3302],[31.340699999999998,53.0997,166.2268],[31.3311,53.0997,149.2491],[31.2376,53.1144,168.4913],[31.2248,53.1178,145.7118],[31.2123,53.1291,165.5378],[31.1954,53.138,169.7021],[31.1823,53.1387,168.4089],[31.1601,53.1345,167.2658],[31.1381,53.1354,176.3442],[31.1065,53.131,169.9433],[31.0841,53.1315,164.8947],[31.0703,53.1264,164.9947],[31.0728,53.1018,173.0977],[31.0675,53.091,161.9299],[31.0489,53.0832,159.6351],[31.0352,53.0807,160.1314],[30.9815,53.0818,148.5994],[30.9679,53.0793,164.0576],[30.9545,53.0796,160.4726],[30.9454,53.077,147.1385],[30.9275,53.0774,140.4351],[30.9182,53.0721,146.2781],[30.9133,53.0667,147.0011],[30.9041,53.0642,134.4075],[30.9039,53.0614,125.8673],[30.9084,53.0613,147.0264],[30.9126,53.0585,146.6553],[30.9305,53.0582,149.2537],[30.9347,53.0553,138.438],[30.9345,53.0526,140.1697],[30.9298,53.05,139.4552],[30.9339,53.0444,140.8528],[30.9381,53.0416,142.4724],[30.9646,53.0383,151.4931],[30.9733,53.0354,152.4465],[30.9771,53.0271,144.3035],[30.9722,53.0217,140.6549],[30.9629,53.0164,156.5444],[30.9139,53.0174,124.3537],[30.9041,53.0066,160.1277],[30.899,52.9985,159.3413],[30.9028,52.9902,132.2834],[30.8893,52.9877,132.2126],[30.8846,52.9851,150.8977],[30.8791,52.9715,143.8118],[30.8695,52.9634,136.5525],[30.8117,52.9646,146.7271],[30.7941,52.9678,146.4882],[30.7894,52.9651,152.6445],[30.7892,52.9624,153.1854],[30.7978,52.9567,145.6104],[30.806,52.9483,151.6849],[30.8056,52.9428,151.4581],[30.801,52.9402,151.9732],[30.7921,52.9404,143.5248],[30.7749,52.949,145.6918],[30.7441,52.9551,172.5237],[30.7356,52.9608,149.6984],[30.7226,52.9665,151.2072],[30.7185,52.9721,150.5082],[30.7191,52.9803,148.003],[30.7286,52.9883,149.0547],[30.72,52.994,145.9979],[30.7111,52.9942,154.1215],[30.7025,52.9999,162.5474],[30.7029,53.0053,157.5003],[30.6988,53.0109,157.5806],[30.6852,53.0085,155.6004],[30.672,53.0115,163.988],[30.6539,53.0091,159.0617],[30.6446,53.0039,155.3017],[30.6439,52.9929,152.0951],[30.6305,52.9932,147.9436],[30.6219,52.9989,148.388],[30.6179,53.0072,150.106],[30.6054,53.0212,151.533],[30.5975,53.0378,151.0399],[30.5932,53.0406,151.7208],[30.5842,53.0408,152.7068],[30.5711,53.0466,158.1847],[30.5572,53.0387,175.2236],[30.5608,53.0249,158.4007],[30.563,52.9892,149.2152],[30.5661,52.9672,151.7592],[30.5702,52.9616,146.1618],[30.5745,52.9588,144.0697],[30.5835,52.9586,142.1445],[30.5977,52.972,143.2188],[30.6069,52.9745,154.8582],[30.6199,52.9688,146.0869],[30.6369,52.9547,150.2134],[30.6462,52.96,147.0358],[30.659,52.9515,151.8501],[30.6586,52.946,149.4113],[30.6627,52.9404,143.5066],[30.6804,52.9373,152.2328],[30.6982,52.9369,147.4728],[30.7114,52.9339,167.9982],[30.7241,52.9254,171.7263],[30.7325,52.917,148.3117],[30.7311,52.8978,172.27],[30.735,52.8895,167.9636],[30.7346,52.884,165.6264],[30.7253,52.8787,167.4498],[30.7164,52.8789,146.0824],[30.7033,52.882,144.6389],[30.6905,52.8905,148.3056],[30.6716,52.8744,137.6356],[30.6975,52.8629,148.8368],[30.706,52.8572,149.6005],[30.7235,52.8541,145.0521],[30.7413,52.8537,149.3334],[30.7878,52.8224,148.6852],[30.787,52.8115,154.0495],[30.7821,52.8061,145.951],[30.7689,52.806399999999996,151.9754],[30.7685,52.8009,155.7357],[30.7771,52.798,149.988],[30.7635,52.7928,156.2694],[30.7496,52.7849,151.7036],[30.7624,52.7791,147.4597],[30.7622,52.7763,147.1034],[30.7576,52.7737,145.9987],[30.7442,52.7712,136.293],[30.7436,52.763,160.5132],[30.7514,52.7491,162.8329],[30.7598,52.7434,165.0071],[30.7906,52.7427,165.6861],[30.804,52.7451,159.6279],[30.8661,52.7492,132.2328],[30.9064,52.7565,121.9848],[30.9277,52.7477,121.4149],[30.9409,52.7474,123.9258],[30.9488,52.7362,128.3841],[30.953,52.7334,135.7252],[30.9574,52.7333,129.2474],[30.9711,52.7384,121.1488]]]]}
,"properties": {"GID_2": "BLR.2.4_1","GID_0": "BLR","country": "Belarus","GID_1": "BLR.2_1","province": "Gomel","NL_NAME_1": "Гомельская","county": "Chachersk","VARNAME_2": "Chechersk","NL_NAME_2": "Чачэрскіраён","TYPE_2": "Raion","ENGTYPE_2": "District","CC_2": "NA","HASC_2": "BY.HO.CC","name": "Chachersk.county","area_km2": 1126.9576,"hist_schema_id": "Elevation0-9000","hist_area_km2": {"125": 189.5795,"150": 640.3061,"175": 296.8297,"200": 0.2423}}}