{"type": "Feature","bbox": [25.5454,54.1702,26.2263,54.5677],"geometry": {"type": "MultiPolygon","coordinates": [[[[25.7399,54.5671,197.0574],[25.7064,54.5472,262.2022],[25.6893,54.5399,270.7403],[25.6894,54.5373,281.1865],[25.6682,54.5122,276.1584],[25.6639,54.5093,260.4388],[25.6642,54.5016,282.2207],[25.6601,54.4935,245.6468],[25.6515,54.4876,229.5473],[25.6517,54.4825,232.0482],[25.6472,54.4822,230.2576],[25.6474,54.4796,218.8409],[25.6518,54.4799,221.9932],[25.6475,54.477,238.1559],[25.6476,54.4744,241.2105],[25.6296,54.4732,224.9696],[25.6253,54.4678,209.1203],[25.6119,54.4644,213.5234],[25.6167,54.4595,224.489],[25.6258,54.46,200.1501],[25.6302,54.4628,203.4833],[25.6395,54.4582,218.9712],[25.635,54.4579,209.291],[25.6306,54.4551,206.0227],[25.6352,54.4528,208.0916],[25.6307,54.4525,207.7368],[25.6312,54.4447,196.3491],[25.6357,54.445,205.8491],[25.6407,54.4376,221.5001],[25.6411,54.4299,203.8954],[25.6371,54.4218,196.7849],[25.6284,54.416,211.0641],[25.6156,54.4021,212.7776],[25.6065,54.4015,215.2056],[25.6063,54.4041,207.3941],[25.6016,54.4065,203.2696],[25.5979,54.3932,210.4902],[25.6028,54.3883,214.032],[25.6034,54.3806,213.8258],[25.5763,54.3713,206.8197],[25.5687,54.35,235.4314],[25.5454,54.3488,210.6917],[25.5461,54.3382,237.8732],[25.5602,54.3392,216.6694],[25.5653,54.3342,223.8431],[25.5656,54.3315,230.8195],[25.5609,54.3314,219.6702],[25.5611,54.3257,224.6467],[25.5662,54.323,214.8112],[25.5711,54.3231,218.6818],[25.5993,54.3295,219.8424],[25.6047,54.3242,223.9951],[25.6243,54.3192,262.8966],[25.6337,54.3195,277.368],[25.6425,54.3254,234.2648],[25.6518,54.3257,226.9641],[25.652,54.323,240.9216],[25.657,54.3176,241.1463],[25.6655,54.3262,227.9943],[25.6741,54.332,218.0619],[25.6923,54.3327,232.6349],[25.7222,54.306399999999996,228.4368],[25.7136,54.3006,231.3938],[25.7232,54.2954,224.0204],[25.7146,54.2896,223.8781],[25.729,54.2819,210.8522],[25.7334,54.2848,209.032],[25.738,54.285,202.5445],[25.7382,54.2823,202.3298],[25.7425,54.2852,201.0958],[25.7473,54.2826,201.0566],[25.7519,54.2828,204.1306],[25.7521,54.2801,200.1981],[25.7565,54.2829,205.6429],[25.7612,54.283,214.2877],[25.7614,54.2803,202.8441],[25.7663,54.2776,219.5636],[25.7619,54.2748,202.0257],[25.7668,54.2722,215.1024],[25.767,54.2694,215.8835],[25.7766,54.2561,203.9968],[25.7892,54.2594,195.9323],[25.7979,54.2571,194.2629],[25.8109,54.2576,198.1533],[25.8288,54.2555,217.1988],[25.8421,54.2586,226.0073],[25.8514,54.2533,223.8301],[25.8559,54.2534,226.5994],[25.8603,54.2562,211.4924],[25.8694,54.2564,219.6836],[25.8833,54.2511,214.3883],[25.8789,54.2483,223.1346],[25.8793,54.2401,191.1966],[25.8839,54.2374,189.8712],[25.884,54.2346,189.1815],[25.8887,54.2319,188.0335],[25.8933,54.232,187.7879],[25.8976,54.2375,193.5834],[25.9021,54.2376,205.3739],[25.9068,54.2349,187.0769],[25.9071,54.2294,186.9964],[25.9164,54.224,199.0129],[25.9443,54.2188,187.7277],[25.9541,54.208,210.4578],[25.9726,54.2081,201.507],[25.982,54.2055,199.6431],[25.987,54.1973,207.9186],[25.9963,54.1974,200.3414],[26.0011,54.1947,194.7065],[26.006,54.1893,184.5105],[26.0061,54.1866,176.7756],[26.0021,54.1756,194.8994],[26.0163,54.1702,211.7617],[26.0432,54.1869,190.81],[26.0382,54.1923,214.7887],[26.0469,54.2033,203.3058],[26.0603,54.2143,191.7979],[26.0651,54.2116,187.2803],[26.0653,54.2061,197.8087],[26.0608,54.2034,211.1004],[26.0611,54.1979,207.8562],[26.0659,54.1952,209.346],[26.0799,54.1926,183.7451],[26.0985,54.1927,198.9508],[26.1029,54.1982,199.5659],[26.1168,54.1983,214.2509],[26.1302,54.2093,208.3064],[26.1528,54.2231,260.0513],[26.1847,54.237,213.5816],[26.1939,54.2398,208.5039],[26.2033,54.2371,213.9701],[26.2078,54.2399,210.8858],[26.2171,54.24,191.1036],[26.2263,54.2428,178.831],[26.2215,54.2455,180.666],[26.2167,54.2509,195.5909],[26.2071,54.2562,187.4731],[26.184,54.2533,196.9862],[26.1744,54.2587,196.4661],[26.1742,54.2642,193.4753],[26.1786,54.2696,200.9521],[26.1781,54.2832,210.706],[26.1733,54.2859,214.2522],[26.1732,54.2887,215.6022],[26.1869,54.2942,218.9868],[26.1914,54.2997,210.0849],[26.1955,54.3133,246.631],[26.1908,54.316,257.8518],[26.1906,54.3214,263.9528],[26.1764,54.3268,236.1953],[26.1578,54.3293,244.8064],[26.1435,54.3401,261.2411],[26.1385,54.351,240.5571],[26.1382,54.3618,209.2221],[26.1427,54.3673,194.8277],[26.1518,54.3728,201.8221],[26.1517,54.3755,201.9634],[26.1563,54.3783,221.4324],[26.1656,54.3783,226.0898],[26.1704,54.3756,232.3069],[26.1796,54.3784,205.4342],[26.1795,54.3811,201.2036],[26.1747,54.3865,204.9679],[26.1608,54.3837,219.3964],[26.1513,54.3891,186.1616],[26.1465,54.3972,206.4644],[26.151,54.4,210.7652],[26.1555,54.4081,231.3776],[26.1553,54.4136,209.3362],[26.1503,54.4244,247.7697],[26.1502,54.4299,215.6591],[26.1547,54.4353,236.1315],[26.1639,54.4381,222.944],[26.1639,54.4408,224.184],[26.1496,54.4489,232.9583],[26.1493,54.4597,240.3929],[26.1632,54.4653,217.095],[26.163,54.4707,189.4302],[26.1487,54.4787,170.0136],[26.1441,54.4787,175.6719],[26.1393,54.4814,165.8115],[26.1438,54.4868,169.0443],[26.1578,54.4897,152.5776],[26.1571,54.5114,159.7341],[26.1523,54.5141,170.9857],[26.1475,54.5194,171.1598],[26.1427,54.5221,168.0164],[26.138,54.5221,162.4989],[26.1282,54.5356,171.3077],[26.1326,54.5437,163.675],[26.1322,54.5546,154.9636],[26.0893,54.5677,191.128],[26.0846,54.5676,195.6301],[26.0519,54.5565,186.5233],[26.0425,54.556399999999996,198.5473],[26.0278,54.567,210.6837],[26.0183,54.5669,202.7977],[26.0137,54.5642,198.8478],[26.0139,54.5615,192.5094],[25.9815,54.5449,202.099],[25.9673,54.5448,267.4955],[25.9337,54.5552,233.8613],[25.9242,54.5551,244.0996],[25.9149,54.5523,258.0433],[25.9057,54.5468,237.92],[25.8776,54.5411,263.6668],[25.8726,54.5464,271.17],[25.8724,54.5491,256.8147],[25.8675,54.5518,240.812],[25.858,54.5516,235.118],[25.8534,54.5489,256.9144],[25.8439,54.5488,239.7627],[25.8389,54.5514,251.9297],[25.8388,54.5541,243.1893],[25.8288,54.5594,242.81],[25.819,54.5594,234.0126],[25.8047,54.5513,244.6223],[25.8052,54.5459,233.1764],[25.8004,54.5433,230.1546],[25.7903,54.5433,247.0991],[25.7795,54.5489,212.025],[25.7793,54.5517,218.5524],[25.7733,54.5599,188.2353],[25.7572,54.5656,192.429],[25.7399,54.5671,197.0574]]]]}
,"properties": {"GID_2": "BLR.3.1_1","GID_0": "BLR","country": "Belarus","GID_1": "BLR.3_1","province": "Grodno","NL_NAME_1": "Гродзенская","county": "Ashmyany","VARNAME_2": "Oshmyanu","NL_NAME_2": "Ашмянскіраён","TYPE_2": "Raion","ENGTYPE_2": "District","CC_2": "NA","HASC_2": "BY.HR.OM","name": "Ashmyany.county","area_km2": 1195.0802,"hist_schema_id": "Elevation0-9000","hist_area_km2": {"150": 7.5739,"175": 111.4692,"200": 367.8154,"225": 346.3348,"250": 220.4322,"275": 115.6474,"300": 25.0441,"325": 0.7632}}}