{"type":"Feature","properties":{"GID_2":"BLR.2.19_1","GID_0":"BLR","country":"Belarus","GID_1":"BLR.2_1","province":"Gomel","NL_NAME_1":"Гомельская","county":"Yel'sk","VARNAME_2":"Elsk|Jelsk","NL_NAME_2":"Ельскіраён","TYPE_2":"Raion","ENGTYPE_2":"District","CC_2":"NA","HASC_2":"BY.HO.EL","name":"Yel'sk.county"},
"geometry":{"type": "MultiPolygon","coordinates": [[[[28.5327,51.5888,155.1044],[28.54,51.5843,169.2205],[28.5604,51.5776,162.1455],[28.5705,51.5773,160.5918],[28.5807,51.571,151.5655],[28.601,51.5702,161.5267],[28.6011,51.5643,154.3932],[28.6315,51.5631,151.9195],[28.6407,51.5691,152.1424],[28.6615,51.5621,145.8721],[28.6805,51.5621,155.0167],[28.682,51.5495,147.2037],[28.6717,51.5442,160.6529],[28.6709,51.5168,154.9148],[28.6808,51.5058,175.2968],[28.6813,51.4909,172.1169],[28.6913,51.4852,156.5978],[28.6929,51.4617,176.3432],[28.7037,51.4516,173.0435],[28.7141,51.4462,174.235],[28.7334,51.445,170.5244],[28.7328,51.4491,168.8973],[28.7413,51.4516,171.2378],[28.7405,51.4555,168.8011],[28.7483,51.4577,173.3591],[28.7586,51.4542,175.1491],[28.7636,51.4336,176.2001],[28.774,51.4293,177.4071],[28.7747,51.4246,183.1009],[28.7833,51.4301,176.4323],[28.7923,51.4305,178.7337],[28.7899,51.4448,179.6372],[28.8074,51.4511,182.0413],[28.8061,51.4611,174.6531],[28.786,51.469,159.8886],[28.7843,51.4849,159.6206],[28.8007,51.5081,164.6536],[28.8084,51.5252,160.0101],[28.817,51.5312,157.4421],[28.8251,51.5428,154.1504],[28.8427,51.5492,159.4976],[28.8692,51.5559,146.2366],[28.9049,51.5749,139.2984],[28.9837,51.5765,138.8675],[28.9839,51.5709,136.1363],[28.9938,51.5663,134.439],[29.0122,51.5676,143.333],[29.0211,51.5736,144.7882],[29.0393,51.5805,138.6907],[29.0579,51.5934,142.5007],[29.0671,51.6055,140.8837],[29.104,51.631,128.8489],[29.1131,51.6492,125.2525],[29.122,51.6554,132.8774],[29.1409,51.6558,141.0691],[29.156,51.6518,127.8251],[29.1562,51.6563,131.3423],[29.1607,51.659,137.018],[29.1737,51.6561,138.3239],[29.2042,51.6558,121.4646],[29.2047,51.6666,134.0278],[29.1963,51.6749,139.4449],[29.1969,51.6911,131.5635],[29.1883,51.6939,141.1202],[29.1884,51.6966,140.8429],[29.1841,51.6994,137.5541],[29.1843,51.7048,148.2183],[29.1975,51.7047,149.1373],[29.1932,51.7074,152.1689],[29.1938,51.7237,150.6649],[29.1896,51.7292,156.5447],[29.2206,51.7396,135.7986],[29.2468,51.7365,135.3215],[29.2513,51.7392,136.5326],[29.2427,51.7447,136.3156],[29.2519,51.7554,137.1987],[29.2609,51.7607,138.341],[29.2569,51.7716,128.1284],[29.2614,51.7742,149.7543],[29.27,51.7714,123.3247],[29.2746,51.7767,133.2392],[29.2749,51.7848,144.9572],[29.2839,51.7901,140.8741],[29.2971,51.7926,143.0538],[29.3014,51.7898,145.4153],[29.3019,51.8034,146.7339],[29.2933,51.8089,142.9697],[29.2801,51.8091,143.1078],[29.2803,51.8146,153.6765],[29.2891,51.8144,155.8795],[29.2895,51.8252,163.3644],[29.2984,51.8305,151.6577],[29.3336,51.8299,147.3238],[29.3425,51.8325,160.0799],[29.3469,51.8351,154.3869],[29.3517,51.8459,148.0182],[29.3387,51.8515,156.8987],[29.3343,51.8516,147.1318],[29.3253,51.8463,149.9439],[29.3166,51.8492,146.6659],[29.2906,51.8631,164.4354],[29.2817,51.8578,142.9077],[29.2815,51.8524,140.6685],[29.2595,51.8528,136.5948],[29.2552,51.8556,149.6766],[29.2597,51.8609,155.153],[29.2554,51.8637,155.6825],[29.251,51.8638,152.9861],[29.2465,51.8611,156.2598],[29.2464,51.8584,151.7446],[29.2375,51.8531,137.9487],[29.2288,51.8587,152.5865],[29.2333,51.8613,162.6581],[29.2334,51.8667,158.4306],[29.2291,51.8695,161.4193],[29.2158,51.867,156.6841],[29.2113,51.8644,151.3878],[29.2112,51.8617,146.0581],[29.2022,51.8537,166.9566],[29.2154,51.8508,158.6926],[29.2152,51.8454,156.7144],[29.2063,51.8428,157.0907],[29.2107,51.84,159.0612],[29.2238,51.8371,147.4711],[29.2059,51.8266,157.5046],[29.1884,51.8322,162.862],[29.1841,51.835,166.7517],[29.1842,51.8404,156.564],[29.1754,51.8406,152.9591],[29.1712,51.846,169.1663],[29.1713,51.8515,168.9608],[29.176,51.8649,166.0903],[29.1851,51.8783,147.7416],[29.1766,51.892,143.9888],[29.1678,51.8948,140.9485],[29.168,51.9056,162.0142],[29.1547,51.9031,151.5963],[29.1502,51.9005,148.2236],[29.1502,51.8978,158.5974],[29.1545,51.8923,149.1494],[29.1544,51.8896,150.962],[29.1412,51.8898,160.131],[29.1325,51.898,162.0304],[29.1281,51.8981,149.9034],[29.1058,51.8876,153.1936],[29.0968,51.8796,145.1903],[29.088,51.8825,148.6884],[29.0879,51.8798,148.2627],[29.0745,51.8691,144.2233],[29.0123,51.8538,149.0447],[28.999,51.8458,142.4063],[28.9857,51.8487,142.239],[28.9858,51.8542,142.7351],[28.9903,51.8568,159.9472],[28.9727,51.8652,134.5842],[28.9639,51.8734,154.9917],[28.9594,51.8681,135.2796],[28.9594,51.8654,135.6387],[28.9239,51.8659,145.7395],[28.9239,51.8605,158.3021],[28.9194,51.8578,168.084],[28.915,51.8579,151.3223],[28.9106,51.8607,168.0686],[28.9063,51.8716,144.7556],[28.8929,51.8718,165.4595],[28.8841,51.8773,156.9194],[28.8707,51.864,160.8795],[28.8706,51.845,150.4668],[28.875,51.8422,149.9063],[28.8839,51.8421,159.1741],[28.8928,51.8474,165.3015],[28.8972,51.8473,166.1445],[28.9016,51.8446,161.5737],[28.8927,51.8338,154.3573],[28.8749,51.826,146.0277],[28.8705,51.826,151.0572],[28.8661,51.8288,146.8946],[28.8661,51.8343,141.5553],[28.8617,51.837,142.5868],[28.8484,51.8291,136.6326],[28.8395,51.8293,148.5959],[28.8262,51.824,135.0176],[28.8084,51.8135,134.6282],[28.804,51.8136,136.0235],[28.804,51.8163,134.8833],[28.7996,51.8218,134.7888],[28.7952,51.8246,134.8416],[28.7907,51.8273,136.482],[28.7863,51.8274,147.4538],[28.7819,51.8248,137.6756],[28.7819,51.8167,133.9087],[28.7863,51.8112,134.34],[28.7863,51.8057,134.1485],[28.7774,51.8005,134.1425],[28.7641,51.7953,135.0216],[28.7508,51.7955,139.2441],[28.7375,51.7903,133.349],[28.7331,51.7904,133.4077],[28.7286,51.7959,133.702],[28.7109,51.7908,134.6179],[28.7109,51.78,141.5171],[28.7064,51.7774,134.208],[28.702,51.7802,134.1553],[28.6887,51.7723,135.8692],[28.6798,51.7725,133.7856],[28.6753,51.778,136.7392],[28.662,51.7756,150.0475],[28.6486,51.7786,134.4561],[28.6442,51.776,137.0288],[28.6442,51.7733,134.6649],[28.6398,51.7706,134.7989],[28.6308,51.7762,136.1086],[28.6175,51.7711,144.6494],[28.6086,51.7767,140.1986],[28.6041,51.7768,140.4837],[28.6041,51.7741,136.1505],[28.6086,51.7713,136.5185],[28.6087,51.7578,146.4326],[28.6043,51.7525,144.8284],[28.591,51.7555,144.7108],[28.5865,51.7529,145.1232],[28.591,51.7474,144.3145],[28.5866,51.7448,146.3703],[28.5777,51.745,150.6585],[28.5734,51.7343,143.9574],[28.5647,51.7264,137.4196],[28.5647,51.7237,142.1715],[28.5782,51.7152,149.4207],[28.5829,51.7015,155.2968],[28.583,51.696,152.9008],[28.5744,51.6853,145.817],[28.5748,51.6687,153.4293],[28.5793,51.6658,156.1695],[28.5798,51.6546,141.7335],[28.5846,51.6461,145.4586],[28.5855,51.6347,151.0497],[28.5781,51.6233,165.7215],[28.5802,51.6115,155.8105],[28.5772,51.6055,156.4782],[28.5737,51.6025,154.4169],[28.5578,51.5942,166.618],[28.5327,51.5888,155.1044]]]]}}