{"type": "Feature","bbox": [28.2473,55.2034,29.6101,55.7883],"geometry": {"type": "MultiPolygon","coordinates": [[[[29.5208,55.7167,161.4247],[29.4887,55.7045,167.8781],[29.4803,55.7045,161.3592],[29.4684,55.7099,153.3236],[29.4572,55.7178,157.6653],[29.442,55.7338,175.5868],[29.4345,55.7364,163.5157],[29.4306,55.7417,160.5776],[29.4193,55.7443,166.962],[29.4192,55.747,168.2513],[29.4079,55.7522,163.2558],[29.3929,55.7546,160.9213],[29.3813,55.7545,163.6102],[29.3744,55.7597,161.1591],[29.371,55.7652,160.6516],[29.3839,55.7796,160.1901],[29.3794,55.7853,154.7303],[29.3649,55.7882,168.1626],[29.3501,55.7883,154.0335],[29.3152,55.7827,152.0],[29.2852,55.7725,161.7727],[29.2532,55.7703,155.291],[29.2224,55.7707,155.9957],[29.2118,55.7681,161.9525],[29.202,55.771,155.5907],[29.1713,55.7686,155.7734],[29.1457,55.7633,165.0529],[29.1455,55.7606,165.7052],[29.1502,55.7578,164.0339],[29.15,55.7551,167.778],[29.0504,55.7558,155.8],[29.0453,55.753,161.3399],[29.0452,55.7503,158.6772],[29.0401,55.7475,151.9233],[29.0353,55.7503,159.4911],[29.0251,55.7449,161.393],[29.0147,55.7338,154.8024],[28.9997,55.7284,151.3405],[28.9898,55.7284,151.8665],[28.9699,55.723,161.606],[28.9353,55.7204,155.2589],[28.9156,55.7205,154.5537],[28.8958,55.715,147.8803],[28.8711,55.7123,154.2953],[28.8464,55.7069,153.6519],[28.8367,55.7097,158.328],[28.822,55.718,146.7364],[28.8222,55.7319,127.0],[28.8125,55.7374,127.0],[28.7879,55.743,150.9007],[28.7829,55.7403,144.8442],[28.7878,55.7375,144.9965],[28.773,55.732,138.5405],[28.7533,55.7347,137.4693],[28.7483,55.732,140.6928],[28.7483,55.7292,144.1726],[28.7286,55.7209,142.5208],[28.7335,55.7154,135.8357],[28.7285,55.7126,135.1142],[28.7089,55.7126,133.6407],[28.6892,55.7071,137.8973],[28.6744,55.7098,142.8865],[28.6646,55.707,126.997],[28.6597,55.7015,128.7222],[28.6302,55.7043,122.8383],[28.6155,55.7042,135.7967],[28.6057,55.7015,140.0461],[28.5958,55.7015,143.656],[28.5712,55.7097,125.7808],[28.5417,55.7097,140.099],[28.5367,55.7152,132.4139],[28.5366,55.7262,121.272],[28.5267,55.729,145.3719],[28.5168,55.7289,127.6138],[28.5118,55.7317,135.6459],[28.4873,55.7261,137.8546],[28.4824,55.7233,121.9401],[28.4627,55.7233,139.4735],[28.4481,55.715,124.4194],[28.4482,55.7122,123.6698],[28.4581,55.7067,124.1299],[28.4729,55.704,140.3951],[28.473,55.6985,135.2644],[28.4681,55.6957,153.7995],[28.4632,55.6985,149.3339],[28.4485,55.6929,144.4267],[28.4387,55.6929,127.1921],[28.4288,55.6984,130.416],[28.4287,55.7039,120.3251],[28.4138,55.7066,121.3287],[28.3993,55.6956,133.6462],[28.4142,55.6873,135.8586],[28.4143,55.6846,139.5772],[28.3998,55.6735,130.2129],[28.395,55.6653,134.5457],[28.3952,55.6515,144.2198],[28.4101,55.6433,142.5334],[28.4101,55.6405,150.5536],[28.4003,55.6377,149.6098],[28.4005,55.6295,144.5881],[28.3907,55.6267,161.5309],[28.381,55.6184,154.0988],[28.3812,55.6074,158.8006],[28.3715,55.6047,156.1445],[28.3519,55.6046,144.0512],[28.3471,55.5991,139.6382],[28.3472,55.5964,129.7379],[28.3278,55.5854,129.375],[28.323,55.5798,129.4837],[28.3232,55.5661,122.6201],[28.3281,55.5634,126.9584],[28.3427,55.5606,133.8377],[28.3574,55.5524,143.8426],[28.3429,55.5441,106.5],[28.3283,55.5414,112.9948],[28.3187,55.5331,121.9696],[28.3236,55.5276,125.1594],[28.3236,55.5221,114.328],[28.2996,55.5001,127.3951],[28.2899,55.4946,128.5767],[28.2754,55.4891,134.4332],[28.2755,55.4781,127.0828],[28.2853,55.4699,133.8813],[28.2805,55.4644,135.6325],[28.2806,55.4397,143.0344],[28.2758,55.4342,148.6769],[28.2759,55.4232,137.4219],[28.2808,55.4149,137.8064],[28.2809,55.4039,143.6595],[28.2857,55.3984,141.6569],[28.2857,55.393,153.1282],[28.2761,55.3875,158.3381],[28.2664,55.3875,158.8793],[28.2568,55.382,152.3117],[28.252,55.3765,152.9612],[28.2521,55.3683,144.3053],[28.2473,55.3628,150.646],[28.2714,55.3573,150.5445],[28.2762,55.36,144.4634],[28.2859,55.3545,145.135],[28.2762,55.349,153.1377],[28.2859,55.3463,160.6289],[28.3389,55.3489,149.5707],[28.3534,55.3434,143.3562],[28.3534,55.3379,148.6033],[28.3582,55.3269,147.1578],[28.3389,55.316,158.1437],[28.3389,55.294,176.0093],[28.3293,55.2858,187.283],[28.3341,55.283,188.405],[28.3389,55.2748,182.0793],[28.3581,55.2692,195.1498],[28.3629,55.2637,177.8188],[28.3629,55.261,176.3098],[28.3581,55.2528,192.4458],[28.3533,55.25,189.6409],[28.3389,55.2501,196.4447],[28.3148,55.2638,183.6938],[28.31,55.2638,183.213],[28.286,55.2502,194.2982],[28.2908,55.2145,198.6031],[28.31,55.2034,199.2904],[28.3388,55.2089,186.2556],[28.3724,55.228,193.7371],[28.3868,55.2307,185.8734],[28.406,55.2279,193.302],[28.4252,55.2279,177.4666],[28.4396,55.2223,173.0215],[28.4731,55.2167,157.1667],[28.478,55.2222,163.0585],[28.478,55.2305,156.8451],[28.4828,55.2332,139.0604],[28.502,55.2331,149.9266],[28.5069,55.2359,147.2981],[28.507,55.2579,151.7574],[28.5262,55.2578,140.9646],[28.5311,55.2605,148.1082],[28.5311,55.2715,160.9487],[28.536,55.2743,151.1672],[28.5504,55.2742,132.0],[28.5647,55.2659,139.2836],[28.5695,55.2577,139.9186],[28.5743,55.2576,137.9319],[28.5791,55.2604,137.5371],[28.603,55.2465,138.2216],[28.6078,55.2493,141.6845],[28.6079,55.2575,130.9746],[28.6223,55.263,145.6327],[28.6367,55.2629,135.4601],[28.6463,55.2601,134.3353],[28.6606,55.2518,140.0653],[28.6702,55.249,138.0961],[28.6846,55.2517,137.814],[28.6943,55.2599,149.4262],[28.704,55.2626,145.0892],[28.7136,55.2626,149.2711],[28.7231,55.2598,149.3946],[28.7327,55.2598,146.9448],[28.7565,55.2431,144.1631],[28.7853,55.2457,139.4055],[28.7951,55.2567,132.9371],[28.8192,55.2621,130.7059],[28.8337,55.2703,133.3093],[28.853,55.2757,141.1909],[28.8579,55.2784,132.3207],[28.8531,55.2812,126.0],[28.8387,55.284,126.0],[28.8388,55.2895,127.5171],[28.8485,55.2922,133.6744],[28.8676,55.2893,142.1588],[28.8773,55.292,143.0808],[28.8822,55.2975,140.645],[28.887,55.2975,144.436],[28.9017,55.3112,157.5667],[28.9162,55.3194,160.4775],[28.945,55.3192,150.8299],[28.9499,55.3219,148.6252],[28.9549,55.3301,140.5815],[28.9646,55.3356,134.3904],[28.9839,55.341,133.4699],[28.9935,55.3409,134.3385],[28.9939,55.3575,111.6329],[28.999,55.3685,132.9279],[29.0088,55.3767,150.2609],[29.0185,55.3794,126.8606],[29.0426,55.382,129.3611],[29.0521,55.3791,138.2477],[29.0761,55.3762,148.5823],[29.0856,55.3706,153.6772],[29.1048,55.3704,138.0388],[29.1145,55.3758,121.5929],[29.1244,55.3868,136.3853],[29.1341,55.3895,138.5986],[29.1437,55.3894,142.4019],[29.1486,55.3921,149.8798],[29.1679,55.3919,156.22],[29.1728,55.3947,142.3069],[29.1922,55.4,159.1986],[29.1971,55.4027,158.774],[29.2021,55.411,162.2894],[29.2022,55.4137,150.7335],[29.2373,55.4549,150.8706],[29.2759,55.4545,149.2705],[29.2906,55.4627,149.9905],[29.2956,55.4682,146.5187],[29.2957,55.471,147.1075],[29.306,55.4875,158.196],[29.3114,55.5041,146.7889],[29.3165,55.5096,147.6511],[29.3312,55.5149,153.4255],[29.3747,55.5145,151.6751],[29.3992,55.5225,156.6594],[29.4099,55.5474,150.9446],[29.4201,55.5612,146.5171],[29.425,55.5639,139.1508],[29.4347,55.5639,153.1774],[29.4394,55.561,137.813],[29.4586,55.5608,145.0318],[29.4683,55.5635,163.5542],[29.478,55.569,157.161],[29.483,55.5745,139.1277],[29.4832,55.5801,152.9817],[29.493,55.5884,145.9022],[29.4931,55.5912,142.462],[29.4884,55.594,149.1254],[29.4886,55.5996,148.0361],[29.5029,55.6051,140.9048],[29.5122,55.6022,142.3687],[29.517,55.605,146.6519],[29.517,55.6078,156.9552],[29.5218,55.6105,162.775],[29.5498,55.6019,163.8282],[29.5544,55.5991,153.494],[29.5497,55.5964,159.5444],[29.5637,55.5907,148.6758],[29.5731,55.5906,158.8798],[29.5825,55.5877,148.6674],[29.5918,55.5905,152.5793],[29.5965,55.5988,158.152],[29.6101,55.6127,159.6263],[29.6097,55.6211,152.4354],[29.6002,55.6267,150.4677],[29.5866,55.6241,166.9207],[29.5726,55.6298,175.8591],[29.568,55.6298,172.0575],[29.559,55.6243,168.4719],[29.5498,55.6244,165.472],[29.5405,55.6301,148.8482],[29.5312,55.6329,154.9906],[29.5265,55.6414,151.6404],[29.5262,55.6499,160.9481],[29.5301,55.6612,167.5729],[29.5417,55.6753,150.5],[29.5617,55.6801,153.0656],[29.5834,55.6899,154.1676],[29.5837,55.6925,156.5942],[29.5755,55.7063,149.3458],[29.5643,55.6987,166.3125],[29.5484,55.6941,165.4803],[29.5387,55.6972,175.0264],[29.5394,55.7025,163.6471],[29.5448,55.7049,167.4125],[29.5509,55.7127,160.6087],[29.556,55.7125,153.1284],[29.5567,55.7178,161.172],[29.5312,55.7189,166.3129],[29.5208,55.7167,161.4247]]]]}
,"properties": {"GID_2": "BLR.6.13_1","GID_0": "BLR","country": "Belarus","GID_1": "BLR.6_1","province": "Vitebsk","NL_NAME_1": "Вiцебская","county": "Polatsak","VARNAME_2": "Polotsk","NL_NAME_2": "Полацкіраён","TYPE_2": "Raion","ENGTYPE_2": "District","CC_2": "NA","HASC_2": "BY.VI.PL","name": "Polatsak.county","area_km2": 3230.416,"hist_schema_id": "Elevation0-9000","hist_area_km2": {"100": 11.673,"125": 800.312,"150": 2123.216,"175": 264.74,"200": 30.426,"225": 0.048}}}