{"type":"Feature","properties":{"GID_2":"BLR.5.10_1","GID_0":"BLR","country":"Belarus","GID_1":"BLR.5_1","province":"Minsk","NL_NAME_1":"Мінская","county":"Maladechna","VARNAME_2":"Molodechno","NL_NAME_2":"Маладзечанскіраён","TYPE_2":"Raion","ENGTYPE_2":"District","CC_2":"NA","HASC_2":"BY.MI.MD","name":"Maladechna.county"},
"geometry":{"type": "MultiPolygon","coordinates": [[[[26.4585,54.2957,276.3048],[26.4634,54.2903,282.4556],[26.4687,54.274,272.9955],[26.4734,54.2713,249.222],[26.4921,54.2741,265.382],[26.5016,54.2714,254.3772],[26.525,54.2715,243.4564],[26.5346,54.2661,240.1163],[26.5486,54.2661,229.0518],[26.5581,54.2635,250.2883],[26.5584,54.2526,227.83],[26.5493,54.2471,213.0546],[26.5353,54.2443,224.0566],[26.5215,54.2361,225.7498],[26.5219,54.2252,197.3226],[26.5177,54.2115,168.2052],[26.5317,54.2116,167.865],[26.5554,54.2035,170.6743],[26.565,54.1954,170.3259],[26.5697,54.1954,170.4058],[26.5789,54.2009,170.343],[26.5881,54.2036,170.6127],[26.6161,54.2065,171.6257],[26.6163,54.1983,171.5416],[26.6212,54.1929,172.6157],[26.6258,54.1929,173.9907],[26.6349,54.2011,175.525],[26.6442,54.2039,174.9534],[26.649,54.2012,172.622],[26.6536,54.2012,173.2629],[26.6537,54.1985,176.9451],[26.6445,54.193,182.0551],[26.6494,54.1875,176.5696],[26.6541,54.1848,180.3582],[26.668,54.1903,194.632],[26.6727,54.1904,178.62],[26.6774,54.1877,177.7363],[26.6775,54.1849,178.9944],[26.6822,54.1822,187.312],[26.6916,54.1823,178.2785],[26.7008,54.1878,172.4901],[26.7055,54.1851,187.3388],[26.7057,54.1796,198.7551],[26.7105,54.1742,199.2741],[26.7108,54.1633,217.2456],[26.7017,54.1551,226.4462],[26.7018,54.1524,248.1255],[26.7066,54.1497,240.9853],[26.7112,54.1497,247.2234],[26.7158,54.1524,239.3217],[26.7439,54.1498,237.8673],[26.7534,54.1444,254.7963],[26.7444,54.1308,247.2849],[26.7211,54.1307,258.4774],[26.7119,54.1252,248.1896],[26.7121,54.1197,244.7006],[26.7168,54.117,246.5498],[26.7495,54.1172,228.306],[26.7542,54.1145,226.6606],[26.7543,54.1117,241.2171],[26.7591,54.1063,232.9808],[26.7593,54.1009,223.7132],[26.7685,54.1036,226.6429],[26.7778,54.1037,225.7618],[26.7824,54.1064,232.8681],[26.7824,54.1091,236.0124],[26.7776,54.1118,229.4453],[26.7776,54.1146,230.5102],[26.8009,54.1147,234.403],[26.8103,54.112,234.184],[26.8149,54.1147,239.1264],[26.8196,54.1147,237.6615],[26.8339,54.1012,221.5428],[26.8341,54.0957,214.4335],[26.8388,54.093,214.4196],[26.8668,54.0931,217.8418],[26.876,54.0986,220.1743],[26.8711,54.1095,240.9764],[26.8757,54.1122,230.1905],[26.8897,54.1123,258.7564],[26.8942,54.1177,248.9137],[26.8941,54.1232,245.7504],[26.9034,54.1259,253.5788],[26.9127,54.1259,247.6156],[26.9269,54.1178,257.7188],[26.9271,54.1096,280.178],[26.9318,54.1069,255.5645],[26.9365,54.107,261.1855],[26.9506,54.1015,270.6162],[26.9647,54.1016,280.9529],[26.9692,54.107,273.3514],[27.0019,54.1071,257.5229],[27.0113,54.1044,259.8676],[27.0207,54.1044,276.0145],[27.0346,54.1072,262.1187],[27.0629,54.0964,251.5146],[27.0769,54.0937,266.4495],[27.0863,54.0937,257.4056],[27.1003,54.091,258.3362],[27.1051,54.0883,258.6166],[27.1144,54.0883,254.3933],[27.1146,54.0801,290.6749],[27.1007,54.0719,309.1935],[27.1007,54.0692,312.7639],[27.1055,54.0665,322.6802],[27.1148,54.0665,304.8283],[27.1425,54.0829,274.3401],[27.1471,54.091,282.6394],[27.147,54.0965,253.1484],[27.1516,54.1019,251.209],[27.1609,54.1019,245.7161],[27.1656,54.0992,248.6899],[27.1658,54.0911,267.2076],[27.2171,54.0965,259.1768],[27.2264,54.102,261.2637],[27.2216,54.1102,274.5526],[27.2213,54.1238,251.53809999999999],[27.226,54.1265,258.5508],[27.2399,54.1319,257.0371],[27.2726,54.1401,213.2369],[27.296,54.1401,268.7715],[27.3006,54.1456,260.9206],[27.3005,54.151,255.6612],[27.2911,54.1537,252.6567],[27.291,54.1646,228.9039],[27.3049,54.1728,236.7278],[27.3048,54.1782,224.9267],[27.3095,54.181,234.8033],[27.3094,54.1837,231.924],[27.3234,54.1891,223.2403],[27.3374,54.1919,223.4151],[27.3374,54.1946,206.947],[27.3185,54.2055,226.9301],[27.3184,54.2082,241.3673],[27.3231,54.2136,248.378],[27.3324,54.2136,253.768],[27.3371,54.2164,250.7962],[27.3371,54.2191,245.3593],[27.3322,54.2273,243.718],[27.3462,54.2327,235.3338],[27.3509,54.2381,252.4472],[27.3508,54.2436,243.0677],[27.3367,54.2463,228.2101],[27.3179,54.2463,214.0141],[27.3132,54.249,203.5518],[27.3131,54.2518,195.923],[27.3037,54.2572,202.6943],[27.2708,54.2572,196.8164],[27.2568,54.2517,192.768],[27.2474,54.2517,177.1335],[27.238,54.2545,176.5521],[27.2283,54.2735,189.4466],[27.2283,54.2762,180.6448],[27.2235,54.279,186.698],[27.2234,54.2898,187.107],[27.228,54.2953,183.8929],[27.2326,54.298,172.8481],[27.2467,54.3008,185.1963],[27.2513,54.3035,189.8489],[27.2465,54.3116,188.3107],[27.2464,54.3171,180.4656],[27.2323,54.3171,186.2634],[27.2276,54.3144,184.3073],[27.2277,54.3116,180.3639],[27.2137,54.3035,170.655],[27.2044,54.3007,187.0881],[27.1903,54.3007,184.646],[27.162,54.3061,167.5172],[27.1525,54.3116,170.5927],[27.1337,54.317,167.4346],[27.1149,54.317,170.8005],[27.1101,54.3197,165.9802],[27.082,54.3169,164.0789],[27.0677,54.3251,163.1222],[27.0629,54.3332,169.5902],[27.0628,54.3387,170.6862],[27.0534,54.3387,186.933],[27.0486,54.3414,172.8915],[27.0485,54.3495,180.5344],[27.0578,54.3523,183.9419],[27.0577,54.355,178.3368],[27.0482,54.3604,190.7406],[27.0481,54.3659,190.6778],[27.0527,54.3713,201.1215],[27.0527,54.3741,196.468],[27.0433,54.374,195.5502],[27.0385,54.3768,199.7444],[27.0384,54.3795,204.078],[27.043,54.3877,199.4237],[27.0429,54.3904,201.63],[27.0382,54.3931,183.4953],[27.0335,54.3904,188.594],[27.0336,54.3849,190.9142],[27.029,54.3822,193.4146],[27.0055,54.3821,172.3938],[26.9866,54.3848,178.4009],[26.949,54.3847,165.9138],[26.9303,54.3792,165.3941],[26.902,54.3819,171.4079],[26.8785,54.3818,151.8337],[26.8737,54.3845,159.612],[26.8736,54.3899,158.6617],[26.8688,54.3926,161.488],[26.8313,54.3871,149.3958],[26.8266,54.3898,149.3706],[26.8264,54.3952,149.5863],[26.8311,54.398,165.4265],[26.831,54.4007,170.608],[26.845,54.4034,152.8249],[26.859,54.4089,162.3719],[26.8588,54.4198,164.9787],[26.835,54.4279,143.7827],[26.8115,54.4278,153.9794],[26.8069,54.4224,156.7512],[26.7693,54.4222,178.0549],[26.7226,54.4112,155.436],[26.694,54.4247,153.9865],[26.6846,54.4247,146.6168],[26.6608,54.4382,157.688],[26.6284,54.419,157.9547],[26.6144,54.4135,155.6706],[26.5724,54.4052,151.3343],[26.5587,54.3915,151.7613],[26.5494,54.386,152.7429],[26.5314,54.3614,166.9109],[26.5221,54.3587,184.2006],[26.5177,54.3505,197.2677],[26.5038,54.3422,229.186],[26.4994,54.3341,238.0866],[26.5002,54.3123,264.6311],[26.4585,54.2957,276.3048]]]]}}