{"type":"Feature","properties":{"GID_2":"BLR.6.19_1","GID_0":"BLR","country":"Belarus","GID_1":"BLR.6_1","province":"Vitebsk","NL_NAME_1":"Вiцебская","county":"Ushat","VARNAME_2":"Ushachi","NL_NAME_2":"Ушацкіраён","TYPE_2":"Raion","ENGTYPE_2":"District","CC_2":"NA","HASC_2":"BY.VI.US","name":"Ushat.county"},
"geometry":{"type": "MultiPolygon","coordinates": [[[[29.1112,55.2461,151.8234],[29.1022,55.2683,126.0326],[29.0787,55.2878,130.7489],[29.0644,55.2934,154.705],[29.055,55.3018,147.866],[29.0458,55.3184,131.3804],[28.9935,55.3409,134.3385],[28.9839,55.341,133.4699],[28.9646,55.3356,134.3904],[28.9549,55.3301,140.5815],[28.9499,55.3219,148.6252],[28.945,55.3192,150.8299],[28.9162,55.3194,160.4775],[28.9017,55.3112,157.5667],[28.887,55.2975,144.436],[28.8822,55.2975,140.645],[28.8773,55.292,143.0808],[28.8676,55.2893,142.1588],[28.8485,55.2922,133.6744],[28.8388,55.2895,127.5171],[28.8387,55.284,126.0],[28.8531,55.2812,126.0],[28.8579,55.2784,132.3207],[28.853,55.2757,141.1909],[28.8337,55.2703,133.3093],[28.8192,55.2621,130.7059],[28.7951,55.2567,132.9371],[28.7853,55.2457,139.4055],[28.7565,55.2431,144.1631],[28.7327,55.2598,146.9448],[28.7231,55.2598,149.3946],[28.7136,55.2626,149.2711],[28.704,55.2626,145.0892],[28.6943,55.2599,149.4262],[28.6846,55.2517,137.814],[28.6702,55.249,138.0961],[28.6606,55.2518,140.0653],[28.6463,55.2601,134.3353],[28.6367,55.2629,135.4601],[28.6223,55.263,145.6327],[28.6079,55.2575,130.9746],[28.6078,55.2493,141.6845],[28.603,55.2465,138.2216],[28.5791,55.2604,137.5371],[28.5743,55.2576,137.9319],[28.5695,55.2577,139.9186],[28.5647,55.2659,139.2836],[28.5504,55.2742,132.0],[28.536,55.2743,151.1672],[28.5311,55.2715,160.9487],[28.5311,55.2605,148.1082],[28.5262,55.2578,140.9646],[28.507,55.2579,151.7574],[28.5069,55.2359,147.2981],[28.502,55.2331,149.9266],[28.4828,55.2332,139.0604],[28.478,55.2305,156.8451],[28.478,55.2222,163.0585],[28.4731,55.2167,157.1667],[28.4396,55.2223,173.0215],[28.4252,55.2279,177.4666],[28.406,55.2279,193.302],[28.3868,55.2307,185.8734],[28.3724,55.228,193.7371],[28.3388,55.2089,186.2556],[28.31,55.2034,199.2904],[28.3099,55.1705,208.5256],[28.3051,55.165,192.2511],[28.2955,55.1568,186.3581],[28.2859,55.1541,199.4264],[28.2811,55.1486,200.2632],[28.2475,55.1323,196.7613],[28.2188,55.1104,183.5182],[28.2761,55.0801,182.9109],[28.2378,55.061,183.5287],[28.2235,55.0555,194.0207],[28.2234,55.0363,188.7881],[28.2186,55.0309,183.2136],[28.2186,55.0281,178.0755],[28.2138,55.0199,184.2653],[28.1851,55.0035,188.1577],[28.1851,54.9844,191.912],[28.1994,54.9761,184.2025],[28.2184,54.9678,185.1721],[28.2518,54.9732,176.8773],[28.2566,54.9704,186.1965],[28.2566,54.9677,182.672],[28.2518,54.965,176.4967],[28.2518,54.9595,175.1943],[28.2613,54.9567,175.0734],[28.2708,54.9594,176.0665],[28.3184,54.9346,192.8521],[28.3279,54.9318,185.8026],[28.3421,54.9208,184.14],[28.3849,54.9206,182.5466],[28.3944,54.9151,172.6538],[28.404,54.9206,182.3349],[28.4184,54.9397,159.3284],[28.4327,54.9369,166.7582],[28.4374,54.9341,169.5918],[28.4376,54.9506,170.3857],[28.4424,54.956,173.0616],[28.4424,54.9588,163.0673],[28.4473,54.967,162.888],[28.4474,54.9807,162.4312],[28.457,54.9862,187.79],[28.4665,54.9861,182.9435],[28.4713,54.9834,187.7794],[28.4856,54.9833,185.2333],[28.4856,54.9888,187.3548],[28.5001,55.0024,175.8195],[28.5383,55.0105,175.8687],[28.5527,55.0159,176.195],[28.5623,55.0241,182.8939],[28.5719,55.0268,176.492],[28.5814,55.0268,179.8955],[28.5909,55.024,179.1412],[28.6005,55.0294,193.6158],[28.6101,55.0294,195.9999],[28.6148,55.0266,188.6946],[28.6195,55.0211,183.255],[28.6624,55.0209,190.2932],[28.6721,55.0263,162.5],[28.6864,55.0262,171.63],[28.7006,55.0207,165.6371],[28.7101,55.0206,172.5258],[28.7294,55.0342,185.3979],[28.7534,55.0423,174.5152],[28.7629,55.0395,163.5108],[28.7677,55.0422,160.9308],[28.7915,55.0393,154.857],[28.8011,55.042,157.5418],[28.8059,55.0475,152.3575],[28.8013,55.053,163.7574],[28.8013,55.0585,159.5604],[28.8062,55.0612,159.1181],[28.8157,55.0612,158.7723],[28.8251,55.0556,152.7427],[28.8394,55.0555,144.9244],[28.8539,55.0609,143.8886],[28.8731,55.0718,141.1936],[28.8874,55.0717,147.7903],[28.8969,55.0688,144.6807],[28.9065,55.0688,137.0161],[28.9113,55.0715,137.0202],[28.9116,55.0852,143.7449],[28.9212,55.0907,144.7743],[28.931,55.1016,141.8148],[28.936,55.1126,137.8196],[28.9361,55.1181,134.1602],[28.9457,55.118,140.195],[28.9646,55.1096,131.3252],[28.9788,55.1067,131.7117],[29.0074,55.1065,140.7267],[29.0168,55.0982,146.7844],[29.0215,55.0981,132.588],[29.036,55.1035,134.0584],[29.0361,55.109,134.6895],[29.041,55.1117,137.6793],[29.0553,55.1116,135.3439],[29.0554,55.1171,131.3836],[29.0602,55.1171,134.2208],[29.0649,55.1143,137.0466],[29.06,55.1088,132.922],[29.0647,55.106,133.0576],[29.079,55.1059,134.1575],[29.1027,55.1002,139.5795],[29.1171,55.1028,139.1311],[29.1173,55.1083,138.5163],[29.1078,55.1139,131.0],[29.1128,55.1194,135.1971],[29.1129,55.1249,134.9145],[29.1034,55.125,131.0],[29.0939,55.1306,131.0],[29.094,55.1333,131.0],[29.0989,55.1388,133.7222],[29.1181,55.1414,137.8655],[29.123,55.1441,140.7876],[29.128,55.1523,139.192],[29.1282,55.1605,144.6524],[29.1331,55.166,149.2237],[29.1474,55.1659,158.5508],[29.1766,55.1821,158.205],[29.2006,55.1847,136.0255],[29.2007,55.1902,136.3461],[29.1914,55.1985,146.7672],[29.1818,55.1986,147.7347],[29.158,55.2044,141.9021],[29.1439,55.2128,142.4957],[29.1346,55.2239,142.3091],[29.1252,55.2295,141.354],[29.1157,55.2323,141.1349],[29.1063,55.2434,132.6188],[29.1112,55.2461,151.8234]]]]}}