{"type": "Feature","bbox": [26.272,53.1,26.8926,53.3964],"geometry": {"type": "MultiPolygon","coordinates": [[[[26.3416,53.1725,197.7084],[26.3603,53.1538,185.2247],[26.4192,53.1275,194.0806],[26.4456,53.1278,198.2826],[26.4588,53.1306,197.6216],[26.431,53.1601,196.6545],[26.4266,53.1601,198.4339],[26.4265,53.1628,200.7175],[26.4353,53.1629,192.8301],[26.4439,53.1711,197.8758],[26.4572,53.1711,201.3533],[26.4754,53.1604,199.449],[26.4755,53.1577,196.8761],[26.4799,53.1605,194.4951],[26.4798,53.1632,194.7909],[26.4843,53.1632,196.3854],[26.498,53.1525,215.9062],[26.5028,53.1444,214.8377],[26.5119,53.139,215.8898],[26.5163,53.1418,215.2695],[26.5296,53.1446,210.3094],[26.5386,53.1447,211.2445],[26.5478,53.1366,223.8137],[26.5612,53.1367,204.2824],[26.5701,53.1395,199.1245],[26.57,53.1422,199.7622],[26.5607,53.153,196.4358],[26.565,53.1584,196.137],[26.5695,53.1584,197.9975],[26.5742,53.1503,196.5498],[26.5877,53.1504,194.894],[26.5878,53.1477,195.5148],[26.5971,53.1397,190.2572],[26.6242,53.1344,185.7008],[26.6699,53.1131,213.7856],[26.679,53.1104,219.3654],[26.6881,53.1105,227.3182],[26.7105,53.1187,212.9302],[26.724,53.1215,230.025],[26.7378,53.1135,216.5048],[26.738,53.1054,208.7975],[26.7517,53.1,200.2858],[26.7562,53.1,198.3869],[26.7607,53.1028,190.9387],[26.7651,53.1082,186.7932],[26.7784,53.1192,204.4716],[26.783,53.1192,204.1683],[26.7922,53.1138,188.8545],[26.8196,53.1086,195.7581],[26.8287,53.1086,200.5428],[26.8238,53.1222,216.0361],[26.8373,53.1304,219.1755],[26.8372,53.1358,221.0538],[26.8326,53.1385,231.7244],[26.8324,53.1439,216.284],[26.8278,53.1466,206.2511],[26.8278,53.1493,204.9605],[26.8456,53.1684,202.7917],[26.8454,53.1738,203.5444],[26.8541,53.1956,183.9887],[26.8493,53.2064,181.2643],[26.8536,53.2173,183.4097],[26.8627,53.2228,181.9516],[26.8625,53.231,185.9019],[26.876,53.2392,186.4305],[26.8759,53.2473,187.1499],[26.8666,53.2554,181.9426],[26.8665,53.2581,181.0298],[26.871,53.2609,182.8659],[26.8847,53.2637,182.6584],[26.8841,53.2908,175.4195],[26.8886,53.2963,172.8647],[26.8882,53.3153,172.47],[26.8926,53.3235,177.6328],[26.8926,53.3262,198.6943],[26.8879,53.3289,196.6844],[26.8742,53.3288,199.6748],[26.8696,53.3315,202.607],[26.8695,53.3342,205.3225],[26.8649,53.3342,204.0612],[26.8467,53.3287,207.6232],[26.8193,53.3285,189.9123],[26.8101,53.3312,191.1452],[26.8098,53.3447,179.5097],[26.7959,53.3501,169.7517],[26.7913,53.3501,162.5082],[26.7868,53.3473,164.0698],[26.7916,53.3392,182.5359],[26.7871,53.3364,180.871],[26.7507,53.328,185.9388],[26.7507,53.3308,187.9888],[26.746,53.3335,187.5619],[26.7186,53.3387,185.5008],[26.7003,53.3386,181.7372],[26.6959,53.3331,180.7584],[26.6914,53.3303,172.226],[26.6822,53.3357,179.5995],[26.6686,53.3329,184.9645],[26.6459,53.3327,183.5616],[26.6413,53.3354,185.7184],[26.6502,53.3409,188.6331],[26.6546,53.3464,183.2635],[26.6408,53.3517,188.5446],[26.618,53.3542,188.2736],[26.6089,53.3542,188.7115],[26.6,53.3514,188.3947],[26.591,53.3459,184.287],[26.5729,53.3457,183.1676],[26.5592,53.3483,186.875],[26.5591,53.3537,175.0576],[26.5499,53.3564,172.5692],[26.5364,53.3562,171.9516],[26.523,53.3507,177.5541],[26.5003,53.3532,192.9603],[26.4823,53.353,183.2299],[26.4817,53.372,210.3265],[26.4861,53.3748,208.4794],[26.504,53.3804,195.9239],[26.5176,53.3805,181.8333],[26.5082,53.3913,184.4318],[26.5036,53.394,181.5475],[26.481,53.3938,179.4202],[26.4674,53.3964,188.3162],[26.4584,53.3963,183.3267],[26.4495,53.3908,188.6329],[26.4135,53.3904,172.5515],[26.4046,53.3876,169.981],[26.3959,53.382,165.6784],[26.3646,53.3735,153.1068],[26.3694,53.3681,179.4407],[26.3697,53.3627,178.1236],[26.3744,53.3546,180.1229],[26.375,53.341,155.7903],[26.3707,53.3356,167.4148],[26.3843,53.3303,186.7762],[26.3932,53.3304,187.0116],[26.3978,53.3277,187.7775],[26.398,53.3223,188.3541],[26.3897,53.306,185.7263],[26.3909,53.2762,199.6862],[26.3778,53.2706,199.453],[26.3464,53.2701,196.6403],[26.342,53.2673,197.9543],[26.3425,53.2565,193.9122],[26.3382,53.251,192.9126],[26.3249,53.2453,181.906],[26.3113,53.2451,174.5051],[26.3069,53.2423,187.1389],[26.3076,53.2261,179.3711],[26.2763,53.2173,200.0826],[26.272,53.2118,196.6744],[26.2722,53.2091,198.023],[26.2771,53.2011,202.3299],[26.2864,53.1959,205.3086],[26.3135,53.1964,198.6484],[26.332,53.1859,191.8091],[26.3416,53.1725,197.7084]]]]}
,"properties": {"GID_2": "BLR.5.13_1","GID_0": "BLR","country": "Belarus","GID_1": "BLR.5_1","province": "Minsk","NL_NAME_1": "Мінская","county": "Nyasvizh","VARNAME_2": "Nesvizh","NL_NAME_2": "Нясвіжскіраён","TYPE_2": "Raion","ENGTYPE_2": "District","CC_2": "NA","HASC_2": "BY.MI.NE","name": "Nyasvizh.county","area_km2": 844.5619,"hist_schema_id": "Elevation0-9000","hist_area_km2": {"150": 26.0878,"175": 369.4042,"200": 414.1679,"225": 33.0333,"250": 1.8686}}}