{"type":"Feature","properties":{"GID_2":"BLR.2.18_1","GID_0":"BLR","country":"Belarus","GID_1":"BLR.2_1","province":"Gomel","NL_NAME_1":"Гомельская","county":"Vyetka","VARNAME_2":"Vetka","NL_NAME_2":"Веткаўскіраён","TYPE_2":"Raion","ENGTYPE_2":"District","CC_2":"NA","HASC_2":"BY.HO.VT","name":"Vyetka.county"},
"geometry":{"type": "MultiPolygon","coordinates": [[[[30.91,52.5912,136.5968],[30.9184,52.5882,139.5665],[30.9443,52.5847,138.5297],[30.9527,52.5817,133.3457],[31.0045,52.5802,138.9767],[31.0134,52.5827,137.3196],[31.0219,52.5824,136.7646],[31.0229,52.5519,138.1435],[31.0349,52.546,138.2194],[31.0516,52.5453,136.3157],[31.0676,52.5391,133.1657],[31.0827,52.5273,136.6585],[31.0932,52.5129,119.1327],[31.0995,52.4987,118.337],[31.1068,52.4927,118.2768],[31.15,52.4813,118.9298],[31.158,52.4778,136.4285],[31.1695,52.4684,149.8355],[31.177,52.4593,147.6908],[31.1819,52.4617,124.4668],[31.2102,52.4622,139.8658],[31.2619,52.4918,126.6966],[31.2718,52.4938,128.2769],[31.2956,52.492,163.7297],[31.3007,52.4944,161.5843],[31.2966,52.5003,140.7018],[31.2792,52.5156,127.0903],[31.2612,52.5254,124.6112],[31.2619,52.531,125.2197],[31.2721,52.5358,126.7976],[31.2775,52.541,127.7478],[31.2734,52.5469,127.0881],[31.2785,52.5493,129.6559],[31.3218,52.5487,134.7957],[31.3405,52.5445,133.0159],[31.3541,52.5379,129.4263],[31.378,52.5362,131.9618],[31.3968,52.5322,147.3427],[31.4067,52.5343,149.4863],[31.4272,52.5442,165.384],[31.428,52.5497,158.8207],[31.4239,52.5555,148.0928],[31.4243,52.5583,146.0059],[31.4295,52.5608,148.4032],[31.4684,52.5616,155.0519],[31.4736,52.5642,150.992],[31.474,52.5669,148.9193],[31.4647,52.5701,146.017],[31.4354,52.5688,152.0943],[31.4309,52.5719,136.6406],[31.4671,52.5869,145.6087],[31.4546,52.6015,161.8771],[31.4554,52.6071,150.3877],[31.4607,52.6096,144.2734],[31.4852,52.6088,145.7072],[31.4906,52.6115,144.1126],[31.4956,52.6114,136.7632],[31.5095,52.6058,137.4355],[31.5245,52.6063,138.6108],[31.53,52.6095,140.5923],[31.5305,52.6124,133.753],[31.5221,52.6206,137.8213],[31.5187,52.629,136.7857],[31.5489,52.6457,137.3355],[31.5225,52.6778,141.2541],[31.5185,52.6809,141.2524],[31.5153,52.6893,141.6207],[31.5158,52.6951,144.0607],[31.5201,52.6981,150.0527],[31.5491,52.6978,157.9333],[31.5534,52.7008,156.8329],[31.5658,52.7007,154.9458],[31.5701,52.7036,150.868],[31.5883,52.7241,151.1551],[31.6035,52.7377,145.0706],[31.6066,52.7666,149.3109],[31.6023,52.7756,145.0791],[31.5929,52.7818,140.8395],[31.5837,52.791,137.5978],[31.5517,52.8098,139.0189],[31.5431,52.8099,141.6658],[31.5344,52.8246,143.8012],[31.5299,52.8275,146.6103],[31.5344,52.8335,144.8018],[31.5434,52.8394,144.3679],[31.5435,52.8423,142.8388],[31.5478,52.8452,144.1842],[31.5397,52.8599,141.7127],[31.5219,52.8594,154.2184],[31.5172,52.8563,155.6136],[31.5039,52.8588,156.3175],[31.4948,52.8585,159.6843],[31.4144,52.8997,158.2291],[31.4101,52.9053,165.1597],[31.3923,52.9166,154.8753],[31.3839,52.928,142.7878],[31.3766,52.9616,145.0426],[31.3726,52.97,165.8532],[31.3501,52.9653,157.4578],[31.3328,52.9663,153.9649],[31.3284,52.9639,163.9292],[31.3198,52.9646,159.7243],[31.3018,52.953,159.7834],[31.2779,52.9414,169.6621],[31.2588,52.9374,168.6231],[31.2392,52.9194,145.3711],[31.2429,52.9134,154.4813],[31.238,52.9082,159.3006],[31.2438,52.8823,146.8565],[31.2506,52.8648,144.9718],[31.2459,52.8624,144.6497],[31.2245,52.864,144.5135],[31.2151,52.8562,145.1858],[31.2017,52.8512,151.7136],[31.1932,52.8516,155.0517],[31.1853,52.8576,148.9401],[31.177,52.8606,151.0097],[31.1328,52.8618,161.8047],[31.1236,52.8592,149.5526],[31.1014,52.8597,140.4646],[31.0873,52.8517,152.9438],[31.069,52.8466,141.377],[31.0597,52.8413,155.8958],[31.0498,52.8304,124.3808],[31.0221,52.8172,144.2001],[30.9906,52.8124,121.6928],[30.9776,52.8155,122.7255],[30.9638,52.8103,122.4842],[30.9543,52.8022,122.074],[30.9534,52.7912,122.6216],[30.962,52.7883,134.2004],[30.9913,52.7683,141.8225],[30.9818,52.7602,139.9813],[30.9732,52.7632,136.5645],[30.9685,52.7606,136.8335],[30.9681,52.7551,122.6965],[30.972,52.7494,123.3105],[30.9701,52.7274,122.3936],[30.9655,52.7248,128.1232],[30.9523,52.7251,129.8527],[30.9555,52.7113,121.3319],[30.9548,52.703,120.6856],[30.9416,52.7033,121.1076],[30.9324,52.6981,139.6288],[30.9317,52.6898,143.7927],[30.9219,52.679,146.1039],[30.8986,52.6631,146.6692],[30.885,52.6579,149.5284],[30.8848,52.6552,153.4906],[30.8972,52.6466,159.4907],[30.9172,52.6241,163.9264],[30.917,52.6213,157.495],[30.9073,52.6105,136.3304],[30.9068,52.6051,135.9624],[30.91,52.5912,136.5968]]]]}}