{"type": "Feature","bbox": [24.0775,52.9457,24.732,53.4189],"geometry": {"type": "MultiPolygon","coordinates": [[[[24.7146,52.9973,177.0217],[24.7187,53.0028,183.8711],[24.732,53.0086,184.3535],[24.7219,53.019,189.6307],[24.7209,53.0297,191.7952],[24.7158,53.0349,193.1588],[24.7062,53.0399,188.0122],[24.7009,53.0478,195.7415],[24.7002,53.0558,196.6661],[24.6951,53.061,208.3044],[24.6857,53.0633,210.6351],[24.6763,53.0657,225.6432],[24.6625,53.0652,228.6256],[24.6529,53.0702,206.238],[24.6475,53.0781,203.2996],[24.6282,53.0881,206.2602],[24.618,53.0985,201.021],[24.6166,53.1145,197.1095],[24.6066,53.1222,208.1134],[24.6062,53.1276,214.7775],[24.5916,53.1351,228.8293],[24.596,53.138,233.3416],[24.6052,53.1383,220.4558],[24.6095,53.1411,215.5204],[24.6091,53.1465,215.2982],[24.604,53.1517,203.8452],[24.6083,53.1545,215.978],[24.6267,53.1552,226.2259],[24.6398,53.1637,217.6969],[24.6345,53.1716,200.5646],[24.6297,53.1741,180.4726],[24.6251,53.1739,180.7624],[24.6207,53.1711,189.6718],[24.6113,53.1734,201.7223],[24.6103,53.1841,208.0498],[24.5961,53.189,218.6229],[24.591,53.1942,209.1033],[24.59,53.2049,184.9249],[24.5756,53.2124,196.7609],[24.5657,53.2201,183.4091],[24.5336,53.2189,189.7498],[24.5242,53.2213,194.6232],[24.5283,53.2268,189.193],[24.5278,53.2322,197.1978],[24.5368,53.2352,217.6403],[24.5506,53.2357,200.0514],[24.5639,53.2416,200.7401],[24.5634,53.2469,196.4164],[24.5673,53.2551,182.2275],[24.5717,53.258,181.0183],[24.6038,53.2592,155.4602],[24.6127,53.2622,159.2738],[24.6171,53.265,163.4626],[24.621,53.2732,169.0455],[24.6205,53.2786,169.7352],[24.6109,53.2836,183.445],[24.5605,53.2818,195.1064],[24.5511,53.2841,191.2245],[24.5313,53.3022,154.2753],[24.5127,53.3042,168.3718],[24.5079,53.3067,175.8134],[24.5077,53.3094,167.3685],[24.5164,53.3151,146.5573],[24.5258,53.3128,142.1696],[24.5345,53.3185,144.9974],[24.5298,53.321,132.9608],[24.5069,53.3201,148.5936],[24.4925,53.3276,154.6989],[24.479,53.3244,154.0571],[24.4694,53.3294,152.4986],[24.4677,53.3508,123.8075],[24.4535,53.3557,125.9142],[24.4577,53.3612,134.435],[24.4481,53.3662,137.3856],[24.43,53.3628,135.1628],[24.4202,53.3705,137.3435],[24.4423,53.3822,121.0327],[24.442,53.3849,135.3735],[24.4373,53.3874,130.0898],[24.4095,53.389,128.1221],[24.4039,53.4023,121.4814],[24.3943,53.4073,120.15],[24.3851,53.407,109.4685],[24.3661,53.4143,106.2085],[24.3428,53.4189,107.4985],[24.3244,53.4182,114.4622],[24.3156,53.4124,115.3251],[24.3158,53.4097,115.8128],[24.3206,53.4072,116.4501],[24.3208,53.4045,127.182],[24.3167,53.3989,132.1925],[24.3031,53.3956,129.076],[24.3033,53.3929,131.7713],[24.3273,53.3804,130.0777],[24.3277,53.375,129.6487],[24.3142,53.3717,134.0412],[24.305,53.3714,140.1505],[24.2954,53.3764,148.7019],[24.2862,53.376,156.8409],[24.2688,53.3618,147.3535],[24.2598,53.3587,145.7759],[24.2323,53.3576,140.231],[24.2147,53.346,131.8019],[24.2009,53.3455,132.8564],[24.1913,53.3505,134.3997],[24.1867,53.3503,134.9473],[24.1731,53.3471,127.6099],[24.1643,53.3413,123.8192],[24.1597,53.3411,123.9149],[24.1494,53.3543,126.8693],[24.1448,53.3542,135.8562],[24.14,53.3567,129.7024],[24.1262,53.3562,138.6102],[24.1135,53.3421,148.6906],[24.1137,53.3394,149.8104],[24.1187,53.3341,166.1414],[24.1189,53.3314,164.6752],[24.1143,53.3312,173.1867],[24.0963,53.3251,157.7424],[24.0879,53.3139,168.3911],[24.0881,53.3112,172.6242],[24.1021,53.309,179.8172],[24.1073,53.301,177.8634],[24.1077,53.2956,191.0819],[24.1174,53.2905,163.4204],[24.118,53.2824,177.809],[24.1136,53.2795,187.1785],[24.1138,53.2768,196.661],[24.1188,53.2715,194.0054],[24.1285,53.2665,176.4628],[24.1287,53.2638,172.817],[24.1243,53.2609,164.0914],[24.1247,53.2555,158.4247],[24.1295,53.253,158.0681],[24.13,53.2476,165.9971],[24.1165,53.2416,171.7844],[24.1073,53.2412,193.3299],[24.0937,53.2379,182.7112],[24.0893,53.235,170.1849],[24.0895,53.2323,169.1232],[24.0943,53.2298,176.1844],[24.113,53.2278,177.1329],[24.1178,53.2253,181.7978],[24.1233,53.2147,178.0497],[24.0969,53.1973,196.2358],[24.0929,53.189,200.482],[24.0934,53.1836,210.1427],[24.0982,53.1811,210.202],[24.099,53.1703,186.1449],[24.0775,53.1503,190.6687],[24.083,53.1397,183.9509],[24.0922,53.1401,172.3536],[24.0973,53.135,172.3029],[24.1111,53.1356,172.8978],[24.1155,53.1386,164.7971],[24.1248,53.139,174.701],[24.1538,53.1242,189.6223],[24.154,53.1215,197.9802],[24.1452,53.1157,202.7342],[24.1551,53.1081,171.7503],[24.1553,53.1054,171.3964],[24.1512,53.0998,168.9868],[24.1514,53.0971,172.8387],[24.1567,53.0893,165.9643],[24.2189,53.0656,170.2168],[24.2235,53.0658,167.5559],[24.2365,53.0772,169.7375],[24.2628,53.0946,158.8632],[24.3051,53.0859,182.9339],[24.3097,53.0861,190.882],[24.3274,53.095,211.785],[24.3322,53.0925,198.8944],[24.3327,53.0872,194.8353],[24.3288,53.0789,201.5485],[24.3304,53.0602,189.3651],[24.335,53.0604,197.5061],[24.3398,53.058,191.5721],[24.381,53.0624,158.9378],[24.39,53.0655,191.763],[24.3987,53.0712,191.3462],[24.4034,53.0714,164.4052],[24.4036,53.0688,161.0525],[24.4087,53.0636,143.7501],[24.4179,53.064,157.7218],[24.4176,53.0667,152.5056],[24.4266,53.0697,187.6425],[24.4542,53.0708,214.6658],[24.4637,53.0685,194.3629],[24.4787,53.0557,192.7074],[24.4792,53.0503,198.8287],[24.4751,53.0448,205.0959],[24.4618,53.0389,190.2077],[24.4625,53.0309,173.2212],[24.4676,53.0257,161.7118],[24.487,53.0158,166.4574],[24.4921,53.0106,184.383],[24.4929,53.0026,197.7149],[24.5074,52.9952,199.5904],[24.5125,52.99,207.336],[24.522,52.9877,206.067],[24.5264,52.9905,199.0317],[24.5443,52.9966,205.9852],[24.5537,52.9943,193.8259],[24.5634,52.9893,180.1584],[24.5647,52.9759,179.2787],[24.556,52.9702,184.5362],[24.5519,52.9647,213.0142],[24.5809,52.9498,201.6669],[24.6082,52.9534,199.1956],[24.6181,52.9457,187.9143],[24.6273,52.9461,180.2713],[24.6314,52.9516,183.8228],[24.6804,52.9693,175.5023],[24.689,52.975,175.0743],[24.6883,52.983,179.5969],[24.7066,52.9836,197.4558],[24.711,52.9865,195.5592],[24.7105,52.9918,181.5046],[24.7148,52.9946,177.5611],[24.7146,52.9973,177.0217]]]]}
,"properties": {"GID_2": "BLR.3.15_1","GID_0": "BLR","country": "Belarus","GID_1": "BLR.3_1","province": "Grodno","NL_NAME_1": "Гродзенская","county": "Vawkavysk","VARNAME_2": "Volkovysk","NL_NAME_2": "Ваўкавыскіраён","TYPE_2": "Raion","ENGTYPE_2": "District","CC_2": "NA","HASC_2": "BY.HR.VL","name": "Vawkavysk.county","area_km2": 1175.9694,"hist_schema_id": "Elevation0-9000","hist_area_km2": {"100": 5.5877,"125": 175.5332,"150": 216.6186,"175": 389.9679,"200": 327.8514,"225": 57.0562,"250": 3.3545}}}