{"type": "Feature","bbox": [28.0901,53.1055,29.097,53.6115],"geometry": {"type": "MultiPolygon","coordinates": [[[[28.8545,53.5768,180.288],[28.8406,53.577,170.2788],[28.8269,53.5853,185.8367],[28.8225,53.5962,176.026],[28.8179,53.599,176.3175],[28.8133,53.599,178.8336],[28.7947,53.5937,180.4768],[28.7808,53.5939,182.4798],[28.7762,53.5912,182.957],[28.7806,53.5775,176.8094],[28.7759,53.5748,176.5299],[28.7112,53.5754,183.2756],[28.7066,53.5782,179.9021],[28.7021,53.5864,176.5363],[28.6975,53.5891,186.6203],[28.6837,53.5947,179.5589],[28.6515,53.6032,176.1003],[28.6377,53.6115,182.7929],[28.6331,53.6115,189.9567],[28.6284,53.6034,186.8826],[28.619,53.5925,173.6539],[28.6189,53.5844,173.6679],[28.6233,53.5734,174.9917],[28.6187,53.5707,182.3555],[28.6094,53.5708,178.7514],[28.5956,53.5737,171.0909],[28.5909,53.5682,166.9058],[28.5862,53.5656,167.7202],[28.5908,53.5601,163.535],[28.5768,53.552,170.8318],[28.5398,53.5523,169.4279],[28.5353,53.5551,174.0107],[28.5259,53.5497,165.0297],[28.5027,53.5417,178.055],[28.5026,53.5336,173.1148],[28.5072,53.5281,175.2418],[28.5118,53.5253,168.378],[28.5303,53.5224,166.0722],[28.5488,53.5277,176.5356],[28.5673,53.5303,173.0371],[28.5766,53.5302,172.1451],[28.5811,53.5275,169.3327],[28.5811,53.5247,180.193],[28.5626,53.5195,164.8393],[28.5487,53.5196,166.8968],[28.5255,53.5143,169.6772],[28.5162,53.5089,170.9286],[28.5116,53.509,174.3635],[28.507,53.5117,176.2175],[28.4979,53.52,167.3174],[28.4979,53.5227,166.6864],[28.4933,53.5255,175.3006],[28.4887,53.5255,169.1072],[28.4839,53.5119,185.6352],[28.4701,53.512,174.3729],[28.4608,53.5094,174.6456],[28.4515,53.504,179.1577],[28.4422,53.4932,174.8296],[28.4329,53.4905,177.3633],[28.419,53.4906,176.2071],[28.4144,53.4852,181.3451],[28.4143,53.4825,170.0914],[28.3958,53.4799,161.7741],[28.3959,53.4826,164.6193],[28.3913,53.4908,179.7693],[28.3867,53.4936,161.1027],[28.3775,53.4937,177.1002],[28.3636,53.4883,161.2835],[28.3681,53.4801,167.586],[28.3588,53.4747,172.04],[28.3542,53.4775,173.3951],[28.3496,53.4748,179.2006],[28.3357,53.4722,160.6947],[28.3357,53.4667,181.1859],[28.3588,53.4666,180.4229],[28.3818,53.4555,173.6349],[28.391,53.4555,174.5239],[28.4003,53.4581,178.6487],[28.414,53.4471,178.5303],[28.4186,53.4416,163.2166],[28.4185,53.4362,178.052],[28.4091,53.409,186.1206],[28.409,53.4009,160.5374],[28.3997,53.3928,179.0282],[28.3812,53.3875,162.3535],[28.3628,53.3876,159.931],[28.3535,53.385,152.0039],[28.3534,53.3714,153.1051],[28.358,53.3659,167.0201],[28.3579,53.355,176.3825],[28.3946,53.3411,169.3377],[28.4038,53.341,175.8522],[28.4176,53.3382,157.2661],[28.4268,53.3327,162.4874],[28.4267,53.3191,161.3004],[28.4358,53.3081,169.2708],[28.4356,53.2864,160.7789],[28.4401,53.2782,166.0199],[28.4355,53.2755,170.8761],[28.4309,53.2755,168.7061],[28.4124,53.2702,174.6857],[28.394,53.2704,163.5864],[28.3388,53.2762,159.7669],[28.3342,53.2736,160.8369],[28.3341,53.26,160.2559],[28.2973,53.2548,177.2213],[28.2789,53.2549,172.3453],[28.1777,53.2693,157.9328],[28.1546,53.2694,159.8915],[28.15,53.2722,161.2586],[28.1547,53.2776,159.1962],[28.1455,53.2804,160.4933],[28.1362,53.2804,158.8771],[28.1224,53.2778,175.7193],[28.1178,53.2724,178.4762],[28.104,53.2725,175.1969],[28.0948,53.278,176.5447],[28.0901,53.2726,169.7058],[28.0947,53.2698,165.3119],[28.0947,53.2589,162.2479],[28.0993,53.2562,160.3474],[28.0993,53.2453,159.5667],[28.1039,53.2453,160.3155],[28.1223,53.2397,159.0045],[28.1223,53.237,161.5162],[28.1084,53.229,161.1525],[28.1084,53.2262,160.3387],[28.1222,53.218,164.9069],[28.1314,53.2206,169.3053],[28.1544,53.2123,164.307],[28.1636,53.2123,161.2723],[28.1682,53.2095,160.4024],[28.182,53.2094,159.9203],[28.1866,53.2039,160.2375],[28.1865,53.1904,175.778],[28.1911,53.1876,178.8394],[28.2187,53.1956,176.8995],[28.2233,53.1955,174.6338],[28.2279,53.1928,177.8172],[28.2279,53.1873,172.3374],[28.2324,53.1846,174.7021],[28.2463,53.1899,179.8391],[28.2509,53.1953,177.7685],[28.2463,53.1981,179.1965],[28.2509,53.2008,176.9421],[28.2555,53.2007,174.9837],[28.2647,53.1979,166.1793],[28.2784,53.1897,175.5825],[28.2784,53.1788,178.2399],[28.2875,53.1733,167.9747],[28.2921,53.1733,162.9663],[28.2967,53.1787,162.11],[28.2968,53.1868,167.3475],[28.306,53.1895,162.8248],[28.3061,53.2085,157.0576],[28.3337,53.2028,160.271],[28.3382,53.1974,174.4892],[28.3611,53.1836,169.9579],[28.3611,53.1782,173.3546],[28.3518,53.1701,159.3478],[28.3471,53.162,159.8729],[28.3471,53.1565,161.1346],[28.3516,53.1483,161.9357],[28.3746,53.1481,175.6069],[28.3747,53.159,173.7688],[28.3793,53.1617,162.4456],[28.3794,53.1699,165.5351],[28.3885,53.1698,162.3445],[28.4022,53.1588,184.1074],[28.4022,53.1533,167.3206],[28.4159,53.1451,181.038],[28.448,53.1502,166.3967],[28.4619,53.1556,158.631],[28.4894,53.1608,161.7703],[28.494,53.158,157.6071],[28.526,53.1496,151.3126],[28.526,53.1441,157.0625],[28.5121,53.1361,151.9917],[28.5166,53.1306,152.4124],[28.5257,53.1251,151.4909],[28.5257,53.1197,152.8928],[28.5302,53.1142,158.163],[28.5348,53.1114,170.1323],[28.5484,53.1059,170.8377],[28.5622,53.1084,164.7501],[28.5714,53.1056,151.5309],[28.5851,53.1055,160.2909],[28.5897,53.1082,168.0203],[28.5715,53.1192,164.9909],[28.5532,53.1221,155.3555],[28.5441,53.1276,155.5966],[28.5487,53.1303,159.1588],[28.5625,53.1329,164.476],[28.5671,53.1356,166.7612],[28.5672,53.1438,166.9269],[28.5765,53.1518,154.9395],[28.5765,53.1546,158.1438],[28.5858,53.1626,157.0312],[28.5997,53.1707,161.1738],[28.618,53.1705,163.9797],[28.6317,53.1649,161.3892],[28.6362,53.1595,156.3712],[28.6361,53.1486,158.3995],[28.6406,53.1458,159.1593],[28.6498,53.1457,169.7276],[28.6682,53.1537,153.3887],[28.6774,53.1536,162.8402],[28.691,53.1453,170.4945],[28.7002,53.1425,168.8204],[28.7092,53.1343,151.0438],[28.723,53.1369,149.5684],[28.7323,53.1449,150.6822],[28.7414,53.1448,151.0383],[28.7413,53.1367,167.3356],[28.7367,53.1313,162.5784],[28.7411,53.1258,157.1355],[28.7457,53.1257,157.0626],[28.7458,53.1285,159.0191],[28.7687,53.1282,166.0007],[28.7687,53.131,162.5005],[28.7779,53.1309,170.8591],[28.7777,53.12,151.1385],[28.7822,53.1172,150.4964],[28.7869,53.1199,172.2921],[28.7869,53.1226,150.7582],[28.8008,53.1306,152.0621],[28.8054,53.1306,154.3537],[28.8054,53.1333,157.6204],[28.8238,53.1358,159.9398],[28.833,53.1412,166.7263],[28.8377,53.1466,159.3164],[28.8423,53.1493,159.3477],[28.8424,53.1547,159.8512],[28.8517,53.16,160.2247],[28.8747,53.1653,150.6328],[28.8747,53.168,152.3748],[28.884,53.1733,150.585],[28.8841,53.176,149.3512],[28.8887,53.1787,149.6691],[28.8889,53.1923,155.0237],[28.8936,53.195,154.679],[28.8937,53.2032,158.7579],[28.8984,53.2059,158.9871],[28.9122,53.2084,157.4792],[28.9213,53.2083,159.2758],[28.935,53.2055,174.8088],[28.9489,53.208,178.1391],[28.9535,53.2134,167.3591],[28.9491,53.2189,156.0611],[28.9629,53.2215,150.0725],[28.9996,53.2211,147.7118],[29.0042,53.2238,147.5671],[29.0043,53.2265,148.7743],[28.9997,53.2293,149.1908],[28.9998,53.2347,145.5098],[28.9954,53.2402,148.4124],[28.977,53.2404,147.8993],[28.9725,53.2432,151.2317],[28.9726,53.2486,150.7136],[28.9681,53.2541,150.2819],[28.9728,53.2595,152.9885],[28.973,53.2677,154.7513],[28.9961,53.2756,149.9394],[29.0283,53.278,150.8477],[29.0328,53.2752,148.6054],[29.0327,53.2698,151.159],[29.0463,53.2615,155.0804],[29.0968,53.2636,145.7905],[29.097,53.2691,144.815],[29.0697,53.283,141.4658],[29.0608,53.294,141.0156],[29.0701,53.2994,140.6464],[29.0839,53.3019,139.4915],[29.0794,53.3047,142.7452],[29.0657,53.3076,141.1012],[29.0612,53.3131,141.4189],[29.0658,53.313,141.2152],[29.0751,53.3184,145.8219],[29.0752,53.3211,140.8955],[29.0616,53.3294,138.3862],[29.0479,53.335,139.2515],[29.0387,53.3351,151.3963],[29.0251,53.3434,153.075],[29.0252,53.3489,140.4855],[29.0299,53.3516,144.7421],[29.0299,53.3543,142.2455],[29.0254,53.3598,141.353],[29.0257,53.3707,147.1671],[29.0349,53.3733,147.1553],[29.035,53.376,144.2638],[29.0259,53.3816,148.7477],[29.0214,53.3871,140.5023],[29.0262,53.3952,140.5325],[29.0173,53.4089,140.9748],[29.0035,53.4118,146.2575],[28.9944,53.4174,141.049],[29.0082,53.4172,140.8209],[29.0129,53.4199,142.556],[29.0084,53.4227,142.9164],[28.99,53.4256,140.5052],[28.9763,53.4312,143.1494],[28.9763,53.4339,146.0585],[28.981,53.4366,140.3578],[28.9903,53.4392,142.319],[28.9903,53.4419,142.0653],[28.9767,53.4502,140.6172],[28.9629,53.4531,141.5556],[28.9538,53.4586,140.8181],[28.9539,53.4614,141.44],[28.9632,53.4667,142.3024],[28.9632,53.4695,144.1238],[28.9541,53.475,140.9751],[28.9543,53.4832,147.1066],[28.959,53.4886,143.4581],[28.9729,53.4912,143.2276],[28.973,53.4966,146.314],[28.9593,53.5022,144.704],[28.9595,53.5131,142.4239],[28.9689,53.5239,141.8454],[28.9644,53.5267,142.3992],[28.9459,53.5269,149.8828],[28.9368,53.5297,161.9509],[28.9229,53.5298,153.9119],[28.9049,53.5545,174.0184],[28.8958,53.5601,178.9233],[28.8913,53.5656,174.431],[28.873,53.5766,173.6811],[28.8545,53.5768,180.288]]]]}
,"properties": {"GID_2": "BLR.4.1_1","GID_0": "BLR","country": "Belarus","GID_1": "BLR.4_1","province": "Mogilev","NL_NAME_1": "Магілёўская","county": "Asipovichy","VARNAME_2": "Osipovichi","NL_NAME_2": "Асіповіцкіраён","TYPE_2": "Raion","ENGTYPE_2": "District","CC_2": "NA","HASC_2": "BY.MA.OS","name": "Asipovichy.county","area_km2": 1941.075,"hist_schema_id": "Elevation0-9000","hist_area_km2": {"125": 0.228,"150": 842.112,"175": 1061.564,"200": 37.171}}}