{"type":"Feature","properties":{"GID_2":"BLR.6.15_1","GID_0":"BLR","country":"Belarus","GID_1":"BLR.6_1","province":"Vitebsk","NL_NAME_1":"Вiцебская","county":"Sharkawshchyna","VARNAME_2":"Sharkovshchina","NL_NAME_2":"Шаркаўшчы́нскіраён","TYPE_2":"Raion","ENGTYPE_2":"District","CC_2":"NA","HASC_2":"BY.VI.SA","name":"Sharkawshchyna.county"},
"geometry":{"type": "MultiPolygon","coordinates": [[[[27.072,55.2902,129.6006],[27.1004,55.2903,131.7695],[27.1144,55.2958,130.1254],[27.1334,55.2958,133.3161],[27.1522,55.3013,130.6635],[27.1901,55.3068,129.8592],[27.1997,55.3041,130.2256],[27.2139,55.3069,136.5016],[27.271,55.307,121.2522],[27.2759,55.3043,122.5595],[27.2712,55.3015,125.4473],[27.2761,55.2988,126.2428],[27.2952,55.2988,126.4865],[27.3048,55.2961,126.055],[27.3098,55.2907,126.2886],[27.3098,55.2879,129.0661],[27.3005,55.2825,123.5944],[27.2958,55.277,130.0715],[27.3008,55.2716,131.5128],[27.3103,55.2716,141.6999],[27.3337,55.288,133.7816],[27.3432,55.2907,130.7964],[27.3528,55.2907,131.0038],[27.3625,55.2853,131.9333],[27.3626,55.2826,132.3429],[27.3438,55.2716,132.0],[27.3439,55.2689,143.5716],[27.3677,55.2717,148.2532],[27.3726,55.2689,149.7152],[27.3822,55.269,145.8542],[27.3824,55.2608,148.2373],[27.3873,55.2581,154.4869],[27.4017,55.2554,154.4488],[27.4113,55.2554,146.6914],[27.4208,55.2609,153.1523],[27.4304,55.2609,147.5178],[27.4352,55.2582,144.1025],[27.4353,55.2554,139.5786],[27.4259,55.25,142.4796],[27.4308,55.2445,145.407],[27.4262,55.239,156.8974],[27.4167,55.2336,137.4271],[27.4024,55.2308,141.7413],[27.4265,55.2254,130.5],[27.455,55.2364,137.1434],[27.4549,55.2418,143.1758],[27.4451,55.2473,148.2678],[27.4498,55.2527,155.7057],[27.4496,55.2582,147.047],[27.4589,55.2691,137.4159],[27.4684,55.2746,136.7058],[27.478,55.2746,139.1257],[27.4924,55.2719,136.3136],[27.4972,55.2747,135.7232],[27.497,55.2802,136.7533],[27.5065,55.2856,135.5653],[27.516,55.2884,134.1893],[27.5252,55.3021,154.792],[27.5203,55.3048,152.7177],[27.5202,55.3075,142.4801],[27.5058,55.3075,145.2964],[27.5008,55.3129,144.6307],[27.5007,55.3184,149.0876],[27.5054,55.3211,131.5068],[27.5198,55.3212,135.4712],[27.5293,55.3266,133.8886],[27.5242,55.3348,130.7933],[27.5289,55.3376,131.7204],[27.5433,55.3403,133.0424],[27.5626,55.3404,134.806],[27.5723,55.3377,134.8107],[27.5726,55.3268,135.8325],[27.5775,55.324,135.3904],[27.5968,55.3241,135.2253],[27.6015,55.3268,134.8818],[27.6012,55.3378,132.5279],[27.6059,55.3405,132.3306],[27.6204,55.3405,132.8375],[27.635,55.3351,134.3558],[27.6398,55.3351,135.2065],[27.659,55.3406,136.5175],[27.6734,55.3406,149.7908],[27.688,55.3379,130.7659],[27.6927,55.3407,135.3347],[27.7119,55.3434,133.5238],[27.7308,55.3599,126.8482],[27.7452,55.3626,130.9157],[27.7598,55.3599,135.9167],[27.7599,55.3544,135.8906],[27.7504,55.3489,135.0899],[27.7458,55.3407,136.6837],[27.746,55.3325,149.6023],[27.7558,55.3271,155.4939],[27.7607,55.3216,144.3105],[27.7608,55.3161,146.2216],[27.7562,55.3079,146.9325],[27.7611,55.3052,150.5078],[27.7706,55.3079,148.3748],[27.7755,55.3052,150.8144],[27.7803,55.3052,149.999],[27.7756,55.2997,152.5249],[27.7709,55.297,154.1603],[27.7709,55.2943,155.5432],[27.7854,55.2915,161.4192],[27.7901,55.297,159.2422],[27.7998,55.2943,167.3828],[27.8,55.2833,167.6695],[27.8097,55.2806,163.6507],[27.8289,55.2806,163.1834],[27.8481,55.2888,164.0197],[27.8479,55.2998,163.7785],[27.8575,55.3025,165.3495],[27.8767,55.3025,166.2167],[27.8816,55.2998,164.3727],[27.8816,55.2971,163.2505],[27.8722,55.2861,163.4366],[27.8723,55.2752,162.3204],[27.8868,55.2697,164.377],[27.8916,55.2724,163.2965],[27.9157,55.2724,151.613],[27.9204,55.2752,151.3696],[27.9155,55.2834,155.5222],[27.9202,55.2943,162.6984],[27.9201,55.2998,151.9008],[27.9153,55.3026,149.467],[27.9152,55.308,151.1519],[27.9102,55.3162,158.6627],[27.9102,55.319,152.8015],[27.9195,55.3382,161.5716],[27.9388,55.3382,167.0298],[27.9437,55.3354,172.7797],[27.9485,55.3327,173.6361],[27.9486,55.3299,167.7655],[27.9535,55.3245,171.2937],[27.9536,55.319,166.7615],[27.9584,55.319,166.6028],[27.9632,55.3217,168.9073],[27.9679,55.3272,168.4798],[27.9678,55.3327,177.2334],[27.9726,55.3354,175.3129],[28.0112,55.3354,176.9162],[28.0209,55.3327,171.3467],[28.0209,55.33,172.0338],[28.0258,55.3245,164.2845],[28.0403,55.319,171.4751],[28.0403,55.3217,173.3899],[28.0499,55.3245,168.1801],[28.0643,55.3245,166.2066],[28.0644,55.3217,165.0854],[28.0691,55.3245,163.4882],[28.0739,55.3327,143.6643],[28.0835,55.3382,153.2818],[28.0834,55.3437,137.8948],[28.093,55.3464,147.4804],[28.0834,55.3491,151.5913],[28.0688,55.3601,160.94],[28.0639,55.3601,163.2782],[28.0495,55.3546,164.9241],[28.0447,55.3546,165.5904],[28.0398,55.3574,165.7413],[28.0398,55.3601,164.9093],[28.0446,55.3656,153.9118],[28.0542,55.3656,154.3737],[28.059,55.3683,152.9398],[28.0589,55.3738,147.4013],[28.0491,55.3848,141.4425],[28.0443,55.3875,144.4825],[28.0298,55.3875,147.0562],[28.02,55.3902,151.2484],[28.02,55.393,148.2358],[28.0247,55.3985,145.1598],[28.015,55.4039,138.4621],[28.0197,55.4094,143.8086],[28.0147,55.4204,136.8093],[28.0143,55.4423,136.0565],[28.0478,55.4615,140.3343],[28.0526,55.467,139.2519],[28.0428,55.4697,137.3869],[28.0137,55.4697,134.5763],[27.9943,55.4669,136.9736],[27.9848,55.4614,133.4336],[27.9849,55.456,134.1254],[27.9898,55.4532,134.1147],[28.0093,55.4478,135.9188],[28.0045,55.445,140.3557],[27.9512,55.445,149.7404],[27.9416,55.4422,154.1067],[27.9317,55.4477,132.9283],[27.9462,55.4504,133.1843],[27.9462,55.4532,133.371],[27.9509,55.4559,133.0138],[27.9556,55.4641,124.2186],[27.9701,55.4642,132.737],[27.9797,55.4697,120.3008],[27.9747,55.4779,132.4114],[27.9745,55.4833,133.5811],[27.9647,55.4861,133.2669],[27.955,55.486,133.3324],[27.9262,55.475,133.5688],[27.9261,55.4778,134.0302],[27.9015,55.4887,133.8758],[27.8917,55.4887,135.1036],[27.8676,55.4831,139.2998],[27.8336,55.4831,139.2964],[27.8193,55.4748,135.0352],[27.8144,55.4748,134.8669],[27.8142,55.4803,135.473],[27.8237,55.4885,138.3681],[27.8139,55.4885,138.6882],[27.7898,55.483,141.2816],[27.7756,55.4748,140.6589],[27.7659,55.472,139.8302],[27.7465,55.472,137.985],[27.7418,55.4692,138.2614],[27.7321,55.4692,137.1271],[27.7271,55.4719,137.7304],[27.7222,55.4719,153.0462],[27.7219,55.4801,148.3104],[27.7264,55.4883,141.8224],[27.7214,55.491,152.736],[27.7166,55.491,139.828],[27.7118,55.4883,161.5352],[27.6974,55.4855,155.5366],[27.6832,55.4773,157.6773],[27.6686,55.4773,141.824],[27.6591,55.4745,149.3166],[27.6592,55.4718,154.1455],[27.6546,55.4663,157.544],[27.6497,55.4663,152.6788],[27.6402,55.4608,144.7363],[27.6407,55.4499,139.1308],[27.6359,55.4498,141.4447],[27.6211,55.4553,153.2646],[27.6164,55.4525,156.8835],[27.6115,55.4525,146.5035],[27.6065,55.458,137.1357],[27.6015,55.4607,140.4225],[27.5822,55.4607,139.7476],[27.5675,55.4634,141.6274],[27.5579,55.4633,143.2816],[27.5481,55.466,150.9367],[27.5381,55.4715,150.1449],[27.538,55.4742,155.4291],[27.5328,55.4824,151.3087],[27.5228,55.4879,153.5919],[27.4987,55.4878,147.5349],[27.4843,55.485,152.7962],[27.4797,55.4823,150.3551],[27.4604,55.4822,149.3272],[27.4599,55.4904,147.5883],[27.4502,55.4932,150.1857],[27.4405,55.4931,151.8071],[27.4355,55.4959,157.4147],[27.4301,55.5068,162.097],[27.4253,55.5068,160.0577],[27.4105,55.5123,159.0974],[27.4056,55.515,165.0821],[27.4054,55.5178,168.8094],[27.4003,55.5233,159.3081],[27.3953,55.526,154.1243],[27.3905,55.526,148.6413],[27.3908,55.5205,155.7734],[27.3815,55.515,156.0576],[27.3623,55.515,160.8464],[27.3529,55.5123,154.875],[27.3483,55.5095,150.1105],[27.344,55.5013,152.9854],[27.3255,55.4903,141.1273],[27.321,55.4848,141.6945],[27.3261,55.4793,139.3571],[27.331,55.4766,136.7825],[27.3169,55.4711,134.5138],[27.3171,55.4683,135.3067],[27.3269,55.4629,136.1335],[27.3271,55.4601,137.0837],[27.3224,55.4574,138.2705],[27.313,55.4546,132.8536],[27.2987,55.4546,136.176],[27.2892,55.4518,138.1262],[27.2797,55.4518,136.6617],[27.2704,55.4463,133.4517],[27.2707,55.4409,133.1932],[27.266,55.4381,134.3448],[27.2516,55.4408,135.0284],[27.2467,55.4436,134.0021],[27.2458,55.4628,139.6976],[27.2502,55.4683,140.4356],[27.2498,55.4765,139.7236],[27.2014,55.4876,142.6076],[27.1918,55.4876,144.0395],[27.1924,55.4793,143.349],[27.1973,55.4765,139.3271],[27.1977,55.471,138.4652],[27.1932,55.4655,137.6783],[27.1886,55.4627,136.8035],[27.1604,55.4572,149.3783],[27.1558,55.4544,150.3611],[27.1513,55.4489,149.8232],[27.1375,55.4407,141.7534],[27.1199,55.4132,150.6397],[27.1153,55.4104,150.6795],[27.0866,55.4159,160.4393],[27.082,55.4131,157.7721],[27.0829,55.3939,145.4262],[27.0784,55.3884,150.7931],[27.05,55.3883,152.9786],[27.0497,55.3966,144.8389],[27.0402,55.3966,144.9029],[27.0403,55.3938,143.9986],[27.0264,55.3883,147.4821],[27.0266,55.3855,141.0826],[27.0361,55.3828,155.2525],[27.041,55.3773,136.2432],[27.0318,55.3718,132.0995],[27.032,55.3664,132.2391],[27.0464,55.3582,143.6978],[27.0466,55.3528,149.7964],[27.0325,55.3527,141.9729],[27.0279,55.3473,153.906],[27.0235,55.3391,133.7725],[27.0241,55.3173,150.1848],[27.0339,55.301,152.9286],[27.034,55.2982,148.9599],[27.0483,55.2928,129.4095],[27.0577,55.2956,130.8193],[27.0671,55.2956,128.6493],[27.072,55.2902,129.6006]]]]}}