{"type":"Feature","properties":{"GID_2":"BLR.4.5_1","GID_0":"BLR","country":"Belarus","GID_1":"BLR.4_1","province":"Mogilev","NL_NAME_1":"Магілёўская","county":"Chavusy","VARNAME_2":"Chausu","NL_NAME_2":"Чавускіраён","TYPE_2":"Raion","ENGTYPE_2":"District","CC_2":"NA","HASC_2":"BY.MA.CS","name":"Chavusy.county"},
"geometry":{"type": "MultiPolygon","coordinates": [[[[30.6874,53.5582,182.1938],[30.6963,53.5552,180.2884],[30.7421,53.5673,164.62],[30.7653,53.5801,172.7892],[30.7696,53.5773,176.9107],[30.7739,53.5717,184.1075],[30.7913,53.5603,176.8701],[30.8048,53.5599,183.5106],[30.8187,53.5675,165.7283],[30.8194,53.5811,158.519],[30.8333,53.5887,170.4759],[30.8381,53.594,171.0935],[30.8384,53.5994,151.8739],[30.8342,53.605,146.1391],[30.8345,53.6104,143.1846],[30.8301,53.6132,148.3569],[30.8304,53.6187,156.2369],[30.8353,53.6266,147.0925],[30.8401,53.6319,150.5149],[30.8539,53.6369,173.4333],[30.8629,53.6367,149.7825],[30.8759,53.6254,152.8892],[30.9113,53.6134,150.8894],[30.9244,53.6048,135.8264],[30.9289,53.6047,135.5625],[30.9382,53.6099,160.5617],[30.9431,53.6152,171.9722],[30.9715,53.6311,156.2084],[30.9718,53.6366,160.0983],[30.9631,53.6422,167.3798],[30.9635,53.6477,163.3524],[30.9684,53.6531,174.4981],[30.9775,53.6529,169.4659],[31.004,53.6414,163.7785],[31.0494,53.6405,170.5261],[31.0541,53.6431,173.526],[31.0543,53.6459,177.6613],[31.0458,53.6543,156.7334],[31.0427,53.6736,145.198],[31.0474,53.6763,147.8097],[31.0792,53.6757,190.8357],[31.0924,53.6699,171.0111],[31.1015,53.6697,171.4657],[31.1112,53.6778,184.7804],[31.1432,53.6773,196.6382],[31.1573,53.6826,182.4188],[31.1575,53.6854,193.6591],[31.1531,53.6882,177.7937],[31.1534,53.691,182.9486],[31.168,53.7018,193.9453],[31.1715,53.7487,204.6847],[31.1862,53.7596,189.5318],[31.1872,53.7734,202.1107],[31.197,53.7789,193.1459],[31.211,53.7789,184.4336],[31.23,53.7817,183.0688],[31.2394,53.7818,179.3298],[31.2439,53.779,185.2377],[31.2437,53.7762,179.4925],[31.2532,53.7764,184.1368],[31.2582,53.7792,183.742],[31.269,53.7933,183.4382],[31.2693,53.7961,192.1131],[31.2748,53.8045,183.3518],[31.2851,53.813,175.6665],[31.3049,53.8188,178.5314],[31.3059,53.8299,187.4067],[31.3122,53.8467,191.5369],[31.3129,53.8551,192.5847],[31.3047,53.8717,204.7497],[31.3004,53.8772,209.8106],[31.2912,53.8827,201.7137],[31.2915,53.8855,201.1855],[31.3069,53.8968,187.2836],[31.3079,53.9079,189.1316],[31.2794,53.9132,208.0382],[31.25,53.9071,174.1996],[31.2356,53.9068,174.3607],[31.2225,53.9205,186.8606],[31.2325,53.9263,190.1733],[31.238,53.9348,207.31],[31.2385,53.9404,206.0823],[31.2342,53.9458,195.7551],[31.2148,53.9426,197.7943],[31.215,53.9454,197.8772],[31.2107,53.9509,200.4178],[31.1913,53.945,170.7844],[31.1868,53.9478,177.5784],[31.1782,53.9588,164.4597],[31.1688,53.9587,165.0747],[31.164,53.9559,155.2948],[31.168,53.9476,155.5408],[31.1673,53.9393,154.6577],[31.1529,53.9338,153.1473],[31.1434,53.9311,158.1032],[31.1297,53.9339,171.844],[31.1157,53.9312,184.3991],[31.1065,53.9313,178.8852],[31.1023,53.9369,149.5892],[31.0893,53.948,149.7955],[31.0912,53.9756,177.3168],[31.0872,53.9839,158.6341],[31.0788,53.995,151.7309],[31.0796,54.006,170.276],[31.0755,54.0143,164.4604],[31.0623,54.0227,152.9435],[31.0531,54.0228,153.2752],[31.0344,54.0175,184.7766],[31.0247,54.0094,214.1273],[31.0244,54.0039,207.6367],[31.0287,54.0011,199.126],[31.032,53.9818,175.1981],[31.0225,53.9765,186.8625],[30.9862,53.9826,201.768],[30.9768,53.98,192.179],[30.9764,53.9745,195.2701],[30.9717,53.9718,212.3346],[30.9625,53.972,209.0489],[30.9582,53.9776,205.6808],[30.945,53.986,190.8087],[30.9406,53.9889,203.1057],[30.936,53.9889,188.5811],[30.931,53.9835,188.9925],[30.9303,53.9726,210.9199],[30.9254,53.9672,204.2094],[30.9206,53.9645,190.6577],[30.9117,53.9702,212.2605],[30.9075,53.9757,213.2216],[30.8942,53.9842,193.183],[30.8951,53.9979,194.7946],[30.8859,53.9981,209.1162],[30.8716,53.9901,212.8658],[30.8671,53.993,193.6369],[30.8678,54.0039,216.0964],[30.8634,54.0068,208.7756],[30.8588,54.0069,192.1999],[30.8538,54.0015,196.1716],[30.8345,53.9881,188.2642],[30.8253,53.9883,183.5559],[30.8166,53.9967,164.9983],[30.8083,54.0106,158.715],[30.7949,54.0191,176.541],[30.7852,54.0111,195.1458],[30.7711,54.0059,181.913],[30.7574,54.0089,202.4508],[30.7472,53.9927,185.4256],[30.7469,53.9872,179.9115],[30.7511,53.9816,181.9612],[30.8146,53.9638,189.5018],[30.8231,53.9527,187.926],[30.8272,53.9444,188.2779],[30.8221,53.9363,182.3215],[30.8033,53.9312,201.6656],[30.757,53.9266,182.2356],[30.7477,53.9241,166.887],[30.7426,53.916,170.8687],[30.7467,53.9077,179.7272],[30.7371,53.9024,172.4546],[30.714,53.9001,176.2298],[30.7086,53.8865,173.5094],[30.6993,53.884,177.7569],[30.681,53.8844,192.5986],[30.6811,53.8872,185.6316],[30.6862,53.8953,184.8216],[30.6865,53.9007,184.3226],[30.682,53.9036,193.6637],[30.6591,53.9041,183.5036],[30.6501,53.9071,175.685],[30.6135,53.908,171.3527],[30.6087,53.9026,172.5885],[30.6084,53.8972,170.8759],[30.6261,53.8858,188.093],[30.626,53.8831,168.2223],[30.6033,53.8864,171.0564],[30.5893,53.8813,174.5917],[30.5982,53.8756,174.4305],[30.5979,53.8702,172.3716],[30.5931,53.8649,162.0011],[30.5928,53.8594,167.0603],[30.6108,53.8535,188.0762],[30.6376,53.8419,158.6589],[30.6736,53.8328,161.9678],[30.6824,53.8271,168.2697],[30.6776,53.8218,168.5503],[30.6682,53.8166,175.94],[30.6636,53.8167,184.1388],[30.6548,53.8224,191.9234],[30.6413,53.8255,171.5198],[30.6366,53.8229,161.8513],[30.6316,53.8148,162.545],[30.6315,53.8121,162.9185],[30.6357,53.8039,166.1464],[30.6394,53.7874,176.2732],[30.6438,53.7846,172.9433],[30.6434,53.7764,170.7265],[30.6386,53.7711,175.1302],[30.6201,53.7635,165.9157],[30.6063,53.7612,164.3702],[30.5745,53.7621,186.2261],[30.5653,53.7596,172.6974],[30.5605,53.7543,173.4579],[30.5599,53.7407,193.0161],[30.5553,53.7409,190.2135],[30.5593,53.7272,171.2866],[30.559,53.7218,167.6498],[30.5634,53.719,166.9755],[30.5859,53.7129,164.4104],[30.5809,53.7022,163.785],[30.58,53.6833,173.983],[30.5844,53.6804,189.129],[30.6073,53.6852,168.2768],[30.6662,53.6835,157.0314],[30.6751,53.6805,160.2014],[30.675,53.6778,163.0859],[30.6561,53.6621,184.9395],[30.6557,53.654,157.3472],[30.6735,53.6453,152.0152],[30.6732,53.6399,154.9114],[30.6589,53.6241,153.0667],[30.6586,53.6187,148.1344],[30.6855,53.6124,151.5537],[30.6943,53.6067,171.8761],[30.6927,53.5743,177.1823],[30.6878,53.5663,181.9986],[30.6874,53.5582,182.1938]]]]}}