{"type":"Feature","properties":{"GID_2":"BLR.5.4_1","GID_0":"BLR","country":"Belarus","GID_1":"BLR.5_1","province":"Minsk","NL_NAME_1":"Мінская","county":"Dzyarzhynsk","VARNAME_2":"Dzerzhinsk","NL_NAME_2":"Дзяржынскіраён","TYPE_2":"Raion","ENGTYPE_2":"District","CC_2":"NA","HASC_2":"BY.MI.DZ","name":"Dzyarzhynsk.county"},
"geometry":{"type": "MultiPolygon","coordinates": [[[[26.8862,53.8591,242.3264],[26.8956,53.8537,251.517],[26.8959,53.8401,291.0066],[26.9146,53.832,330.8618],[26.9239,53.8321,303.6199],[26.9379,53.8267,308.0766],[26.938,53.8212,304.4045],[26.9289,53.813,323.2617],[26.9292,53.7967,296.6199],[26.9201,53.7912,280.3076],[26.9203,53.7831,289.4625],[26.9157,53.7803,293.5932],[26.9112,53.7749,291.1566],[26.8974,53.7694,272.2834],[26.893,53.7558,247.416],[26.8885,53.753,245.3551],[26.8886,53.7476,229.8116],[26.8841,53.7421,235.4913],[26.8704,53.7339,211.4961],[26.8751,53.7285,229.6232],[26.8939,53.715,221.3833],[26.903199999999998,53.7123,226.0292],[26.9126,53.7069,198.0876],[26.9126,53.7042,209.3311],[26.8944,53.6905,200.1926],[26.8852,53.6877,194.1704],[26.8854,53.6796,200.271],[26.8946,53.6796,213.5728],[26.8948,53.6742,221.8902],[26.8902,53.6687,223.7644],[26.8903,53.666,218.4676],[26.895,53.6606,200.561],[26.8952,53.6524,208.2598],[26.9045,53.647,195.4924],[26.9093,53.6416,189.0558],[26.9095,53.628,200.4041],[26.9144,53.6171,219.4655],[26.9098,53.6144,209.8393],[26.9056,53.5953,205.1575],[26.8964,53.5926,197.4222],[26.8966,53.5844,188.883],[26.9059,53.579,183.2745],[26.9289,53.5791,202.8834],[26.9291,53.571,198.4827],[26.934,53.5574,197.3706],[26.948,53.5438,201.5963],[26.9527,53.5411,204.5649],[26.9618,53.5493,197.9609],[26.9617,53.552,204.1276],[26.9709,53.5548,206.9177],[26.9755,53.5548,206.2644],[26.9802,53.5521,202.7922],[26.9803,53.544,177.079],[26.9712,53.5385,194.5663],[26.9852,53.5304,181.0684],[26.9898,53.5304,183.0056],[26.9896,53.5385,174.0716],[26.9942,53.5386,173.0745],[26.9895,53.5467,182.7764],[26.994,53.5494,201.3628],[26.9987,53.5494,206.941],[27.0034,53.544,183.6938],[27.0036,53.5331,197.9283],[27.0174,53.5332,184.9699],[27.0264,53.5441,172.0639],[27.0264,53.5468,172.0703],[27.031,53.5468,173.2125],[27.0449,53.5414,170.0925],[27.0542,53.536,168.7874],[27.0543,53.5333,169.2347],[27.0363,53.5061,194.5786],[27.0502,53.5007,178.518],[27.0779,53.5007,167.8017],[27.087,53.5062,166.9836],[27.0869,53.5116,170.8252],[27.073,53.5197,168.3507],[27.0729,53.5252,167.9108],[27.0682,53.5306,173.017],[27.0681,53.5333,176.3527],[27.0727,53.536,176.7592],[27.0819,53.5361,186.0674],[27.0913,53.5252,179.1025],[27.096,53.5225,181.1946],[27.1098,53.5225,178.7942],[27.1236,53.5307,181.1234],[27.1235,53.5334,181.4081],[27.1096,53.5361,186.3286],[27.105,53.5388,185.0471],[27.1095,53.5415,187.9436],[27.1234,53.5388,185.5552],[27.128,53.5416,183.7611],[27.1234,53.5416,186.0161],[27.1187,53.5497,180.2432],[27.1233,53.5497,180.9707],[27.1511,53.5416,181.6745],[27.1604,53.5416,181.8791],[27.1696,53.5416,177.0638],[27.1972,53.5498,172.144],[27.2065,53.5498,182.2707],[27.2158,53.5444,183.6189],[27.2158,53.5389,203.0092],[27.1974,53.5335,203.1799],[27.1975,53.5308,190.7841],[27.2161,53.5172,196.0269],[27.2299,53.5226,197.5519],[27.2438,53.5254,196.2407],[27.2715,53.5254,175.9326],[27.2899,53.5308,184.6145],[27.2852,53.5417,174.0687],[27.2897,53.5525,192.4477],[27.2989,53.558,177.4973],[27.3035,53.558,192.9336],[27.3036,53.5498,198.4775],[27.2991,53.5417,172.6676],[27.2992,53.5335,169.1411],[27.3038,53.5308,168.9935],[27.3223,53.5308,171.1787],[27.3592,53.5417,171.6994],[27.373,53.5498,196.4368],[27.3914,53.5661,192.0206],[27.4144,53.5769,205.3292],[27.4144,53.5824,187.4369],[27.4189,53.5905,203.9463],[27.4097,53.5905,207.6982],[27.4051,53.5878,206.7825],[27.4004,53.5878,204.9118],[27.4004,53.596,186.2084],[27.3957,53.6014,183.7414],[27.3956,53.6041,185.0198],[27.4002,53.6096,186.4995],[27.4094,53.615,186.5925],[27.414,53.6204,189.3686],[27.428,53.6177,192.5988],[27.4326,53.6177,193.6727],[27.4372,53.6204,199.1957],[27.4372,53.6231,198.7046],[27.4232,53.6313,198.1303],[27.4231,53.6395,193.6334],[27.4138,53.6476,191.0954],[27.4137,53.6531,192.9252],[27.4415,53.6612,196.2187],[27.4693,53.6612,206.0775],[27.4786,53.6584,197.1434],[27.4785,53.6775,198.6035],[27.4738,53.6802,201.3239],[27.4737,53.6911,201.6261],[27.469,53.6965,206.7047],[27.4551,53.6965,209.8289],[27.4457,53.702,211.0778],[27.4457,53.7074,205.1414],[27.441,53.7102,203.1424],[27.4178,53.7075,202.536],[27.4131,53.7102,203.5384],[27.4131,53.7129,211.3216],[27.3991,53.7211,220.5596],[27.3991,53.7238,225.1091],[27.4037,53.7265,226.5891],[27.4222,53.7346,216.7137],[27.4221,53.7401,210.7748],[27.4127,53.751,221.3441],[27.4127,53.7537,221.2609],[27.4219,53.7591,211.8242],[27.4219,53.7618,218.497],[27.4078,53.7727,231.0095],[27.3566,53.7837,231.0572],[27.3565,53.7918,225.1518],[27.375,53.7945,248.0328],[27.3843,53.8,235.6422],[27.3843,53.8027,236.4509],[27.3796,53.8054,239.0903],[27.3609,53.8081,243.6177],[27.3517,53.8054,241.1149],[27.3471,53.8,245.1642],[27.3471,53.7945,242.3904],[27.3192,53.7945,249.9799],[27.3146,53.7973,251.5125],[27.3237,53.8082,266.1919],[27.3237,53.8136,259.1275],[27.3097,53.8136,271.2151],[27.2911,53.8109,267.1474],[27.2817,53.8218,272.2126],[27.2816,53.8299,281.8196],[27.2769,53.8326,292.4758],[27.2629,53.8326,296.3718],[27.2583,53.8353,296.7189],[27.2582,53.8381,301.7804],[27.2674,53.849,289.7129],[27.2673,53.8517,287.4905],[27.2627,53.8544,291.1254],[27.2346,53.8625,287.0383],[27.2207,53.8625,276.8047],[27.202,53.868,274.7686],[27.1973,53.8707,269.1287],[27.188,53.8707,276.7587],[27.1742,53.8598,278.5321],[27.1649,53.8598,270.3831],[27.1601,53.8652,265.4331],[27.1601,53.8706,273.7282],[27.1507,53.8734,269.6362],[27.1368,53.8706,278.9077],[27.1276,53.8624,284.9344],[27.1184,53.8597,294.0754],[27.0811,53.8651,324.9527],[27.0717,53.8705,326.9173],[27.067,53.8759,312.0526],[27.0668,53.8868,308.0459],[27.0713,53.895,304.1782],[27.0666,53.8977,281.3509],[27.0526,53.8977,308.1891],[27.0109,53.8894,300.2841],[27.0109,53.8922,311.3328],[27.02,53.9003,316.635],[27.0199,53.9085,298.2062],[27.0244,53.9167,285.6885],[27.0243,53.9221,274.958],[27.015,53.9221,258.744],[26.9965,53.9166,293.1895],[26.9872,53.9166,301.5031],[26.9824,53.922,283.5921],[26.9822,53.9302,286.9124],[26.9776,53.9302,274.9067],[26.973,53.9274,275.6611],[26.9732,53.9165,293.7846],[26.9595,53.9056,315.9583],[26.9457,53.9001,308.9239],[26.9457,53.8974,305.8807],[26.9365,53.8947,296.5461],[26.9317,53.9001,299.1628],[26.9131,53.9028,301.6024],[26.8993,53.8946,302.9266],[26.8994,53.8891,311.9629],[26.9088,53.8837,292.444],[26.9089,53.881,290.7723],[26.9043,53.8782,290.0087],[26.8862,53.8591,242.3264]]]]}}