{"type": "Feature","bbox": [29.7585,53.2206,30.7308,53.7058],"geometry": {"type": "MultiPolygon","coordinates": [[[[30.5786,53.3176,157.5944],[30.5747,53.3286,163.3924],[30.5665,53.3425,152.4145],[30.5682,53.3726,151.1053],[30.578,53.386,147.4246],[30.5786,53.397,154.1172],[30.5575,53.4248,168.5629],[30.5622,53.4274,170.2757],[30.571,53.4217,163.2675],[30.5846,53.4215,152.2484],[30.598,53.4184,152.7536],[30.6299,53.4205,163.941],[30.643,53.412,157.9957],[30.6568,53.4144,152.6869],[30.6615,53.417,151.0324],[30.6616,53.4198,151.5389],[30.6574,53.4253,153.3002],[30.6668,53.4306,154.3972],[30.676,53.4331,159.509],[30.6763,53.4385,161.7013],[30.6721,53.4441,161.0808],[30.6769,53.4494,156.2621],[30.691,53.4573,171.8242],[30.6915,53.4655,180.1988],[30.6736,53.4714,160.9589],[30.6606,53.4826,161.5466],[30.6652,53.4825,181.8608],[30.7305,53.5162,158.0229],[30.7308,53.5216,176.598],[30.7178,53.5329,171.8643],[30.7137,53.5411,175.8052],[30.7048,53.5441,181.6601],[30.6867,53.5446,157.1405],[30.6824,53.5501,158.9741],[30.6826,53.5529,173.8127],[30.6874,53.5582,182.1938],[30.6878,53.5663,181.9986],[30.6927,53.5743,177.1823],[30.6943,53.6067,171.8761],[30.6855,53.6124,151.5537],[30.6586,53.6187,148.1344],[30.6589,53.6241,153.0667],[30.6732,53.6399,154.9114],[30.6735,53.6453,152.0152],[30.6557,53.654,157.3472],[30.6561,53.6621,184.9395],[30.6471,53.6624,187.4043],[30.6379,53.6599,159.4416],[30.6331,53.6546,164.7519],[30.6326,53.6438,162.553],[30.619,53.6442,165.335],[30.6101,53.6472,161.7746],[30.592,53.6477,154.0286],[30.5737,53.6454,163.2287],[30.569,53.6428,166.3951],[30.5686,53.6347,164.1595],[30.5595,53.6349,165.1778],[30.5506,53.6378,160.8503],[30.5336,53.6627,165.7067],[30.5291,53.6655,188.0334],[30.4887,53.6774,160.5083],[30.4795,53.6776,160.6824],[30.4749,53.675,157.5737],[30.47,53.6696,152.0801],[30.4698,53.6642,151.6786],[30.46,53.6507,160.9395],[30.4644,53.6479,173.8409],[30.455,53.6427,159.161],[30.4322,53.6431,155.5045],[30.4318,53.635,160.5161],[30.427,53.6296,157.0706],[30.3811,53.6278,144.6887],[30.3537,53.6283,144.9697],[30.3452,53.6421,160.149],[30.3453,53.6448,143.4577],[30.3407,53.6449,145.8986],[30.3313,53.6396,140.7841],[30.3127,53.6345,142.1227],[30.3036,53.6347,140.7652],[30.2949,53.6457,141.5582],[30.2905,53.6486,139.858],[30.2996,53.6484,141.2201],[30.3087,53.6455,140.2697],[30.3134,53.6481,140.2456],[30.3092,53.6564,141.0185],[30.314,53.6618,140.1595],[30.3141,53.6645,140.5606],[30.3098,53.67,141.7619],[30.3054,53.6729,140.6041],[30.2962,53.673,142.1098],[30.2869,53.6705,141.3104],[30.2686,53.6708,144.7205],[30.2591,53.6655,155.0169],[30.2454,53.6657,154.8369],[30.2457,53.6739,154.4182],[30.2506,53.6793,153.0598],[30.2507,53.682,155.5338],[30.2462,53.6848,154.5536],[30.2416,53.6849,152.4055],[30.2229,53.677,151.2174],[30.218,53.6689,162.9235],[30.204,53.6637,165.0777],[30.1995,53.6665,161.0506],[30.1949,53.6666,142.7186],[30.1951,53.6721,161.7191],[30.1861,53.6749,162.4702],[30.1768,53.6724,142.2574],[30.1538,53.6727,161.5882],[30.1221,53.6842,162.9771],[30.1175,53.6842,161.5085],[30.1172,53.6761,163.4337],[30.1074,53.6626,180.0648],[30.066,53.6632,166.1856],[30.052,53.658,149.5374],[30.0474,53.658,149.894],[30.034,53.6692,158.806],[29.9799,53.6973,183.2968],[29.9618,53.7057,173.4647],[29.9572,53.7058,177.5386],[29.9479,53.7032,172.4217],[29.9243,53.6899,171.222],[29.8963,53.6794,165.3947],[29.887,53.6795,159.6411],[29.8825,53.6823,158.278],[29.8827,53.685,159.3049],[29.8874,53.6877,162.8689],[29.883,53.6932,164.8502],[29.8784,53.6933,162.3728],[29.8642,53.6853,178.0039],[29.8457,53.6828,170.0533],[29.841,53.6802,168.672],[29.8407,53.672,167.1233],[29.8359,53.6666,173.2794],[29.8312,53.6666,153.5173],[29.8265,53.664,148.0729],[29.8217,53.6586,145.1595],[29.8307,53.653,170.579],[29.8306,53.6502,157.7616],[29.8212,53.6449,166.8298],[29.821,53.6395,145.0121],[29.8343,53.6256,173.2732],[29.8296,53.6229,167.81],[29.8247,53.6148,144.9255],[29.8242,53.6012,149.6227],[29.8333,53.5983,154.6225],[29.8423,53.5927,167.3662],[29.8421,53.5873,163.8766],[29.8327,53.5819,149.1284],[29.8372,53.5791,151.4384],[29.8416,53.5736,156.3972],[29.8414,53.5681,160.8875],[29.8367,53.5655,158.1244],[29.8275,53.5656,148.0385],[29.8278,53.5738,143.5353],[29.8187,53.5767,150.14],[29.8003,53.5769,173.5837],[29.7958,53.5797,175.8255],[29.7959,53.5824,182.2132],[29.7869,53.588,182.9395],[29.7639,53.5883,176.7998],[29.7591,53.5829,178.0953],[29.7585,53.5666,182.3408],[29.7672,53.5528,162.3299],[29.7668,53.5419,180.2254],[29.7844,53.5198,177.4757],[29.825,53.5001,176.8181],[29.8246,53.4892,171.1242],[29.8013,53.4786,173.4045],[29.8011,53.4731,164.9836],[29.8055,53.4703,142.0252],[29.8239,53.4701,141.6288],[29.833,53.4672,141.5],[29.8467,53.467,141.5],[29.8555,53.4559,141.5],[29.8601,53.4559,141.5],[29.8645,53.4531,146.124],[29.8644,53.4504,156.2419],[29.8551,53.445,167.8322],[29.8549,53.4396,158.1837],[29.8637,53.4312,157.6084],[29.868,53.423,138.1476],[29.8633,53.4203,139.1255],[29.8632,53.4176,140.698],[29.8766,53.4092,136.5356],[29.8764,53.4037,136.2633],[29.881,53.4037,159.3241],[29.8808,53.3982,156.5588],[29.8761,53.3955,138.5357],[29.8759,53.3901,136.4116],[29.8711,53.3847,143.4719],[29.871,53.382,153.7249],[29.8754,53.3792,141.7751],[29.88,53.3791,139.0929],[29.9298,53.3647,167.1715],[29.9295,53.3592,168.623],[29.9201,53.3512,134.3595],[29.9199,53.3457,134.2595],[29.9285,53.3347,145.9473],[29.933,53.3319,149.4372],[29.9466,53.3289,133.6909],[29.9511,53.3261,133.7755],[29.937,53.3181,133.9536],[29.9503,53.307,138.426],[29.9456,53.3044,133.549],[29.9408,53.299,132.6763],[29.9362,53.299,132.5415],[29.9407,53.2962,132.4842],[29.9499,53.2988,146.5992],[29.9642,53.3123,161.9717],[29.9644,53.3177,163.4562],[29.9693,53.3258,158.7626],[29.974,53.3285,155.1779],[30.0014,53.3281,161.9113],[30.0104,53.3252,165.1025],[30.0327,53.3139,163.2673],[30.0555,53.3136,154.9019],[30.0693,53.3161,155.8959],[30.0965,53.3102,166.7853],[30.1052,53.3018,157.9422],[30.1409,53.2848,147.8717],[30.1497,53.2792,147.1906],[30.1495,53.2737,147.6944],[30.1572,53.2435,167.8916],[30.179,53.224,164.1388],[30.1971,53.2237,158.7688],[30.2018,53.2263,165.7968],[30.2151,53.2206,157.1116],[30.2425,53.2229,131.6343],[30.2518,53.2282,132.659],[30.27,53.2279,132.6183],[30.2887,53.2385,132.7507],[30.3431,53.2374,155.4974],[30.3477,53.2401,133.2559],[30.3435,53.2457,134.7084],[30.3483,53.251,132.9143],[30.3621,53.2535,135.1461],[30.3852,53.2613,132.6472],[30.3938,53.2529,133.3309],[30.4028,53.2527,138.7267],[30.4075,53.2554,142.1325],[30.4125,53.2635,154.5628],[30.4132,53.2772,158.396],[30.4226,53.2825,138.1808],[30.4407,53.2821,165.6728],[30.4811,53.2758,150.2156],[30.4858,53.2785,162.7781],[30.4861,53.2839,165.9821],[30.4908,53.2866,158.6275],[30.5273,53.2913,157.517],[30.5461,53.3046,160.2199],[30.5507,53.3045,168.9155],[30.5549,53.2989,161.7924],[30.5594,53.2988,161.2923],[30.5786,53.3176,157.5944]]]]}
,"properties": {"GID_2": "BLR.4.4_1","GID_0": "BLR","country": "Belarus","GID_1": "BLR.4_1","province": "Mogilev","NL_NAME_1": "Магілёўская","county": "Bykhaw","VARNAME_2": "Byhov","NL_NAME_2": "Быхаўскіраён","TYPE_2": "Raion","ENGTYPE_2": "District","CC_2": "NA","HASC_2": "BY.MA.BY","name": "Bykhaw.county","area_km2": 2267.834,"hist_schema_id": "Elevation0-9000","hist_area_km2": {"125": 120.583,"150": 1309.565,"175": 824.184,"200": 13.501}}}