{"type": "Feature","bbox": [26.3957,52.1296,27.5714,52.7106],"geometry": {"type": "MultiPolygon","coordinates": [[[[26.5584,52.4795,163.6659],[26.5544,52.4741,154.739],[26.5546,52.4687,157.7606],[26.5591,52.466,154.2524],[26.5595,52.4579,152.0856],[26.5688,52.4472,157.2746],[26.5469,52.4497,152.0254],[26.5078,52.4466,158.4872],[26.4475,52.4297,162.6411],[26.4346,52.4241,160.2445],[26.4299,52.4294,161.978],[26.4212,52.4293,156.9332],[26.4081,52.4265,164.5703],[26.4039,52.4237,151.0252],[26.4041,52.4183,155.3871],[26.4,52.4128,153.5518],[26.3957,52.4101,144.2363],[26.3962,52.402,159.3107],[26.4006,52.402,154.9535],[26.4008,52.3966,161.0473],[26.4056,52.3886,157.7746],[26.4147,52.3833,139.8174],[26.4239,52.3753,141.0765],[26.4329,52.37,142.4198],[26.4776,52.3542,156.0273],[26.4779,52.3488,150.0324],[26.4913,52.3436,154.9416],[26.5228,52.325,141.407],[26.524,52.3033,136.7373],[26.5111,52.2978,135.9863],[26.5114,52.2924,136.1427],[26.5204,52.2871,136.6207],[26.5292,52.2872,135.5702],[26.5378,52.29,134.4379],[26.551,52.2874,134.1629],[26.5526,52.2577,133.5011],[26.575,52.2471,133.5026],[26.5798,52.239,137.7732],[26.5888,52.2337,135.8829],[26.6065,52.2285,132.6875],[26.6112,52.2231,132.4542],[26.6114,52.2177,132.3801],[26.6204,52.2124,132.1351],[26.6208,52.207,132.8459],[26.6254,52.2016,131.9334],[26.6515,52.2019,131.8033],[26.656,52.1992,131.6559],[26.6609,52.1885,131.4877],[26.6653,52.1885,131.4262],[26.6778,52.1967,131.8571],[26.6864,52.1968,131.4338],[26.6906,52.1995,131.5641],[26.7037,52.1969,131.5719],[26.7347,52.1837,131.3425],[26.7523,52.1784,135.4042],[26.7526,52.173,132.8499],[26.7486,52.1676,132.8721],[26.7403,52.1621,131.6572],[26.7405,52.1594,133.2385],[26.7322,52.154,131.4133],[26.7282,52.1485,131.4856],[26.7285,52.1431,132.1201],[26.7205,52.1323,132.0663],[26.7293,52.1296,134.1352],[26.7676,52.138,131.9395],[26.7756,52.1489,132.5933],[26.7797,52.1516,135.0789],[26.8396,52.16,136.1507],[26.8526,52.1601,132.4726],[26.883,52.1548,130.8405],[26.9175,52.1548,130.8659],[26.9263,52.1521,130.0195],[26.9565,52.1521,129.8232],[26.9696,52.1494,130.0943],[26.974,52.1467,130.1542],[26.9743,52.1386,130.0185],[26.9788,52.1359,129.5459],[26.9831,52.1359,130.2278],[27.0042,52.1466,129.2332],[27.004,52.152,128.2934],[27.0082,52.1547,129.7138],[27.0211,52.1547,129.2096],[27.0299,52.1519,129.0017],[27.0425,52.16,129.0015],[27.0817,52.1571,128.2857],[27.0861,52.1544,128.0767],[27.0991,52.157,128.4118],[27.1165,52.157,128.336],[27.1254,52.1542,127.8313],[27.156,52.1541,127.7617],[27.1821,52.1622,127.7896],[27.1822,52.1595,127.7699],[27.1999,52.1594,127.8465],[27.2088,52.154,127.1873],[27.2132,52.154,127.227],[27.2176,52.1567,125.9776],[27.2308,52.1593,127.9116],[27.2486,52.1593,127.7048],[27.2529,52.1647,127.862],[27.2663,52.1674,127.7635],[27.2663,52.1647,129.519],[27.2797,52.1647,127.7479],[27.3108,52.17,128.0043],[27.3153,52.1673,127.1428],[27.3155,52.1592,127.7435],[27.32,52.1565,126.5161],[27.3289,52.1565,126.6335],[27.3424,52.1511,127.1574],[27.3468,52.1538,127.5811],[27.3468,52.1565,127.3405],[27.3422,52.1646,126.8898],[27.3556,52.1727,128.7126],[27.3601,52.17,127.7725],[27.3601,52.1646,132.4708],[27.3647,52.1565,126.7821],[27.3782,52.1538,129.1861],[27.3871,52.1565,130.6438],[27.3871,52.1592,132.3548],[27.396,52.1619,130.5082],[27.4095,52.1592,130.1845],[27.423,52.1592,129.4576],[27.4231,52.1565,128.697],[27.4141,52.1538,129.1107],[27.4141,52.1511,127.9624],[27.4186,52.1483,130.8541],[27.4321,52.1483,128.7919],[27.4367,52.1429,126.4858],[27.4457,52.1429,126.5672],[27.4456,52.1456,128.5307],[27.4411,52.1511,125.8262],[27.4366,52.1538,127.57],[27.441,52.1592,126.7726],[27.4455,52.1619,127.3514],[27.4545,52.1619,125.9244],[27.459,52.1592,124.8006],[27.477,52.1646,126.2165],[27.4815,52.1646,126.1739],[27.4861,52.1619,129.9967],[27.4816,52.1538,126.2027],[27.4726,52.1456,126.4247],[27.4727,52.1402,128.0018],[27.4772,52.1375,127.2624],[27.4907,52.1375,125.96],[27.5042,52.1456,125.8026],[27.5132,52.1456,125.5453],[27.5178,52.1429,125.5711],[27.5357,52.151,127.18],[27.5403,52.151,130.2482],[27.5402,52.1537,128.2518],[27.5357,52.1564,127.6154],[27.5357,52.1591,129.6088],[27.5447,52.1645,127.7406],[27.5401,52.1699,128.8928],[27.5536,52.178,134.6573],[27.5536,52.1834,137.1098],[27.54,52.1943,135.1129],[27.5399,52.197,134.0024],[27.5444,52.2024,135.3099],[27.5488,52.2131,135.924],[27.5533,52.2158,132.4333],[27.5669,52.2158,146.5913],[27.5714,52.2185,137.185],[27.5713,52.2212,141.1719],[27.5577,52.2293,135.9483],[27.5577,52.2374,138.6491],[27.5622,52.2401,140.3245],[27.5621,52.2536,140.0291],[27.5576,52.2563,138.4979],[27.544,52.2537,139.3294],[27.5395,52.2564,136.5194],[27.5395,52.2618,139.3533],[27.5439,52.2645,148.1169],[27.5439,52.2699,142.3778],[27.5258,52.2699,139.918],[27.5258,52.278,141.2887],[27.5212,52.2808,140.1688],[27.5032,52.2781,134.9207],[27.4986,52.2862,139.0697],[27.4896,52.2917,135.8194],[27.4851,52.2917,139.7358],[27.4805,52.2944,133.9593],[27.4805,52.2971,140.1384],[27.476,52.2998,137.3723],[27.4489,52.2971,138.0871],[27.4309,52.2972,131.7087],[27.4173,52.2999,135.5452],[27.4172,52.3107,131.4545],[27.4081,52.3161,132.2345],[27.3946,52.3188,142.7478],[27.3855,52.3243,134.7537],[27.3854,52.3351,133.3994],[27.3718,52.3378,136.3642],[27.3222,52.3378,133.3365],[27.2817,52.3351,134.4429],[27.2727,52.3378,134.0563],[27.2726,52.3459,134.9241],[27.2769,52.3567,133.9512],[27.2768,52.3648,134.0397],[27.2632,52.373,134.7242],[27.2854,52.3973,135.1071],[27.2898,52.4055,134.9331],[27.2718,52.4054,134.7518],[27.2627,52.4081,135.1083],[27.2491,52.4136,135.2161],[27.2355,52.4217,135.4668],[27.2354,52.4271,135.6755],[27.2264,52.4298,136.1755],[27.1724,52.4297,136.3138],[27.1676,52.4487,137.3351],[27.1674,52.4595,137.4985],[27.1628,52.4622,137.8487],[27.1404,52.4622,137.8334],[27.1354,52.4865,150.963],[27.1352,52.5,155.2349],[27.0902,52.5,142.7209],[27.0767,52.5027,143.3705],[27.0722,52.5054,142.0756],[27.0671,52.5351,159.7145],[27.0444,52.5459,143.8196],[27.0444,52.5486,142.8645],[27.0668,52.5486,157.2646],[27.0757,52.5541,147.5056],[27.0756,52.5595,157.2072],[27.071,52.5649,148.7255],[27.0709,52.5676,151.7051],[27.0753,52.573,155.4317],[27.0753,52.5757,149.3143],[27.0572,52.5784,155.6743],[27.0481,52.5838,154.3027],[27.0479,52.5919,153.4208],[27.0431,52.6108,151.2715],[27.0475,52.6136,154.8153],[27.0791,52.6136,151.556],[27.079,52.6163,152.9631],[27.0605,52.6434,146.5072],[27.0557,52.6569,153.2406],[27.0466,52.6596,152.3529],[27.024,52.6595,146.7762],[27.0195,52.6622,146.774],[27.0191,52.6812,159.5161],[26.9875,52.6811,150.4593],[26.9559,52.6891,150.3787],[26.9195,52.7053,151.8243],[26.9016,52.7052,151.6276],[26.888,52.7106,155.4257],[26.8835,52.7106,151.1522],[26.8659,52.6997,161.7709],[26.8393,52.6915,163.1893],[26.8127,52.6861,148.0419],[26.7687,52.6724,147.1879],[26.7342,52.648,170.3727],[26.7255,52.6453,149.3854],[26.7169,52.6399,152.8971],[26.7171,52.6345,165.1349],[26.7087,52.6263,162.4319],[26.7088,52.6236,166.0856],[26.7046,52.6209,162.4941],[26.7047,52.6182,166.239],[26.6828,52.6181,165.6314],[26.6739,52.6208,166.5759],[26.6653,52.6181,153.4994],[26.6657,52.61,159.5992],[26.6704,52.6019,164.32],[26.6708,52.5938,164.209],[26.6666,52.5911,160.427],[26.6712,52.5857,148.4345],[26.6799,52.5857,155.495],[26.6884,52.5912,160.1617],[26.6971,52.5912,153.4238],[26.6978,52.5777,148.2348],[26.7237,52.5832,154.8542],[26.7281,52.5832,151.2504],[26.7326,52.5805,152.6384],[26.7331,52.5697,147.8545],[26.7376,52.567,149.1384],[26.7378,52.5616,155.5391],[26.7247,52.5616,157.5683],[26.7075,52.5561,145.8965],[26.7076,52.5534,145.5448],[26.7166,52.5481,148.6452],[26.7167,52.5454,154.5451],[26.7001,52.5264,144.9599],[26.7008,52.5102,154.5959],[26.7141,52.5076,147.1989],[26.7185,52.5049,146.2985],[26.7058,52.4967,148.8695],[26.6844,52.4885,147.5148],[26.6626,52.4884,147.9615],[26.6412,52.4802,155.3136],[26.6107,52.4799,147.4261],[26.5804,52.477,151.7023],[26.567,52.4823,162.699],[26.5584,52.4795,163.6659]]]]}
,"properties": {"GID_2": "BLR.1.10_1","GID_0": "BLR","country": "Belarus","GID_1": "BLR.1_1","province": "Brest","NL_NAME_1": "Брэсцкая","county": "Luninets","VARNAME_2": "NA","NL_NAME_2": "Лунінецкіраён","TYPE_2": "Raion","ENGTYPE_2": "District","CC_2": "NA","HASC_2": "BY.BR.LU","name": "Luninets.county","area_km2": 2636.687,"hist_schema_id": "Elevation0-9000","hist_area_km2": {"0": 0.403,"25": 0.623,"50": 0.52,"75": 0.558,"100": 0.922,"125": 959.108,"150": 1623.198,"175": 51.355}}}