{"type":"Feature","properties":{"GID_2":"BLR.6.16_1","GID_0":"BLR","country":"Belarus","GID_1":"BLR.6_1","province":"Vitebsk","NL_NAME_1":"Вiцебская","county":"Shumilina","VARNAME_2":"Shumilino","NL_NAME_2":"Шумілінскіраён","TYPE_2":"Raion","ENGTYPE_2":"District","CC_2":"NA","HASC_2":"BY.VI.SI","name":"Shumilina.county"},
"geometry":{"type": "MultiPolygon","coordinates": [[[[29.8259,55.1896,144.4818],[29.7796,55.2177,160.9984],[29.7798,55.2232,150.3306],[29.7944,55.2314,148.4134],[29.8136,55.2367,153.427],[29.8233,55.2422,143.2861],[29.8327,55.2421,141.7557],[29.842,55.2365,140.1669],[29.8515,55.2364,147.7325],[29.8517,55.2419,151.2505],[29.8472,55.2475,171.2208],[29.8333,55.2559,161.3763],[29.8238,55.256,170.2569],[29.8145,55.2616,166.5798],[29.8149,55.2699,155.9328],[29.8246,55.2781,159.3263],[29.825,55.2864,152.5591],[29.8204,55.292,148.337],[29.8205,55.2947,146.0882],[29.8254,55.2975,154.1175],[29.8257,55.3058,160.8733],[29.8211,55.3113,152.09],[29.8212,55.3141,144.4427],[29.8356,55.3195,158.1833],[29.8217,55.3279,163.3699],[29.8079,55.3391,175.825],[29.8081,55.3447,167.5658],[29.8227,55.3556,167.5436],[29.8276,55.3611,172.7754],[29.8279,55.3694,185.6888],[29.8184,55.3695,186.2577],[29.8041,55.3669,189.893],[29.7805,55.367,184.1],[29.7756,55.3643,181.055],[29.7709,55.3644,179.1898],[29.7662,55.3672,173.1762],[29.7471,55.3645,172.8908],[29.7377,55.3674,172.8325],[29.7284,55.373,162.8563],[29.7239,55.3786,172.7007],[29.7052,55.387,163.0054],[29.6958,55.3898,170.6101],[29.6815,55.3899,179.6272],[29.6817,55.3955,171.4066],[29.6868,55.4065,158.4275],[29.6965,55.412,170.6762],[29.7065,55.4258,172.3231],[29.6831,55.437,176.5728],[29.6833,55.4426,171.1121],[29.6979,55.4536,163.8771],[29.6981,55.4619,166.9199],[29.6887,55.4647,171.5016],[29.6697,55.4649,161.3591],[29.6601,55.4594,168.0877],[29.6506,55.4594,162.4128],[29.646,55.465,154.3389],[29.6416,55.4761,157.3477],[29.6417,55.4817,155.7631],[29.6468,55.4928,163.1537],[29.6565,55.4982,157.9862],[29.6566,55.5038,168.6193],[29.6474,55.515,169.959],[29.6383,55.5317,145.5454],[29.6433,55.5484,150.9845],[29.6434,55.5623,162.5408],[29.6293,55.5707,154.3966],[29.6011,55.5737,147.828],[29.5871,55.5793,156.8576],[29.5825,55.5877,148.6674],[29.5544,55.5935,148.854],[29.5497,55.5964,159.5444],[29.5544,55.5991,153.494],[29.5498,55.6019,163.8282],[29.5218,55.6105,162.775],[29.517,55.6078,156.9552],[29.517,55.605,146.6519],[29.5122,55.6022,142.3687],[29.5029,55.6051,140.9048],[29.4886,55.5996,148.0361],[29.4884,55.594,149.1254],[29.4931,55.5912,142.462],[29.493,55.5884,145.9022],[29.4832,55.5801,152.9817],[29.483,55.5745,139.1277],[29.478,55.569,157.161],[29.4683,55.5635,163.5542],[29.4586,55.5608,145.0318],[29.449,55.5609,147.0602],[29.4394,55.561,137.813],[29.4347,55.5639,153.1774],[29.425,55.5639,139.1508],[29.4201,55.5612,146.5171],[29.4099,55.5474,150.9446],[29.3992,55.5225,156.6594],[29.3747,55.5145,151.6751],[29.3312,55.5149,153.4255],[29.3165,55.5096,147.6511],[29.3114,55.5041,146.7889],[29.306,55.4875,158.196],[29.2957,55.471,147.1075],[29.2956,55.4682,146.5187],[29.2906,55.4627,149.9905],[29.2759,55.4545,149.2705],[29.2373,55.4549,150.8706],[29.2022,55.4137,150.7335],[29.2021,55.411,162.2894],[29.1971,55.4027,158.774],[29.1922,55.4,159.1986],[29.1728,55.3947,142.3069],[29.1679,55.3919,156.22],[29.1486,55.3921,149.8798],[29.1437,55.3894,142.4019],[29.1341,55.3895,138.5986],[29.1244,55.3868,136.3853],[29.1145,55.3758,121.5929],[29.1048,55.3704,138.0388],[29.0856,55.3706,153.6772],[29.0761,55.3762,148.5823],[29.0521,55.3791,138.2477],[29.0426,55.382,129.3611],[29.0185,55.3794,126.8606],[29.0088,55.3767,150.2609],[28.999,55.3685,132.9279],[28.9939,55.3575,111.6329],[28.9935,55.3409,134.3385],[29.0458,55.3184,131.3804],[29.055,55.3018,147.866],[29.0644,55.2934,154.705],[29.0787,55.2878,130.7489],[29.1022,55.2683,126.0326],[29.1112,55.2461,151.8234],[29.1208,55.246,139.8014],[29.1398,55.2404,135.8569],[29.1637,55.2374,141.6415],[29.193,55.2564,122.492],[29.2074,55.2563,123.0519],[29.2169,55.2534,123.0484],[29.2307,55.234,126.2464],[29.2448,55.2256,124.9934],[29.2543,55.2227,123.3501],[29.2637,55.2171,123.2799],[29.2683,55.2088,114.1755],[29.2681,55.2033,126.4793],[29.2632,55.1978,122.4122],[29.263,55.1923,124.2224],[29.2675,55.184,147.1607],[29.2816,55.1756,119.2523],[29.2907,55.159,125.535],[29.2905,55.1535,136.8174],[29.3185,55.1312,128.3909],[29.3326,55.1255,116.3639],[29.3371,55.1145,136.7376],[29.3512,55.1088,138.7189],[29.3607,55.1087,135.0322],[29.3992,55.1166,135.7805],[29.4135,55.1164,136.4092],[29.4324,55.1107,126.2001],[29.4371,55.1079,125.9672],[29.4416,55.0996,118.7155],[29.4413,55.0914,134.9402],[29.4361,55.0804,127.6821],[29.4359,55.0749,137.6798],[29.4311,55.0722,130.4761],[29.4307,55.0612,119.2509],[29.4352,55.0529,131.6893],[29.4445,55.0473,143.2597],[29.4732,55.0498,141.3628],[29.4829,55.0552,138.876],[29.4878,55.0606,147.3256],[29.5024,55.0688,147.1612],[29.5218,55.0768,145.7948],[29.5458,55.0821,156.02],[29.5604,55.0902,140.8257],[29.5704,55.1011,154.7009],[29.6043,55.1173,139.72],[29.6519,55.1168,144.6787],[29.6897,55.111,139.6341],[29.7037,55.1053,140.4496],[29.7179,55.1052,143.6028],[29.7325,55.1133,146.1458],[29.7375,55.1188,145.7944],[29.7332,55.1298,134.6239],[29.7338,55.1436,119.5],[29.7291,55.1464,150.9422],[29.7345,55.1602,142.3364],[29.7539,55.171,136.6964],[29.7874,55.1762,153.6771],[29.8018,55.1816,159.1753],[29.8162,55.1842,152.3279],[29.8259,55.1896,144.4818]]]]}}